"chargeDeviceID","latitude","longitude","town","county","postcode","chargeDeviceStatus","dateCreated","dateUpdated","lastUpdated","locationType","GSS_CODE"
"b353888fbc3ee702b41d30669a23e12d",51.54491,-0.00876,"Stratford","London","E20 1YY","In service","2020-01-06 15:36:08","2020-01-06 15:36:08","","Public car park","E20 1YY"
"f53d6d41d4ea910e11d4ea914d58b803",51.54491,-0.00876,"Stratford","London","E20 1YY","In service","2020-01-06 15:36:08","2020-01-06 15:36:08","","Public car park","E20 1YY"
"61ef7c5a4cdc44aa15d46293f1f185b8",51.54491,-0.00876,"Stratford","London","E20 1YY","In service","2020-01-06 15:36:08","2020-01-06 15:36:08","","Public car park","E20 1YY"
"3ae50acb1eb21a62b4f1d6620f155c10",51.54491,-0.00876,"Stratford","London","E20 1YY","In service","2020-01-06 15:36:08","2020-01-06 15:36:08","","Public car park","E20 1YY"
"3c348a8f6ea52056921b931828359346",51.54491,-0.00876,"Stratford","London","E20 1YY","In service","2020-01-06 15:36:08","2020-01-06 15:36:08","","Public car park","E20 1YY"
"6e785fdfb123ff8b192f26cf595f74b1",51.54491,-0.00876,"Stratford","London","E20 1YY","In service","2020-01-06 15:36:08","2020-01-06 15:36:08","","Public car park","E20 1YY"
"f1a691a302e0704777146901f76ed7d8",51.45921,-0.07978,"London","London","SE22 8PT","In service","2020-08-11 12:35:50","2020-08-11 12:35:50","","Retail car park","SE22 8PT"
"815fd582e7db999144860fdf407e6745",51.45921,-0.07978,"London","London","SE22 8PT","In service","2020-08-11 12:35:50","2020-08-11 12:35:50","","Retail car park","SE22 8PT"
"89da5fbf7c4df3fad9fba0cb7e4e57ee",51.493353,0.121443,"London","London","SE2 9SA","In service","2017-10-09 11:30:33","2020-01-06 14:48:04","2019-10-12 16:21:11","Service station","SE2 9SA"
"3386ed26f4546ec93b595aa4cfb344d8",51.443777,0.063496,"London","London","SE9 2TD","In service","2018-03-12 15:10:10","2020-01-07 14:23:57","2019-10-12 17:01:01","Service station","SE9 2TD"
"f272f8e92b515dc1a9773206f0460a54",51.506949,-0.249272,"London","London","W3 7RS","In service","2018-05-11 14:45:20","2020-02-18 06:40:56","2019-07-25 08:07:27","Service station","W3 7RS"
"5de765f341bd3b759c0633a9bde9bc26",51.561793,-0.282131,"London","London","HA9 0EW","In service","2018-05-11 14:57:34","2020-02-18 06:41:12","2019-07-25 08:07:56","Service station","HA9 0EW"
"5dcb3acfb237e7af45f60b083a2b4305",51.507202,-0.026712,"London","London","E14 4AS","In service","2019-01-28 09:29:13","2020-01-07 14:56:13","2019-10-12 17:59:35","Public car park","E14 4AS"
"0d124848a0ea943f34d3a85bf3599943",51.507202,-0.026712,"London","London","E14 4AS","In service","2019-01-28 09:32:53","2020-01-07 14:56:23","2019-10-12 17:59:53","Public car park","E14 4AS"
"bda87c2e5bfb5bcfcd5e927287939386",51.59944,-0.076827,"Haringey","London","N17 7AB","In service","2019-02-05 09:09:23","2020-01-07 14:56:59","2019-10-12 17:51:42","Service station","N17 7AB"
"0cbe5209d15e66b1cbe4109f3d6e742a",51.592435,-0.286357,"London","London","NW9 6RN","In service","2019-11-27 17:12:02","2020-01-28 16:59:57","2020-01-28 16:08:49","Retail car park","NW9 6RN"
"8c860d94583bcf987725a2c6adf8ccb7",51.592435,-0.286357,"London","London","NW9 6RN","In service","2019-11-27 17:18:14","2020-01-28 16:07:57","2020-01-28 16:07:57","Retail car park","NW9 6RN"
"c84e35a6b0bb8d79f9babdc74d53587f",51.543517,0.005284,"Stratford","London","E151EN","In service","2020-01-31 11:00:02","2020-05-12 09:53:24","2020-05-12 09:53:24","Retail car park","E151EN"
"03f1c2a49f73ee5237758fbf01923d12",51.455028,-0.095575,"London","London","SE24 9LB","In service","2018-09-27 14:51:34","2019-11-20 15:29:15","2019-11-20 15:29:15","On-street","SE24 9LB"
"af9a68f579505faa32892088aaf12771",51.593005,0.029116,"South Woodford","London","E18 1EB","In service","2019-07-08 12:42:08","2019-11-20 15:15:56","2019-11-20 15:15:56","On-street","E18 1EB"
"4745b78574ff367858dd7b8935aa72b8",51.57882,0.025891,"Wanstead","London","E11 2EL","In service","2019-07-08 14:26:41","2019-11-20 15:17:06","2019-11-20 15:17:06","On-street","E11 2EL"
"2f2d5db27bc46ca8fc83990a1707c002",51.57786,0.020847,"Wanstead","London","E11 2SQ","In service","2019-07-08 14:39:01","2019-11-20 14:17:17","2019-11-20 14:17:17","On-street","E11 2SQ"
"1111f6fc04556a416c3c56f2c5c19b5f",51.575925,0.024942,"Wanstead","London","E11 2RQ","In service","2019-07-08 16:16:20","2019-11-20 14:16:46","2019-11-20 14:16:46","On-street","E11 2RQ"
"50baee118aaf9b5f672690e9d7a9afe7",51.57407,0.031407,"Wanstead","London","E11 2JU","In service","2019-07-08 16:30:37","2019-11-20 15:19:14","2019-11-20 15:19:14","On-street","E11 2JU"
"9b0c28aa76b78a8e41a19c04fcd0d22f",51.56553,0.028653,"Wanstead","London","E11 3QY","In service","2019-07-08 17:57:43","2019-11-20 15:20:00","2019-11-20 15:20:00","On-street","E11 3QY"
"2defa0c94e4f29a7ff9d7e4a3afaa6f7",51.565202,0.032707,"Wanstead","London","E12 5HG","In service","2019-07-08 18:07:31","2019-11-20 15:20:20","2019-11-20 15:20:20","On-street","E12 5HG"
"47233cada37e3377ce5d1a88a09a20ee",51.563728,0.032715,"Wanstead","London","E12 5HG","In service","2019-07-08 18:13:55","2019-11-20 15:20:41","2019-11-20 15:20:41","On-street","E12 5HG"
"5ce6577cd7a6cc90dbb58da260a703a4",51.563631,0.034852,"Wanstead","London","E12 5HN","In service","2019-07-08 18:21:13","2019-11-20 15:21:10","2019-11-20 15:21:10","On-street","E12 5HN"
"20c361dae26c548a297c7bd43b5f6ffa",51.541825,-0.205814,"Kilburn","London","NW6 7TJ","In service","2019-11-20 14:35:45","2019-11-20 15:44:41","2019-11-20 15:44:41","On-street","NW6 7TJ"
"3057ed379d86d22f0d349626be93b518",51.541907,-0.205743,"Kilburn","London","NW6 7TJ","In service","2019-11-20 16:11:25","2019-11-20 16:11:25","","On-street","NW6 7TJ"
"3f5fed85b8a10a982ec86da542348894",51.542132,-0.205397,"Kilburn","London","NW6 7EH","In service","2019-11-20 16:11:26","2019-11-20 16:11:26","","On-street","NW6 7EH"
"7866c3cf2b1fa64dea90f323b04881c7",51.542467,-0.204923,"Kilburn","London","NW6 7TJ","In service","2019-11-20 16:11:26","2019-11-20 16:11:26","","On-street","NW6 7TJ"
"d3dfddfd89c2fcec2c4a1c3f67c5d067",51.543078,-0.203195,"Kilburn","London","NW6 7EH","In service","2019-11-20 16:11:26","2019-11-20 16:11:26","","On-street","NW6 7EH"
"ccb745f4b144d30c4b883330a1114834",51.534199,-0.215557,"Kensal Green","London","NW6 6DH","In service","2019-11-20 16:11:26","2019-11-20 16:11:26","","On-street","NW6 6DH"
"8c2212fd9f104d3d81c3f1be9c51057e",51.534197,-0.230257,"Kensal Green","London","NW10 5AB","In service","2019-11-20 16:11:26","2019-11-20 16:11:26","","On-street","NW10 5AB"
"5e58ee9407af33022abd400727fb74df",51.534371,-0.227664,"Kensal Green","London","NW10 5AE","In service","2019-11-20 16:11:26","2019-11-20 16:11:26","","On-street","NW10 5AE"
"f4ca0e20708a4c6a1a09a20926f78813",51.534301,-0.21526,"Kensal Green","London","NW6 6DG","In service","2019-11-20 16:11:26","2019-11-20 16:11:26","","On-street","NW6 6DG"
"fbe266008fea763978ff159cbe625451",51.540725,-0.200822,"North Maida vale","London","NW6 7HL","In service","2019-11-20 16:11:26","2019-11-20 16:11:26","","On-street","NW6 7HL"
"edeac9b00d3c393830644d514471e7d0",51.543335,-0.20258,"Kilburn","London","NW6 7EQ","In service","2019-11-20 16:11:26","2019-11-20 16:11:26","","On-street","NW6 7EQ"
"a48832db3e915fbfeed9f47e1e51096b",51.533949,-0.216604,"Kensal Green","London","NW6 6DH ","In service","2019-11-20 16:11:26","2019-11-20 16:11:26","","On-street","NW6 6DH "
"3085d1405cbc507eb3aebef48fc482a8",51.542929,-0.20398,"Kilburn","London","NW6 7EH","In service","2019-11-20 16:11:26","2019-11-20 16:11:26","","On-street","NW6 7EH"
"f5e9ac6b749f4635bdc2a23159c7c639",51.534884,-0.212626,"Kensal Green","London","NW6 6DJ","In service","2019-11-20 16:11:26","2019-11-20 16:11:26","","On-street","NW6 6DJ"
"0559109a26611411de7acdb477d63f10",51.53374,-0.217529,"Kensal Green","London","NW6 6DH","In service","2019-11-20 16:11:26","2019-11-20 16:11:26","","On-street","NW6 6DH"
"8c9bee7eacc788eaa8863f8d7c33a121",51.540545,-0.200734,"North Maida vale","London","NW6 7HL","In service","2019-11-20 16:11:26","2019-11-20 16:11:26","","On-street","NW6 7HL"
"8313b45586a762852e20d6c919edb1c3",51.543472,-0.201856,"Kilburn","London","NW6 7EH","In service","2019-11-20 16:11:26","2019-11-20 16:11:26","","On-street","NW6 7EH"
"93d9d6faaa42355e0d765cca4a1a16ce",51.533932,-0.217076,"Kensal Green","London","NW6 6DG","In service","2019-11-20 16:11:27","2019-11-20 16:11:27","","On-street","NW6 6DG"
"f05b89782a7449f1242cf971dfee5724",51.554459,-0.238424,"Dollis Hill","London","NW10 1ND","In service","2019-11-20 16:11:27","2019-11-20 16:11:27","","On-street","NW10 1ND"
"1dcc077aab5503c56609968fc56e3f1b",51.540054,-0.200379,"North Maida vale","London","NW6 7HL","In service","2019-11-20 16:11:27","2019-11-20 16:11:27","","On-street","NW6 7HL"
"1c215ee983a4b11070e74969d9612e1d",51.536078,-0.23718,"Harlesden ","London","NW10 5UB","In service","2019-11-20 16:11:27","2019-11-20 16:11:27","","On-street","NW10 5UB"
"6b50dfe660e64a5d2a9c80909db063c7",51.534123,-0.231847,"Kensal Green","London","NW10 5AA","In service","2019-11-20 16:11:27","2019-11-20 16:11:27","","On-street","NW10 5AA"
"6858093550061a92d2103d3a48c10e4e",51.533723,-0.217956,"Kensal Green","London","NW6 6DG","In service","2019-11-20 16:11:27","2019-11-20 16:11:27","","On-street","NW6 6DG"
"46b8a0e73f80ac66c8fb8ec871748e4f",51.554307,-0.238005,"Dollis Hill","London","NW10 1NB","In service","2019-11-20 16:11:27","2019-11-20 16:11:27","","On-street","NW10 1NB"
"fa9364369b2d4eef0af96be8855164f0",51.543036,-0.203622,"Kilburn","London","NW6 7EQ","In service","2019-11-20 16:11:27","2019-11-20 16:11:27","","On-street","NW6 7EQ"
"83b2ff877c3ebedb1f415ba01dd5d1f0",51.540303,-0.200639,"North Maida vale","London","NW6 7HL","In service","2019-11-20 16:11:27","2019-11-20 16:11:27","","On-street","NW6 7HL"
"eac9c0b4ac231a1386551e207239f0bd",51.542735,-0.204541,"Kilburn ","London","NW6 7EQ ","In service","2019-11-20 16:11:27","2019-11-20 16:11:27","","On-street","NW6 7EQ "
"29a1c68c28579852a9fc42e4b4ec9088",51.542856,-0.204249,"Kilburn","London","NW6 7EQ ","In service","2019-11-20 16:11:27","2019-11-20 16:11:27","","On-street","NW6 7EQ "
"a1461d1ad8d2fad373ef09486e187bc0",51.534678,-0.213399,"Kensal Green","London","NW6 6DJ","In service","2019-11-20 16:11:28","2019-11-20 16:11:28","","On-street","NW6 6DJ"
"86c00acc71f819b4d821ec961680e37f",51.543381,-0.202175,"Kilburn","London","NW6 7EH","In service","2019-11-20 16:11:28","2019-11-20 16:11:28","","On-street","NW6 7EH"
"191aad1e888fe1932eda7401a6309758",51.534284,-0.22808,"Kensal Green","London","NW10 5AB","In service","2019-11-20 16:11:29","2019-11-20 16:11:29","","On-street","NW10 5AB"
"69054b3dade80ebd345ca0de53a796fd",51.534312,-0.22955,"Kensal Green","London","NW10 5AE","In service","2019-11-20 16:11:30","2019-11-20 16:11:30","","On-street","NW10 5AE"
"3d8292b86bb5f90292f9cea15878dd8a",51.534272,-0.228417,"Kensal Green","London","NW10 5AB","In service","2019-11-20 16:11:32","2019-11-20 16:11:32","","On-street","NW10 5AB"
"7f628a8eb4e3f0c16b03be3bad0ef1fa",51.538953,-0.201138,"North Maida Vale","London","NW6 7HG","In service","2019-11-20 16:11:33","2019-11-20 16:11:33","","On-street","NW6 7HG"
"6c5fbde2861c8bfe00687fbd8266d885",51.534219,-0.229976,"Kensal Green","London","NW10 5AB","In service","2019-11-20 16:11:33","2019-11-20 16:11:33","","On-street","NW10 5AB"
"c041fa6f5854d26f80690a5499d5cfa8",51.556218,-0.220333,"Cricklewood","London","NW2 6UJ","In service","2019-11-20 16:11:33","2019-11-20 16:11:33","","On-street","NW2 6UJ"
"5247fbfc9eb76e05dd0e1b4912fab4f4",51.534468,-0.214281,"Kensal Green","London","NW6 6DJ","In service","2019-11-20 16:11:33","2019-11-20 16:11:33","","On-street","NW6 6DJ"
"539a4d4573a7a9baaea42e49e12996ef",51.534387,-0.22701,"Kensal Green","London","NW10 5AD","In service","2019-11-20 16:11:33","2019-11-20 16:11:33","","On-street","NW10 5AD"
"f382cc7b6e7445c45ca5fb3003339e34",51.534315,-0.227435,"Kensal Green","London","NW10 5AB","In service","2019-11-20 16:11:33","2019-11-20 16:11:33","","On-street","NW10 5AB"
"2fdc964629e846b23ca6b5dbcca25cc6",51.554636,-0.239595,"Dollis Hill","London","NW10 1ND","In service","2019-11-20 16:11:33","2019-11-20 16:11:33","","On-street","NW10 1ND"
"b7a71f65670c6bc43010303caa72175c",51.534336,-0.22873,"Kensal Green","London","NW10 5AE","In service","2019-11-20 16:11:33","2019-11-20 16:11:33","","On-street","NW10 5AE"
"b97fb8561926f18a64f9ff3f68d44a82",51.534009,-0.216259,"Kensal Green","London","NW6 6DH","In service","2019-11-20 16:11:33","2019-11-20 16:11:33","","On-street","NW6 6DH"
"1622b7be808646be9dcf7249d98aff34",51.556592,-0.223055,"Cricklewood","London","NW2 6UN","In service","2019-11-20 16:11:33","2019-11-20 16:11:33","","On-street","NW2 6UN"
"6378d514d13cb6e272c6138353cff97f",51.55628,-0.287503,"Wembley","London","HA9 8DG","In service","2019-11-20 16:11:33","2019-11-20 16:11:33","","On-street","HA9 8DG"
"8b04eba77f2245a80433843a3b8264a4",51.556674,-0.288966,"Wembley","London","HA9 8DG","In service","2019-11-20 16:11:33","2019-11-20 16:11:33","","On-street","HA9 8DG"
"ac3c9c599e0a202e4fd510483a9aac1b",51.53927,-0.199873,"North Maida vale","London","NW6 7ER","In service","2019-11-20 16:11:33","2019-11-20 16:11:33","","On-street","NW6 7ER"
"abf8d689759d755f092b8981603e0582",51.538503,-0.247496,"Harlesden","London","NW10 4DY","In service","2019-11-20 16:11:34","2019-11-20 16:11:34","","On-street","NW10 4DY"
"173cdd6efafce2afa64d31dc0ba6cbf6",51.534164,-0.231147,"Kensal Green","London","NW10 5AA","In service","2019-11-20 16:11:34","2019-11-20 16:11:34","","On-street","NW10 5AA"
"2ffafa56e33d1b523f07c1eaa784740a",51.556567,-0.288682,"Wembley","London","HA9 8DG","In service","2019-11-20 16:11:34","2019-11-20 16:11:34","","On-street","HA9 8DG"
"77846f536d53c5f13d9e33a7b511bc9a",51.537045,-0.236117,"Harlesden ","London","NW10 5UA","In service","2019-11-20 16:11:34","2019-11-20 16:11:34","","On-street","NW10 5UA"
"c4ec8e0a15d299705045560037646e4c",51.55619,-0.220114,"Cricklewood","London","NW2 6TY","In service","2019-11-20 16:11:34","2019-11-20 16:11:34","","On-street","NW2 6TY"
"7da6279d738fdaef64d4c7f08d6c1e92",51.556889,-0.28929,"Wembley","London","HA9 8DF","In service","2019-11-20 16:11:34","2019-11-20 16:11:34","","On-street","HA9 8DF"
"0d57f9ae71c1dd7372a3a0016d2b3cf6",51.556287,-0.221099,"Cricklewood","London","NW2 6TX","In service","2019-11-20 16:11:34","2019-11-20 16:11:34","","On-street","NW2 6TX"
"42c39e7bde331109255c51f1fd37c3b1",51.538956,-0.209431,"Queen's Park","London","NW6 6TS","In service","2019-11-20 16:11:34","2019-11-20 16:11:34","","On-street","NW6 6TS"
"8a3d71a48f3b8f06334dd9aeecba127b",51.538508,-0.20907,"Queen's Park","London","NW6 6TL","In service","2019-11-20 16:11:34","2019-11-20 16:11:34","","On-street","NW6 6TL"
"c9b5df2aa1b48f5d0d7f6b8b635be242",51.534275,-0.230531,"Kensal Green","London","NW10 5AA","In service","2019-11-20 16:11:34","2019-11-20 16:11:34","","On-street","NW10 5AA"
"82a52993019f584ff74af40a20f9546c",51.5545,-0.23875,"Dollis Hill","London","NW10 1ND","In service","2019-11-20 16:11:34","2019-11-20 16:11:34","","On-street","NW10 1ND"
"dfd8c9f03b790e6c334485e03e784dfd",51.534652,-0.213843,"Kensal Green","London","NW6 6DL","In service","2019-11-20 16:11:34","2019-11-20 16:11:34","","On-street","NW6 6DL"
"81b5ba8ec0aca68eef2c656f72dcb76e",51.534798,-0.212953,"Kensal Green","London","NW6 6DJ","In service","2019-11-20 16:11:34","2019-11-20 16:11:34","","On-street","NW6 6DJ"
"adb4c903674d579c1a43dbf3ae93f077",51.538965,-0.201528,"North Maida Vale","London","NW6 7HH","In service","2019-11-20 16:11:34","2019-11-20 16:11:34","","On-street","NW6 7HH"
"f118c108ab40bd9f619b65bee7764f59",51.536824,-0.236531,"Harlesden ","London","NW10 5UA","In service","2019-11-20 16:11:34","2019-11-20 16:11:34","","On-street","NW10 5UA"
"3e67d1f24ebdbbbe125e7040442f6e84",51.538813,-0.201914,"North Maida Vale","London","NW6 7HG","In service","2019-11-20 16:11:34","2019-11-20 16:11:34","","On-street","NW6 7HG"
"c7c08177bdd7e4c50269d5d005d5bab5",51.534154,-0.232566,"Kensal Green","London","NW10 5AA","In service","2019-11-20 16:11:34","2019-11-20 16:11:34","","On-street","NW10 5AA"
"2c3ac64a01925fe40a18386abf1e0dd8",51.556479,-0.221976,"Cricklewood","London","NW2 6UE","In service","2019-11-20 16:11:34","2019-11-20 16:11:34","","On-street","NW2 6UE"
"2c89ab3310d2bef24b23e9fe0757ceda",51.534193,-0.215861,"Kensal Green","London","NW6 6DG","In service","2019-11-20 16:11:34","2019-11-20 16:11:34","","On-street","NW6 6DG"
"d9cf25e44284daa152fd8dbd6aed8466",51.534237,-0.229094,"Kensal Green","London","NW10 5AB","In service","2019-11-20 16:11:34","2019-11-20 16:11:34","","On-street","NW10 5AB"
"3210806875ddb9745d3d8313e65b81ab",51.556368,-0.221597,"Cricklewood","London","NW2 6UD","In service","2019-11-20 16:11:34","2019-11-20 16:11:34","","On-street","NW2 6UD"
"63d6352735e9e69c4d804dee37e227d4",51.539006,-0.247925,"Harlesden","London","NW10 4DY","In service","2019-11-20 16:11:34","2019-11-20 16:11:34","","On-street","NW10 4DY"
"e3722b66d3516f98751a1faa0a48e57e",51.53561,-0.23774,"Harlesden ","London","NW10 5UB","In service","2019-11-20 16:11:34","2019-11-20 16:11:34","","On-street","NW10 5UB"
"63f8c7b4d7ffc2c73e530663a34fa418",51.556305,-0.220823,"Cricklewood","London","NW2 6TY","In service","2019-11-20 16:11:34","2019-11-20 16:11:34","","On-street","NW2 6TY"
"e651fdc0316d0d16c6af304d2023ca3f",51.556185,-0.286654,"Wembley","London","HA9 8DG","In service","2019-11-20 16:11:34","2019-11-20 16:11:34","","On-street","HA9 8DG"
"b3482fa2cd8ff1be16d33b6446129b2b",51.534222,-0.231539,"Kensal Green","London","NW10 5AA","In service","2019-11-20 16:11:34","2019-11-20 16:11:34","","On-street","NW10 5AA"
"3dd0329059982b8b0ac4abbaf49a0396",51.536439,-0.236955,"Harlesden ","London","NW10 5UA","In service","2019-11-20 16:11:34","2019-11-20 16:11:34","","On-street","NW10 5UA"
"f184589a18ccb7e8e47e9d3d37fb3591",51.539318,-0.210028,"Queen's Park","London","NW6 6TL","In service","2019-11-20 16:11:34","2019-11-20 16:11:34","","On-street","NW6 6TL"
"76d095ac985804e93a26558ea3d6f2d6",51.556333,-0.287846,"Wembley","London","HA9 8DG","In service","2019-11-20 16:11:34","2019-11-20 16:11:34","","On-street","HA9 8DG"
"392f57426a3526a2844569daa6d1d038",51.538642,-0.209317,"Queen's Park","London","NW6 6TS","In service","2019-11-20 16:11:34","2019-11-20 16:11:34","","On-street","NW6 6TS"
"962ede405d68025752f6cfbb65dd3775",51.554481,-0.239166,"Dollis Hill","London","NW10 1NB","In service","2019-11-20 16:11:34","2019-11-20 16:11:34","","On-street","NW10 1NB"
"0c8a5b5da0bf8ad3bf49be9ad3440a50",51.539179,-0.248241,"Harlesden","London","NW10 4DT","In service","2019-11-20 16:11:34","2019-11-20 16:11:34","","On-street","NW10 4DT"
"9e2f56d9ecf57eef918289ca9ddba714",51.539129,-0.200659,"North Maida vale","London","NW6 7HH","In service","2019-11-20 16:11:34","2019-11-20 16:11:34","","On-street","NW6 7HH"
"38e41e1f784ae289522bb4d9cbe649cf",51.557094,-0.290595,"Wembley","London","HA9 8UP","In service","2019-11-20 16:11:34","2019-11-20 16:11:34","","On-street","HA9 8UP"
"4b970a20ca54eda1d7c9747a2ddeed78",51.556222,-0.287087,"Wembley","London","HA9 8DG","In service","2019-11-20 16:11:34","2019-11-20 16:11:34","","On-street","HA9 8DG"
"d0034253c091636672eedc07d1117982",51.556446,-0.288337,"Wembley","London","HA9 8DG","In service","2019-11-20 16:11:34","2019-11-20 16:11:34","","On-street","HA9 8DG"
"baee0b4911d103d8d4b5edd9427c52ad",51.554615,-0.240056,"Dollis Hill","London","NW10 1NB","In service","2019-11-20 16:11:34","2019-11-20 16:11:34","","On-street","NW10 1NB"
"419d380e9eaaad9ded90dc701d51d731",51.538866,-0.24801,"Harlesden","London","NW10 4DT","In service","2019-11-20 16:11:34","2019-11-20 16:11:34","","On-street","NW10 4DT"
"84c5ce2b2981e8392cc9e5d300c23303",51.554759,-0.240391,"Dollis Hill","London","NW10 1ND","In service","2019-11-20 16:11:34","2019-11-20 16:11:34","","On-street","NW10 1ND"
"ff10f7697b68cdfe7c26c32d369b4069",51.463005,-0.061463,"London ","London","SE15 3UD","In service","2019-11-20 17:33:11","2019-11-20 17:33:11","","On-street","SE15 3UD"
"73fbb580dfa4195ccdb639bab80f75d9",51.453772,-0.099088,"Herne Hill ","London","SE24 9LS","In service","2019-11-20 17:33:11","2019-11-20 17:33:11","","On-street","SE24 9LS"
"4ad97e7cc7b3c38ed9c2e469510869e4",51.457137,-0.074379,"East Dulwicj ","London","SE22 9DH","In service","2019-11-20 17:33:11","2019-11-20 17:33:11","","On-street","SE22 9DH"
"55af791e90410dcfca8cfb66ac06a20d",51.455246,-0.095824,"Herne Hill","London","SE24 9LF","In service","2019-11-20 17:33:11","2019-11-20 17:33:11","","On-street","SE24 9LF"
"a9fd4ded58a58bb42d651f0d748edb34",51.459132,-0.047873,"Nunhead","London","SE15 3DB","In service","2019-11-20 17:33:12","2020-09-03 08:38:23","","On-street","SE15 3DB"
"83c421f4a8828f7035a933ca8acf744b",51.453818,-0.098476,"Herne Hill","London","SE24 9LS","In service","2019-11-20 17:33:12","2019-11-20 17:33:12","","On-street","SE24 9LS"
"9c37979072cc999b3bb572af7a02fc74",51.498366,-0.035437,"Surrey Quays","London","SE16 5LJ","In service","2019-11-20 17:33:12","2019-11-20 17:33:12","","On-street","SE16 5LJ"
"dda0ae7b2f8ddb0dcea805770ab0df75",51.46118,-0.059183,"Nunhead","London","SE15 3UF","In service","2019-11-20 17:33:12","2019-11-20 17:33:12","","On-street","SE15 3UF"
"41f9f3863c0af79981e37db973b72860",51.459213,-0.047574,"London","London","SE15 3DB","In service","2019-11-20 17:33:12","2019-11-20 17:33:12","","On-street","SE15 3DB"
"913ba89c8ec99c3d45e225791ce96d1d",51.424742,-0.081474,"London ","London","SE19 1HD","In service","2019-11-20 17:33:12","2019-11-20 17:33:12","","On-street","SE19 1HD"
"1a66ee81aac434734cafee5bb6aea9dc",51.457553,-0.046483,"Honor Oak","London","SE15 3EA","In service","2019-11-20 17:33:13","2019-11-20 17:33:13","","On-street","SE15 3EA"
"989a4588b0cfdcbec0e4e8d1a1f61d8b",51.425083,-0.081971,"Crystal Palace","London","SE19 1HD","In service","2019-11-20 17:33:13","2019-11-20 17:33:13","","On-street","SE19 1HD"
"84e43a60237ffece9cd4c85c103e298c",51.451627,-0.063113,"London ","London","SE22 0QL","In service","2019-11-20 17:33:13","2019-11-20 17:33:13","","On-street","SE22 0QL"
"7d393d38b3c71c1a8a6c2f1c77c13f22",51.459295,-0.049782,"London ","London","SE15 3BY","In service","2019-11-20 17:33:14","2019-11-20 17:33:14","","On-street","SE15 3BY"
"3842cc134c8a40d477619af40a1b9813",51.450939,-0.077717,"London","London","SE22 8UH","In service","2019-11-20 17:33:14","2019-11-20 17:33:14","","On-street","SE22 8UH"
"ee92edd48f586699b992fea3d9a2ca85",51.449345,-0.087133,"London","London","SE21 7JR","In service","2019-11-20 17:33:14","2019-11-20 17:33:14","","On-street","SE21 7JR"
"b0e45106ff436880ba428e9bfb5ee8fb",51.461104,-0.058944,"Nunhead ","London","SE15 3UE","In service","2019-11-20 17:33:14","2019-11-20 17:33:14","","On-street","SE15 3UE"
"ef41b2ad0976c63d21d712e7fa9ec785",51.455816,-0.090993,"London ","London","SE24 9QL","In service","2019-11-20 17:33:15","2019-11-20 17:33:15","","On-street","SE24 9QL"
"132cdc22be806981e9e0c3cd4cea2480",51.455628,-0.091142,"London ","London","SE24 9QL","In service","2019-11-20 17:33:16","2019-11-20 17:33:16","","On-street","SE24 9QL"
"be67bf8266519268f8e83e4e870ffc15",51.462444,-0.047577,"London ","London","SE15 3BT","In service","2019-11-20 17:33:16","2019-11-20 17:33:16","","On-street","SE15 3BT"
"399ca2cae756946bfc919c8a00bbe304",51.486733,-0.075424,"London ","London","SE1 5AD","In service","2019-11-20 17:33:16","2019-11-20 17:33:16","","On-street","SE1 5AD"
"011aeb2f726228915872082ca1ecf098",51.449574,-0.087316,"London ","London","SE21 7JR","In service","2019-11-20 17:33:16","2019-11-20 17:33:16","","On-street","SE21 7JR"
"4ac72cb4b89b324c15f47b604647d562",51.462835,-0.048004,"London ","London","SE15 3BT","In service","2019-11-20 17:33:16","2019-11-20 17:33:16","","On-street","SE15 3BT"
"51d25b6e0d5cd60726d4e3447431e477",51.458933,-0.055937,"London ","London","SE15 3UA","In service","2019-11-20 17:33:16","2019-11-20 17:33:16","","On-street","SE15 3UA"
"0f7c471230f2a328b7286ca681b739d8",51.449578,-0.09236,"London","London","SE24 9HE","In service","2019-11-20 17:33:16","2019-11-20 17:33:16","","On-street","SE24 9HE"
"b2d9405b6be83dd471a4a18b87d77124",51.498355,-0.035094,"Surrey Quays","London","SE16 5LJ","In service","2019-11-20 17:33:16","2019-11-20 17:33:16","","On-street","SE16 5LJ"
"ce148e8f91c9b28879edd5683feb6947",51.454748,-0.064721,"London ","London","SE220LN ","In service","2019-11-20 17:33:16","2019-11-20 17:33:16","","On-street","SE220LN "
"2d931a400c1cb14a7ca3afe517d4a66a",51.471954,-0.098595,"London ","London","SE5 9HQ","In service","2019-11-20 17:33:16","2019-11-20 17:33:16","","On-street","SE5 9HQ"
"d194f08d5baaab2893ca7626a2415c8a",51.480742,-0.061368,"London ","London","SE15 1NE","In service","2019-11-20 17:33:16","2019-11-20 17:33:16","","On-street","SE15 1NE"
"014ccbabbb2c6c5a69b9d4d876fca7ad",51.454083,-0.095552,"London ","London","SE24 9LE","In service","2019-11-20 17:33:16","2019-11-20 17:33:16","","On-street","SE24 9LE"
"b6518b7da38fe94be1a3642a6e0dedfa",51.496296,-0.06411,"London ","London","SE16 4DD","In service","2019-11-20 17:33:16","2019-11-20 17:33:16","","On-street","SE16 4DD"
"0d1acb18712a07918cfd9c186fbcf01e",51.47296,-0.079843,"London ","London","SE5 8LY","In service","2019-11-20 17:33:16","2019-11-20 17:33:16","","On-street","SE5 8LY"
"e7e898027f9c6c78d4a625dfe2ae6106",51.490053,-0.063367,"London ","London","SE16 3NJ","In service","2019-11-20 17:33:16","2019-11-20 17:33:16","","On-street","SE16 3NJ"
"0cc36676967cb7edbb302fb4aafc34bc",51.500953,-0.083115,"London ","London","SE1 3JG","In service","2019-11-20 17:33:16","2019-11-20 17:33:16","","On-street","SE1 3JG"
"c12bb3f1959202905e09c966e58d8872",51.452107,-0.074027,"London","London","SE22 9JH","In service","2019-11-20 17:33:16","2019-11-20 17:33:16","","On-street","SE22 9JH"
"7f099640438bb3b0d4421f3155d9ec51",51.449972,-0.080051,"London ","London","SE217EG","In service","2019-11-20 17:33:16","2019-11-20 17:33:16","","On-street","SE217EG"
"e1e836ffc564e8237e4d2e87fac2bdbc",51.467695,-0.078767,"London ","London","SE5  8LE","In service","2019-11-20 17:33:16","2019-11-20 17:33:16","","On-street","SE5  8LE"
"4fab9a242bd97dae40e7144463db9e9a",51.445539,-0.066313,"Dulwich","London","SE22 0QY","In service","2019-11-20 17:33:16","2019-11-20 17:33:16","","On-street","SE22 0QY"
"6e27e2f0979a42d1a4a5b873f3d5942c",51.45582,-0.094098,"London ","London","SE24 9NY","In service","2019-11-20 17:33:16","2019-11-20 17:33:16","","On-street","SE24 9NY"
"c4e123c030d81458335a499dc467030d",51.453812,-0.067523,"London ","London","SE22 0AU","In service","2019-11-20 17:33:16","2019-11-20 17:33:16","","On-street","SE22 0AU"
"c664ec48cfb940b2ce2386c8fb7f9be8",51.457759,-0.050437,"London ","London","SE15 3AL","In service","2019-11-20 17:33:16","2019-11-20 17:33:16","","On-street","SE15 3AL"
"589a205ba88aa598a3e3325e89648832",51.451105,-0.057244,"London ","London","SE220RX ","In service","2019-11-20 17:33:16","2019-11-20 17:33:16","","On-street","SE220RX "
"2309f13eb008015a04e624729009697a",51.457678,-0.091529,"London ","London","SE249PL","In service","2019-11-20 17:33:16","2019-11-20 17:33:16","","On-street","SE249PL"
"713475f9556677741ad2cf55e62d6f6e",51.457038,-0.081923,"London ","London","SE22 8PX","In service","2019-11-20 17:33:16","2019-11-20 17:33:16","","On-street","SE22 8PX"
"6115f76940886ba16e62eb8306632f86",51.454211,-0.09055,"London ","London","SE24 9JL","In service","2019-11-20 17:33:17","2019-11-20 17:33:17","","On-street","SE24 9JL"
"ee68f2d3b5f3dc5fdb5dd3a11d437d8f",51.456826,-0.070308,"London ","London","SE22 9NB","In service","2019-11-20 17:33:17","2019-11-20 17:33:17","","On-street","SE22 9NB"
"8cab01fe5f2ac4568804c631ae519b8c",51.459477,-0.050539,"London ","London","SE15 3BL","In service","2019-11-20 17:33:17","2019-11-20 17:33:17","","On-street","SE15 3BL"
"253fbcc9e6a2a977cc43322f57bfd4b1",51.477897,-0.064994,"London ","London","SE15 1PY","In service","2019-11-20 17:33:17","2019-11-20 17:33:17","","On-street","SE15 1PY"
"ea8d1106c77e4036e2ee9789f24de38b",51.453935,-0.096817,"London ","London","SE24 9NA","In service","2019-11-20 17:33:17","2019-11-20 17:33:17","","On-street","SE24 9NA"
"221cfb49232cb44a746d4832ef2dddb9",51.455272,-0.092963,"London ","London","SE24 9NT","In service","2019-11-20 17:33:17","2019-11-20 17:33:17","","On-street","SE24 9NT"
"5c845c7af8c46fc941c28fe63b519256",51.457939,-0.094311,"London ","London","SE249PH","In service","2019-11-20 17:33:17","2019-11-20 17:33:17","","On-street","SE249PH"
"6997a8bd0e1042b70b60c5c879a1780e",51.49284,-0.063283,"London","London","SE163UQ","In service","2020-09-01 11:03:23","2020-09-01 11:03:23","","On-street","SE163UQ"
"bf010519359e67fff58b1c2507723a75",51.456003,-0.083287,"London","London","SE228TT","In service","2020-09-01 11:08:29","2020-09-01 11:08:29","","On-street","SE228TT"
"9ece71688524018ec6945ed5ac7c5245",51.503456,-0.098072,"London","London","SE10EL","In service","2020-09-01 11:14:55","2020-09-01 11:14:55","","On-street","SE10EL"
"9c820130a4fdf88d8193f10d4d3fa7ce",51.454227,-0.092748,"London","London","SE249NS","In service","2020-09-01 11:17:29","2020-09-01 11:17:29","","On-street","SE249NS"
"d200029c1c2e679c9b434db0a79fdb60",51.496371,-0.065826,"London","London","SE16 4QT","In service","2020-09-01 11:35:05","2020-09-01 11:35:05","","On-street","SE16 4QT"
"1d4fcd53904e48d0976b197dd61c6e38",51.463034,-0.076713,"London","London","SE154DA","In service","2020-09-01 11:57:25","2020-09-01 11:57:25","","On-street","SE154DA"
"4c4aaa6b3fcda549b44247e0c0601351",51.495857,-0.061472,"London","London","SE162HS","In service","2020-09-01 11:59:27","2020-09-01 12:03:50","","On-street","SE162HS"
"d919d59e2a1e037c10b5476027cd01b0",51.460239,-0.066253,"London","London","SE229QA","In service","2020-09-01 12:06:58","2020-09-01 12:06:58","","On-street","SE229QA"
"bf6d486087171d602533976bd4939c81",51.470542,-0.080765,"London","London","SE58NF","In service","2020-09-01 12:08:57","2020-09-01 12:08:57","","On-street","SE58NF"
"e6990f5a3eb5738fbb28fd8a53506f6f",51.475534,-0.072034,"London","London","SE155RW","In service","2020-09-02 15:00:32","2020-09-02 15:01:04","2020-09-02 16:01:04","On-street","SE155RW"
"ce9b375ecbaaf291c980b0b0f0b5e9f6",51.498133,-0.062019,"London","London","SE164RT","In service","2020-09-02 15:13:20","2020-09-02 15:23:29","","On-street","SE164RT"
"4bcf95892d90541828983408fef2e793",51.46673,-0.079166,"London","London","SE58DH","In service","2020-09-02 15:25:03","2020-09-02 15:25:03","","On-street","SE58DH"
"9635b2164866beb82a9198b430c896fc",51.491365,-0.09132,"London","London","SE171BX","In service","2020-09-02 15:29:31","2020-09-02 15:29:31","","On-street","SE171BX"
"3872d5306eefbc631ce3141c899f50a3",51.452011,-0.099799,"London","London","SE249HN","In service","2020-09-02 15:31:23","2020-09-02 15:31:23","","On-street","SE249HN"
"c84ea181faa023c1042a413ba4ad078b",51.460471,-0.0673,"London","London","SE229QB","In service","2020-09-02 15:33:00","2020-09-02 15:33:00","","On-street","SE229QB"
"bfb189671210fbfbcbf4237fdf5a2c9e",51.453079,-0.074341,"London","London","SE229JZ","In service","2020-09-02 15:34:24","2020-09-02 15:34:24","","On-street","SE229JZ"
"f3ef05ae57751139e57f8387bd967f43",51.477356,-0.055012,"London","London","SE152RQ","In service","2020-09-02 15:41:34","2020-09-02 15:41:34","","On-street","SE152RQ"
"aae0d20fe138ea808e60f77f714c251e",51.50071,-0.068971,"London","London","SE12BJ","In service","2020-09-02 15:43:26","2020-09-02 15:43:26","","On-street","SE12BJ"
"c0b6e6e1bf455835cdcc9a1472cc971e",51.45267,-0.079888,"London","London","SE228ST","In service","2020-09-02 15:55:57","2020-09-02 15:55:57","","On-street","SE228ST"
"705b74221bb320d2e32fd5440d1f9a6c",51.451721,-0.063798,"London","London","SE220QN","In service","2020-09-02 16:01:05","2020-09-02 16:01:05","","On-street","SE220QN"
"6027e723ea660f3a2cd1c811f9e0b2b8",51.470357,-0.081867,"London","London","SE58PG","In service","2020-09-02 16:04:53","2020-09-02 16:04:53","","On-street","SE58PG"
"0b5e344449c2876bc985b98ec9fb2da5",51.47609,-0.075513,"London","London","SE155GL","In service","2020-09-02 16:07:29","2020-09-02 16:07:29","","On-street","SE155GL"
"526e1ecd09a79b067847ca13e3ccecaf",51.455193,-0.066561,"London","London","SE220AU","In service","2020-09-02 16:09:48","2020-09-02 16:09:48","","On-street","SE220AU"
"81f61042dce735eee4789cf1ce0233f3",51.465955,-0.080975,"London","London","SE58DF","In service","2020-09-02 16:12:26","2020-09-02 16:12:26","","On-street","SE58DF"
"67f2af3aa2dcaeeece0f2bac87afcdc1",51.504369,-0.040066,"London","London","SE16 6NQ","In service","2020-09-02 16:15:22","2020-09-02 16:15:22","","On-street","SE16 6NQ"
"631e7b7a05742837ad8859c34a00e02f",51.441828,-0.064303,"London","London","SE233DR","In service","2020-09-02 16:19:18","2020-09-02 16:19:36","","On-street","SE233DR"
"cee934637979895ae52485487dadca8a",51.455898,-0.075024,"London","London","SE229DL","In service","2020-09-02 16:21:12","2020-09-02 16:21:12","","On-street","SE229DL"
"7d148feb64eef8538fa531cc1e94e767",51.475714,-0.080702,"London","London","SE57DU","In service","2020-09-02 16:24:22","2020-09-02 16:24:22","","On-street","SE57DU"
"fd6522107f6ee7340d673d02770facf6",51.490059,-0.102907,"London","London","SE114JE","In service","2020-11-18 11:11:06","2020-11-18 11:12:51","","On-street","SE114JE"
"9e500f4c2d43935070e57ff9a3f47a6d",51.431411,-0.089223,"London","London","SE218AX","In service","2020-11-18 11:15:28","2020-11-18 11:15:28","","On-street","SE218AX"
"3915553129a58407884e2ff728e11536",51.491782,-0.10101,"London","London","SE173AN","In service","2020-11-18 11:17:37","2020-11-18 11:17:37","","On-street","SE173AN"
"d9c1f12818a167b0a76fed5e79e2b986",51.49355,-0.104555,"London","London","SE114TE","In service","2020-11-18 11:20:57","2020-11-18 11:20:57","","On-street","SE114TE"
"7cb8bef8be2221a6c4fc8fa63e058a5b",51.470073,-0.056347,"London","London","SE15 2TE","In service","2020-11-18 11:22:50","2020-11-18 11:22:50","","On-street","SE15 2TE"
"6aa0ab5b874b35bb21f89136ee1e8175",51.450529,-0.082988,"London","London","SE217DN","In service","2020-11-18 11:24:30","2020-11-18 11:24:30","","On-street","SE217DN"
"0994c8d1d6bc62cc56e9112d2303266b",51.446813,-0.066736,"London","London","SE220PQ","In service","2020-11-18 11:26:40","2020-11-18 11:26:40","","On-street","SE220PQ"
"20360ed4ef93ae58d17bacad6782c953",51.476449,-0.096801,"London","London","SE50JY","In service","2020-11-18 11:28:31","2020-11-18 11:28:31","","On-street","SE50JY"
"71a8ad2060e607c12c8c3c50013eafc9",51.488468,-0.1011,"London","London","SE173QE","In service","2020-11-18 11:33:05","2020-11-18 11:33:05","","On-street","SE173QE"
"495c0f6e98bc852736c232dd65405659",51.486044,-0.063025,"London","London","SE163HA","In service","2020-11-18 11:34:50","2020-11-18 11:34:50","","On-street","SE163HA"
"fc61d0a773fcc42b8fe6a8a6297fbce4",51.485331,-0.057211,"London","London","SE16 3AD","In service","2020-11-18 11:37:47","2020-11-18 11:37:47","","On-street","SE16 3AD"
"35d0c0e834682f3a9f85f75e3ac3695f",51.483461,-0.101755,"London","London","SE17 3ND","In service","2020-11-18 11:40:40","2020-11-18 11:40:40","","On-street","SE17 3ND"
"3dae7d02b063d20a593ed61053bf966c",51.47601,-0.088272,"London","London","SE5 7RD","In service","2020-11-18 11:55:08","2020-11-18 11:55:08","","On-street","SE5 7RD"
"98148a4a24250deac0a7565e8d5584a6",51.495418,-0.074727,"London","London","SE16 3GD","In service","2020-11-18 12:02:59","2020-11-18 12:02:59","","On-street","SE16 3GD"
"55310874007873a55eeeca921a35ed6b",51.495507,-0.074283,"London","London","SE16 3GD","In service","2020-11-18 12:04:56","2020-11-18 12:04:56","","On-street","SE16 3GD"
"00b5f80238003a864880fe7d05293d64",51.495584,-0.073832,"London","London","SE16 3GD","In service","2020-11-18 12:06:43","2020-11-18 12:06:43","","On-street","SE16 3GD"
"d44516e88a548ff1b4d73b7f9ee80a0a",51.576764,-0.121941,"Haringey","London","N8 9AX","In service","2020-12-31 15:20:38","2020-12-31 15:20:38","","On-street","N8 9AX"
"12bd85bf4bd61bb2221c4b9126d0f7f3",51.578051,-0.08865,"Haringey","London","N4 1PE","In service","2020-12-31 15:22:33","2020-12-31 15:22:33","","On-street","N4 1PE"
"39c3ed2954d12d9e72267668de695760",51.58867,-0.147658,"Haringey","London","N10 3AY","In service","2020-12-31 15:25:05","2020-12-31 15:25:05","","On-street","N10 3AY"
"d8b6528bbdf1c0f53259b92ada98d1c6",51.606307,-0.1141,"Haringey","London","N22 8LY","In service","2020-12-31 15:27:20","2020-12-31 15:27:20","","On-street","N22 8LY"
"1fbf96ac97d4fa17631bbc60e58efe1a",51.575612,-0.108199,"Haringey","London","N4 4LD","In service","2020-12-31 15:28:52","2020-12-31 15:28:52","","On-street","N4 4LD"
"0a521f4b3f184d3e27654212e38c7b76",51.578497,-0.064141,"Haringey","London","N15 6BT","In service","2020-12-31 15:30:33","2020-12-31 15:30:33","","On-street","N15 6BT"
"def869735a61692bcc4ea8e89906879b",51.584196,-0.083933,"Haringey","London","N15 5DS","In service","2020-12-31 15:32:01","2020-12-31 15:32:01","","On-street","N15 5DS"
"15760e7b4618c67f5eb38e6e089b8b38",51.576907,-0.12173,"Haringey","London","N8 9AX","In service","2020-12-31 15:33:34","2020-12-31 15:33:34","","On-street","N8 9AX"
"e4e658466b78e5a55605e78a3cff7768",51.59754,-0.13868,"Haringey ","London","N10 2NH","In service","2020-12-31 15:35:13","2020-12-31 15:35:13","","On-street","N10 2NH"
"8d06142fb86140c6f17b843bb4f74960",51.574884,-0.118253,"Haringey","London","N4 4SL","In service","2020-12-31 15:36:39","2020-12-31 15:36:39","","On-street","N4 4SL"
"d89b927540524aca1bf49cc970d03f94",51.607336,-0.105174,"Haringey","London","N22 5AS","In service","2020-12-31 15:38:57","2020-12-31 15:38:57","","On-street","N22 5AS"
"35ea0e6a8aa9e41d3c1d8377536ec381",51.607336,-0.063856,"Haringey","London","N15 6BZ","In service","2020-12-31 15:41:57","2020-12-31 15:41:57","","On-street","N15 6BZ"
"edaea92115915fd2075b53190068f221",51.577035,-0.109267,"Haringey","London","N4 4LB","In service","2020-12-31 15:53:57","2020-12-31 15:53:57","","On-street","N4 4LB"
"3fdbfe846a9b58451c9a4803e77336a4",51.59477,-0.137686,"Haringey","London","N10 2LA","In service","2020-12-31 15:55:26","2020-12-31 15:55:26","","On-street","N10 2LA"
"cdde3d4e508d041741794da623dcb393",51.606293,-0.113539,"Haringey","London","N22 8LY","In service","2020-12-31 15:59:43","2020-12-31 15:59:43","","On-street","N22 8LY"
"a302e3f3e891a1202046b6046d9bc5b8",51.577938,-0.089087,"Haringey","London","N4 1PD","In service","2020-12-31 16:01:55","2020-12-31 16:01:55","","On-street","N4 1PD"
"092a42505516426ba4805864396a1f59",51.596289,-0.133679,"Haringey","London","N10 2QL","In service","2020-12-31 16:04:23","2020-12-31 16:04:23","","On-street","N10 2QL"
"54d4a7482b7342bb1abba0e55c521183",51.584232,-0.0836,"Haringey","London","N15 5DS","In service","2020-12-31 16:07:29","2020-12-31 16:07:29","","On-street","N15 5DS"
"7665427ba80964e2494e9601e46f5946",51.607405,-0.105378,"Haringey","London","N22 5AS","In service","2020-12-31 16:08:52","2020-12-31 16:08:52","","On-street","N22 5AS"
"826c468eaa57e481357a5b9416513790",51.577442,-0.109144,"Haringey","London","N4 4JX","In service","2020-12-31 16:11:41","2020-12-31 16:11:41","","On-street","N4 4JX"
"923c5f28baa1870eabbd174ea6a1221d",51.466413,-0.120007,"London","London Borough of Lambeth","SW9 9QR","In service","2019-10-10 15:08:19","2019-10-10 15:08:19","","On-street","SW9 9QR"
"8889ba407b3d1b3443419b0769864651",51.427151,-0.125516,"London","London Borough of Lambeth","SW16 2DF","In service","2019-10-10 15:08:19","2019-10-10 15:08:19","","On-street","SW16 2DF"
"72a8221d489e3b925e96c1e1ef6a0ebe",51.469573,-0.136955,"London","London Borough of Lambeth","SW4 6JY","In service","2019-10-10 15:08:19","2019-10-10 15:08:19","","On-street","SW4 6JY"
"5ecfc7702b766faf6c92899910785a6a",51.452446,-0.1167,"Brixton","London Borough of Lambeth","SW2 2JS","In service","2019-10-10 15:08:19","2019-10-10 15:08:19","","On-street","SW2 2JS"
"a4684b943e55d4c30b5895c0ae8bb5ff",51.469131,-0.101406,"Brixton, London","London Borough of Lambeth","SE5 9DX","In service","2019-10-10 15:08:19","2019-10-10 15:08:19","","On-street","SE5 9DX"
"5b2fa35fa5ed3f224fd8b2b6debf31b3",51.466092,-0.136451,"London","London Borough of Lambeth","SW4 6HN","In service","2019-10-10 15:08:19","2019-10-10 15:08:19","","On-street","SW4 6HN"
"28744524b85a0e1127172610f43ae0df",51.427731,-0.108641,"West Norwood","London Borough of Lambeth","SE27 0TA","In service","2019-10-10 15:08:19","2019-10-10 15:08:19","","On-street","SE27 0TA"
"74398c40d0828895d4176c751a8d2c45",51.483913,-0.113143,"London","London Borough of Lambeth","SE11 5BU","In service","2019-10-10 15:08:19","2019-10-10 15:08:19","","On-street","SE11 5BU"
"e4343ac10dbaada982a3108b5ae6315f",51.450675,-0.128641,"London","London Borough of Lambeth","SW2 4JE","In service","2019-10-10 15:08:19","2019-10-10 15:08:19","","On-street","SW2 4JE"
"e6943edad528aecf01ceb876d04f8405",51.459793,-0.112812,"London","London Borough of Lambeth","SW2 1DP","In service","2019-10-10 15:08:19","2019-10-10 15:08:19","","On-street","SW2 1DP"
"488fbc61af44741162461bf624804d4c",51.50017,-0.11059,"London","London Borough of Lambeth","SE1 7BD","In service","2019-10-10 15:08:19","2019-10-10 15:08:19","","On-street","SE1 7BD"
"fe68c1592abb7b99132c2494430a53c4",51.456296,-0.137616,"London","London Borough of Lambeth","SW4 9NA","In service","2019-10-10 15:08:19","2019-10-10 15:08:19","","On-street","SW4 9NA"
"3825910defacfd3d9b49d976a768e998",51.446493,-0.13534,"London","London Borough of Lambeth","SW12 0JW","In service","2019-10-10 15:08:19","2019-10-10 15:08:19","","On-street","SW12 0JW"
"f1e48562c8c0cb395579c4031d307148",51.469691,-0.104394,"London","London Borough of Lambeth","SW9 7UA","In service","2019-10-10 15:08:26","2019-10-10 15:08:26","","On-street","SW9 7UA"
"2a74ff2b85f5890a9b1caff5b89e18a2",51.436959,-0.097935,"London","London Borough of Lambeth","SE27 9EE","In service","2019-10-10 15:08:27","2019-10-10 15:08:27","","On-street","SE27 9EE"
"e83d3ce589ef4178cb9a5446bf3c0475",51.471521,-0.118022,"London","London Borough of Lambeth","SW9 0DG","In service","2019-10-10 15:08:27","2019-10-10 15:08:27","","On-street","SW9 0DG"
"a3f2130d312ab153ba470886115ea2ee",51.465308,-0.142616,"London","London Borough of Lambeth","SW4 0HW","In service","2019-10-10 15:08:27","2019-10-10 15:08:27","","On-street","SW4 0HW"
"97f4c22bfe4216becff94b18fb479131",51.474783,-0.102536,"London","London Borough of Lambeth","SE5 9LP","In service","2019-10-10 15:08:27","2019-10-10 15:08:27","","On-street","SE5 9LP"
"08c3af3c6f09112b192408d028bf9649",51.45572,-0.106874,"London","London Borough of Lambeth","SE24 0JZ","In service","2019-10-10 15:08:27","2019-10-10 15:08:27","","On-street","SE24 0JZ"
"dc5da8afd9b2be9cb8dd5bdc509d1d40",51.46542,-0.142288,"London","London Borough of Lambeth","SW4 0HW","In service","2019-10-10 15:08:27","2019-10-10 15:08:27","","On-street","SW4 0HW"
"39e989a091af097f2762083a8ccfb10e",51.448844,-0.11714,"London","London Borough of Lambeth","SW2 2UA","In service","2019-10-10 15:08:29","2019-10-10 15:08:29","","On-street","SW2 2UA"
"8c19c123a9aba6ebca87566870654ac6",51.475335,-0.116673,"London","London Borough of Lambeth","SW9 0RR","In service","2019-10-10 15:08:29","2019-10-10 15:08:29","","On-street","SW9 0RR"
"9e4442ae35729fa466769bbb77c2d333",51.50175,-0.10832,"London","London Borough of Lambeth","SE1 8PZ","In service","2019-10-10 15:08:29","2019-10-10 15:08:29","","On-street","SE1 8PZ"
"9d260e5757e8df6b5ca0aa902e34d529",51.441943,-0.12161,"London","London Borough of Lambeth","SW2 3TB","In service","2019-10-10 15:08:29","2019-10-10 15:08:29","","On-street","SW2 3TB"
"94c0804be8acc161769e9acb77d8ec32",51.471114,-0.108397,"London","London Borough of Lambeth","SW9 6SU","In service","2019-10-10 15:08:29","2019-10-10 15:08:29","","On-street","SW9 6SU"
"52f567614a900ad127dc800b26318803",51.436063,-0.119366,"London","London Borough of Lambeth","SW2 3AJ","In service","2019-10-10 15:08:29","2019-10-10 15:08:29","","On-street","SW2 3AJ"
"4ff47a28ca09766111000e151bbfdc13",51.468028,-0.13898,"London","London Borough of Lambeth","SW4 6HR","In service","2019-10-10 15:08:29","2019-10-10 15:08:29","","On-street","SW4 6HR"
"03c28813b4b6c6f079dd86352b8a9221",51.461989,-0.099071,"London","London Borough of Lambeth","SE24 0AP","In service","2019-10-10 15:08:29","2019-10-10 15:08:29","","On-street","SE24 0AP"
"fc4d25f1b28296b004a6f86195490df8",51.45659,-0.110907,"London","London Borough of Lambeth","SW2 1PP","In service","2019-10-10 15:08:29","2019-10-10 15:08:29","","On-street","SW2 1PP"
"2cb4bf73635733733a91c88d6a672c49",51.424483,-0.121519,"London","London Borough of Lambeth","SW16 2AQ","In service","2019-10-10 15:08:29","2019-10-10 15:08:29","","On-street","SW16 2AQ"
"0bb91c9a1117d8fb91ea8ac8c44964bf",51.472884,-0.13222,"London","London Borough of Lambeth","SW8 2RS","In service","2019-10-10 15:08:29","2019-10-10 15:08:29","","On-street","SW8 2RS"
"263ccd7aa3254ceb086f6e307a7ae7c8",51.438747,-0.123086,"London","London Borough of Lambeth","SW2 3BG","In service","2019-10-10 15:08:30","2019-10-10 15:08:30","","On-street","SW2 3BG"
"994bd481da4d594d50499cefdd0283d5",51.434034,-0.101203,"London","London Borough of Lambeth","SE27 9LA","In service","2019-10-10 15:08:30","2019-10-10 15:08:30","","On-street","SE27 9LA"
"e4a9fe59173016a7907f6b65ad9a884e",51.484464,-0.11397,"London","London Borough of Lambeth","SE11 5SG","In service","2019-10-10 15:08:30","2019-10-10 15:08:30","","On-street","SE11 5SG"
"3a6a6e9a747fbf1e7676aa4bcd0d377f",51.455523,-0.134217,"London","London Borough of Lambeth","SW4 8QE","In service","2019-10-10 15:08:30","2019-10-10 15:08:30","","On-street","SW4 8QE"
"85548ffe5135b9569bd89d7b6b741ee4",51.423061,-0.090529,"London","London Borough of Lambeth","SE19 1JH","In service","2019-10-10 15:08:30","2019-10-10 15:08:30","","On-street","SE19 1JH"
"2a5503bcd9f31c87203b3797ff00de24",51.458402,-0.097745,"London","London Borough of Lambeth","SE24 0DQ","In service","2019-10-10 15:08:30","2019-10-10 15:08:30","","On-street","SE24 0DQ"
"6ca87ee1dc3663aafc965aa1be0234f6",51.420287,-0.135159,"London","London Borough of Lambeth","SW16 5PE","In service","2019-10-10 15:08:30","2019-10-10 15:08:30","","On-street","SW16 5PE"
"7e1f35e9e0262960fcbf7476342dd49d",51.455454,-0.134705,"London","London Borough of Lambeth","SW4 8RA","In service","2019-10-10 15:08:30","2019-10-10 15:08:30","","On-street","SW4 8RA"
"435aa0a8354611a5592497b114d11dad",51.431604,-0.09166,"London","London Borough of Lambeth","SE27 9RU","In service","2019-10-10 15:08:30","2019-10-10 15:08:30","","On-street","SE27 9RU"
"fc1339be20f2c7f4a2ee9bdeed18144a",51.457695,-0.135161,"London","London Borough of Lambeth","SW4 9JJ","In service","2019-10-10 15:08:30","2019-10-10 15:08:30","","On-street","SW4 9JJ"
"f760a057b5cc643c17067370928ee45f",51.43389,-0.113423,"London","London Borough of Lambeth","SE27 0BJ","In service","2019-10-10 15:08:30","2019-10-10 15:08:30","","On-street","SE27 0BJ"
"299ab85d5a592c8b4649f52263314758",51.467817,-0.097041,"London","London Borough of Lambeth","SE5 9PF","In service","2019-10-10 15:08:30","2019-10-10 15:08:30","","On-street","SE5 9PF"
"7ec5b36820ed1cc1735ac0b8d6617d48",51.465871,-0.145592,"London","London Borough of Lambeth","SW4 0LY","In service","2019-10-10 15:08:31","2019-10-10 15:08:31","","On-street","SW4 0LY"
"22872122c6be252e15c87a7da83312a5",51.467161,-0.137023,"London","London Borough of Lambeth","SW4 6DU","In service","2019-10-10 15:08:31","2019-10-10 15:08:31","","On-street","SW4 6DU"
"aa955ab69f8c45b03468465c03e5bd38",51.454272,-0.140734,"London","London Borough of Lambeth","SW4 9HT","In service","2019-10-10 15:08:31","2019-10-10 15:08:31","","On-street","SW4 9HT"
"6612ec8ffce6ffde437065d80dbc75bb",51.468101,-0.13824,"London","London Borough of Lambeth","SW4 6LB","In service","2019-10-10 15:08:32","2019-10-10 15:08:32","","On-street","SW4 6LB"
"19e45a80f7f5887db111e8de4f1ac818",51.462462,-0.131191,"London","London Borough of Lambeth","SW4 7NF","In service","2019-10-10 15:08:32","2019-10-10 15:08:32","","On-street","SW4 7NF"
"1f8911b0ff40fbc0408c8d9e5d0dd193",51.456567,-0.127694,"London","London Borough of Lambeth","SW2 5DR","In service","2019-10-10 15:08:32","2019-10-10 15:08:32","","On-street","SW2 5DR"
"a2a149ddb04862c521626b4cbf405262",51.474283,-0.102144,"London","London Borough of Lambeth","SE5 9LP","In service","2019-10-10 15:08:32","2019-10-10 15:08:32","","On-street","SE5 9LP"
"b7358a182de49deaef3fb0300691c44f",51.494019,-0.109731,"London","London Borough of Lambeth","SE11 4UB","In service","2019-10-10 15:08:41","2019-10-10 15:08:41","","On-street","SE11 4UB"
"57fac2df8f52ea159ba6ee22e8a62388",51.517603,-0.129837,"London","London Borough of Camden","WC1B 3AJ","In service","2019-10-10 15:08:41","2019-10-10 15:08:41","","On-street","WC1B 3AJ"
"ed6efa2a688ddc6cd41c820a7dbc199c",51.533073,-0.133529,"London","London Borough of Camden","NW1 1RB","In service","2019-10-10 15:08:41","2019-10-10 15:08:41","","On-street","NW1 1RB"
"d5bbb0d819183ff56b09858f0acda9d2",51.429694,-0.133664,"London","London Borough of Lambeth","SW16 1RD","In service","2019-10-10 15:08:41","2019-10-10 15:08:41","","On-street","SW16 1RD"
"bc54cb4a4a51322747ecd21d29947b1a",51.499947,-0.110097,"London","London Borough of Lambeth","SE1 7RF","In service","2019-10-10 15:08:41","2019-10-10 15:08:41","","On-street","SE1 7RF"
"b2117d30b18a0d9b5bc6427036c30758",51.489178,-0.117435,"London","London Borough of Lambeth","SE11 5LF","In service","2019-10-10 15:08:41","2019-10-10 15:08:41","","On-street","SE11 5LF"
"9fb92dbe14e7ced09c12c56f0a6912b1",51.448482,-0.098884,"London","London Borough of Lambeth","SE24 9DH","In service","2019-10-10 15:08:41","2019-10-10 15:08:41","","On-street","SE24 9DH"
"ad03b1b9abf25265bba8bf4fe16131dc",51.448793,-0.116748,"London","London Borough of Lambeth","SW2 2TZ","In service","2019-10-10 15:08:41","2019-10-10 15:08:41","","On-street","SW2 2TZ"
"85bcbc95ba80ead392a733ce8a202ab8",51.466769,-0.13164,"London","London Borough of Lambeth","SW4 6LU","In service","2019-10-10 15:08:41","2019-10-10 15:08:41","","On-street","SW4 6LU"
"adc29e09af35b3394a504546be55e3ef",51.443341,-0.139827,"London","London Borough of Lambeth","SW12 0EJ","In service","2019-10-10 15:08:41","2019-10-10 15:08:41","","On-street","SW12 0EJ"
"8fbd912c821051db2e9e1ebe215c4da4",51.443124,-0.140751,"London","London Borough of Lambeth","SW12 0HA","In service","2019-10-10 15:08:41","2019-10-10 15:08:41","","On-street","SW12 0HA"
"196aeb4ee7960daee4c92a0ebb38d7e3",51.49774,-0.073819,"London","London Borough Of Southwark","SE16 3QH","In service","2019-10-10 15:08:50","2019-10-10 15:08:50","","On-street","SE16 3QH"
"3816edc6c6b9a74f3e40d5a3f4240d05",51.472086,-0.087824,"London","London Borough Of Southwark","SE5 8JE","In service","2019-10-10 15:09:05","2019-10-10 15:09:05","","On-street","SE5 8JE"
"48b43eb9141558f2217d88ff5fac89cf",51.479682,-0.084263,"London","London Borough Of Southwark","SE5 7TD","In service","2019-10-10 15:09:06","2019-10-10 15:09:06","","On-street","SE5 7TD"
"c514ac23a673ce958390ba731b5a71eb",51.494754,-0.071356,"London","London Borough Of Southwark","SE16 3TR","In service","2019-10-10 15:09:07","2019-10-10 15:09:07","","On-street","SE16 3TR"
"f0d32cf77a38c457f1be96885face8a5",51.48638,-0.102496,"London","London Borough Of Southwark","SE17 3SU","In service","2019-10-10 15:09:07","2019-10-10 15:09:07","","On-street","SE17 3SU"
"80f70a3f6b0f3859afdb37d7567bdbc2",51.454376,-0.071195,"London","London Borough Of Southwark","SE22 9PE","In service","2019-10-10 15:09:07","2019-10-10 15:09:07","","On-street","SE22 9PE"
"cc485beea0bdcdb7ad2fa1e7213bd4eb",51.460312,-0.089137,"London","London Borough Of Southwark","SE5 8ET","In service","2019-10-10 15:09:07","2019-10-10 15:09:07","","On-street","SE5 8ET"
"6f0b37f247acb98440090f21acd2e5fa",51.496482,-0.096888,"London","London Borough Of Southwark","SE1 6PN","In service","2019-10-10 15:09:07","2019-10-10 15:09:07","","On-street","SE1 6PN"
"af7ad403702ae71f79891c6f7f43fdb2",51.479403,-0.084161,"London","London Borough Of Southwark","SE5 7TD","In service","2019-10-10 15:09:07","2019-10-10 15:09:07","","On-street","SE5 7TD"
"df37c69842c401314eeb613bf58f3610",51.473119,-0.079157,"London","London Borough Of Southwark","SE5 8QF","In service","2019-10-10 15:09:07","2019-10-10 15:09:07","","On-street","SE5 8QF"
"14ce57505adee63da2291973fcfae94a",51.478038,-0.057316,"London","London Borough Of Southwark","SE15 2RX","In service","2019-10-10 15:09:07","2019-10-10 15:09:07","","On-street","SE15 2RX"
"0cebd2e18e47537f8e0a898d14fea91a",51.506892,-0.039666,"London","London Borough Of Southwark","SE16 5XW","In service","2019-10-10 15:09:07","2019-10-10 15:09:07","","On-street","SE16 5XW"
"315142ee98dd6a11ec20506c2b7ffc27",51.497419,-0.09509,"London","London Borough Of Southwark","SE1 6QE","In service","2019-10-10 15:09:07","2019-10-10 15:09:07","","On-street","SE1 6QE"
"400ce87de4588f316f7d3021630aedb2",51.467407,-0.084117,"London","London Borough Of Southwark","SE5 8JS","In service","2019-10-10 15:09:07","2019-10-10 15:09:07","","On-street","SE5 8JS"
"f33dffeb97ee9ce09a6e94e92917b7d6",51.471589,-0.087449,"London","London Borough Of Southwark","SE5 8JE","In service","2019-10-10 15:09:07","2019-10-10 15:09:07","","On-street","SE5 8JE"
"21516d217273c0801f8d7371a471d9ea",51.457719,-0.072274,"London","London Borough Of Southwark","SE22 9EU","In service","2019-10-10 15:09:07","2019-10-10 15:09:07","","On-street","SE22 9EU"
"4153ece730723623cadbe83114fcfe73",51.496386,-0.090753,"London","London Borough Of Southwark","SE1 4AA","In service","2019-10-10 15:09:07","2019-10-10 15:09:07","","On-street","SE1 4AA"
"70fef3c029c29be2166dbdb2f5ff9464",51.49742,-0.083497,"London","London Borough Of Southwark","SE1 4QQ","In service","2019-10-10 15:09:07","2019-10-10 15:09:07","","On-street","SE1 4QQ"
"bf3e6d52a68ca60f97fc6048b14e4acc",51.456506,-0.073314,"London","London Borough Of Southwark","SE22 9HQ","In service","2019-10-10 15:09:07","2019-10-10 15:09:07","","On-street","SE22 9HQ"
"b0a3546d6adc9a498f4e3942456f2abb",51.476127,-0.085033,"London","London Borough Of Southwark","SE5 7RR","In service","2019-10-10 15:09:07","2019-10-10 15:09:07","","On-street","SE5 7RR"
"d5b77a2052bc4fa05b6212b23cd3afc0",51.496248,-0.090591,"London","London Borough Of Southwark","SE1 4AA","In service","2019-10-10 15:09:07","2019-10-10 15:09:07","","On-street","SE1 4AA"
"5ba940ced14fecf35556ceff239bd88a",51.476235,-0.084305,"London","London Borough Of Southwark","SE5 7RR","In service","2019-10-10 15:09:07","2019-10-10 15:09:07","","On-street","SE5 7RR"
"02795920dd6e7b161729a3d9c1a5ed61",51.472096,-0.094216,"London","London Borough Of Southwark","SE5 9NG","In service","2019-10-10 15:09:07","2019-10-10 15:09:07","","On-street","SE5 9NG"
"ab9a1c1018b55eb0bc0abc2980f7a3b7",51.545899,-0.196402,"London","London Borough of Camden","NW6 2QR","In service","2019-10-10 15:09:07","2019-10-10 15:09:07","","On-street","NW6 2QR"
"1da5dab587768c39574b9a398f8dee43",51.555898,-0.189872,"London","London Borough of Camden","NW3 7EH","In service","2019-10-10 15:09:07","2019-10-10 15:09:07","","On-street","NW3 7EH"
"59d56cafbe1a35de6c9f59c59e6c5ccd",51.545728,-0.181998,"London","London Borough of Camden","NW6 3JU","In service","2019-10-10 15:09:07","2019-10-10 15:09:07","","On-street","NW6 3JU"
"1538f816f097c6e24e4925917da4bdd2",51.523727,-0.138717,"London","London Borough of Camden","W1T 5EP","In service","2019-10-10 15:09:07","2019-10-10 15:09:07","","On-street","W1T 5EP"
"0ce61067c7468e6a55d128f0dc8f0106",51.557645,-0.194067,"London","London Borough of Camden","NW3 7AS","In service","2019-10-10 15:09:07","2019-10-10 15:09:07","","On-street","NW3 7AS"
"5921fd997d0d6dc96d6fe5c4ada80aeb",51.536914,-0.145977,"London","London Borough of Camden","NW1 7PP","In service","2019-10-10 15:09:07","2019-10-10 15:09:07","","On-street","NW1 7PP"
"30ac3fb164060f0b17c6cc119c2d33eb",51.495989,-0.087046,"London","London Borough Of Southwark","SE1 4UR","In service","2019-10-10 15:09:07","2019-10-10 15:09:07","","On-street","SE1 4UR"
"87bd21b0b1f922b7160de6e6741e5cd2",51.503263,-0.103546,"London","London Borough Of Southwark","SE1 0LU","In service","2019-10-10 15:09:07","2019-10-10 15:09:07","","On-street","SE1 0LU"
"e0d5fe73dc1b879121ea9435379278b7",51.478999,-0.08867,"London","London Borough Of Southwark","SE5 7NR","In service","2019-10-10 15:09:07","2019-10-10 15:09:07","","On-street","SE5 7NR"
"fb5383c3facfd8a6d2448a64854c0c75",51.489583,-0.08226,"London","London Borough Of Southwark","SE17 2JP","In service","2019-10-10 15:09:07","2019-10-10 15:09:07","","On-street","SE17 2JP"
"bf082db15fee55ebd84e103730d847bf",51.458893,-0.073118,"London","London Borough Of Southwark","SE22 9ET","In service","2019-10-10 15:09:07","2019-10-10 15:09:07","","On-street","SE22 9ET"
"bb102b09ec214bb03e8a73ac62624607",51.485381,-0.105501,"London","London Borough Of Southwark","SE17 3TJ","In service","2019-10-10 15:09:07","2019-10-10 15:09:07","","On-street","SE17 3TJ"
"1394033bf37247ea56b42fe86c24013a",51.46508,-0.065106,"London","London Borough Of Southwark","SE15 3NN","In service","2019-10-10 15:09:07","2019-10-10 15:09:07","","On-street","SE15 3NN"
"d0a9137b89de941aaacba7b4acb36927",51.489457,-0.082685,"London","London Borough Of Southwark","SE17 2JP","In service","2019-10-10 15:09:07","2019-10-10 15:09:07","","On-street","SE17 2JP"
"28f3924d1c130b337375d77e15538d48",51.493639,-0.087964,"London","London Borough Of Southwark","SE1 4YU","In service","2019-10-10 15:09:07","2019-10-10 15:09:07","","On-street","SE1 4YU"
"939fdd79617b7d679d5fb7a0073fd6ad",51.494014,-0.087202,"London","London Borough Of Southwark","SE1 4YU","In service","2019-10-10 15:09:07","2019-10-10 15:09:07","","On-street","SE1 4YU"
"50fdf9e2ef71359feedcbc15afb70d74",51.496995,-0.087943,"London","London Borough Of Southwark","SE1 4UR","In service","2019-10-10 15:09:07","2019-10-10 15:09:07","","On-street","SE1 4UR"
"ae5ed2644ed83d9caa11fc39ca3945fe",51.459719,-0.088331,"London","London Borough Of Southwark","SE5 8EX","In service","2019-10-10 15:09:07","2019-10-10 15:09:07","","On-street","SE5 8EX"
"17260de4dda9b61b88074b2a380abdc3",51.471915,-0.088678,"London","London Borough Of Southwark","SE5 8ST","In service","2019-10-10 15:09:07","2019-10-10 15:09:07","","On-street","SE5 8ST"
"bd4d805191187eebd2f3d4bc30d42ead",51.488372,-0.079889,"London","London Borough Of Southwark","SE17 2RA","In service","2019-10-10 15:09:07","2019-10-10 15:09:07","","On-street","SE17 2RA"
"98485360b99f87f158f5074969fb6af2",51.503259,-0.103705,"London","London Borough Of Southwark","SE1 0LU","In service","2019-10-10 15:09:07","2019-10-10 15:09:07","","On-street","SE1 0LU"
"53e1bd577f68c6a7a4428e5af0744b26",51.456687,-0.073245,"London","London Borough Of Southwark","SE22 9HH","In service","2019-10-10 15:09:08","2019-10-10 15:09:08","","On-street","SE22 9HH"
"b9315c6dec9172e5de2341c8b0a64d28",51.50519,-0.103733,"London","London Borough Of Southwark","SE1 8NL","In service","2019-10-10 15:09:08","2019-10-10 15:09:08","","On-street","SE1 8NL"
"27d8280fd82bacf377b96ce969561d38",51.449675,-0.076123,"London","London Borough Of Southwark","SE22 8UN","In service","2019-10-10 15:09:09","2019-10-10 15:09:09","","On-street","SE22 8UN"
"846fd5f01ceb2b2d67af234f833f981b",51.46785,-0.084541,"London","London Borough Of Southwark","SE5 8JS","In service","2019-10-10 15:09:10","2019-10-10 15:09:10","","On-street","SE5 8JS"
"0167800f869be450fb51d5e4f56dbbfc",51.509421,-0.266927,"London","London Borough of Ealing","W3 6DR","In service","2019-10-10 15:09:15","2019-10-10 15:09:15","","On-street","W3 6DR"
"baf225f88fcb2a54ae062564163bf90b",51.464378,-0.097084,"London","London Borough of Lambeth","SE5 9AU","In service","2019-10-10 15:09:20","2019-10-10 15:09:20","","On-street","SE5 9AU"
"aaa5def453b9de3c49f84c1bf00b8ce5",51.415938,-0.12819,"London","London Borough of Lambeth","SW16 5LX","In service","2019-10-10 15:09:20","2019-10-10 15:09:20","","On-street","SW16 5LX"
"6498fece50ede60a446812e25f080c7d",51.509577,-0.266012,"London","London Borough of Ealing","W3 6DR","In service","2019-10-10 15:09:20","2019-10-10 15:09:20","","On-street","W3 6DR"
"5cc93ee3a3614810c43e3e9785185742",51.429939,-0.120668,"London","London Borough of Lambeth","SW16 2XW","In service","2019-10-10 15:09:34","2019-10-10 15:09:34","","On-street","SW16 2XW"
"40772d79fcee172a2a2eec9de43b95c2",51.4827,-0.117134,"London","London Borough of Lambeth","SW8 1NJ","In service","2019-10-10 15:09:34","2019-10-10 15:09:34","","On-street","SW8 1NJ"
"77cb0f00a09e329ee7926ef1d7c66518",51.473825,-0.127382,"London","London Borough of Lambeth","SW4 6RR","In service","2019-10-10 15:09:34","2019-10-10 15:09:34","","On-street","SW4 6RR"
"f06b5b0e40d46c7ca9a99a5fc7d40907",51.464761,-0.096729,"London","London Borough of Lambeth","SE5 9AU","In service","2019-10-10 15:09:34","2019-10-10 15:09:34","","On-street","SE5 9AU"
"95e81a0bb2b71ef415a6c9d2ee68d6a7",51.462913,-0.093909,"London","London Borough of Lambeth","SE5 8EG","In service","2019-10-10 15:09:34","2019-10-10 15:09:34","","On-street","SE5 8EG"
"7f097541f4cc1218c73b39c6c3298f9d",51.465095,-0.064426,"London","London Borough Of Southwark","SE15 3NY","In service","2019-10-10 15:09:34","2019-10-10 15:09:34","","On-street","SE15 3NY"
"e6cf5cf38b21b845e05edc33689f8d70",51.494069,-0.110694,"London","London Borough of Lambeth","SE11 6SF","In service","2019-10-10 15:09:34","2019-10-10 15:09:34","","On-street","SE11 6SF"
"8d347b0713d12b6ed38cd0ad18495d4d",51.470848,-0.11758,"London","London Borough of Lambeth","SW9 0DG","In service","2019-10-10 15:09:34","2019-10-10 15:09:34","","On-street","SW9 0DG"
"67b07395cef92859853c0886060ee98e",51.462499,-0.102707,"London","London Borough of Lambeth","SE24 0QD","In service","2019-10-10 15:09:34","2019-10-10 15:09:34","","On-street","SE24 0QD"
"98326572aa95d3f5cad9361ac6cfb2d5",51.487363,-0.109976,"London","London Borough of Lambeth","SE11 4AL","In service","2019-10-10 15:09:34","2019-10-10 15:09:34","","On-street","SE11 4AL"
"ea87c6c5a3165cf39e1475fd265691fe",51.491293,-0.105402,"London","London Borough of Lambeth","SE11 4LS","In service","2019-10-10 15:09:34","2019-10-10 15:09:34","","On-street","SE11 4LS"
"73a1d38643d3a76a28b845f35e0c2745",51.446857,-0.121994,"London","London Borough of Lambeth","SW2 3RS","In service","2019-10-10 15:09:34","2019-10-10 15:09:34","","On-street","SW2 3RS"
"1001d59c2b2ce9dbc0c5cd2f895caa37",51.457896,-0.12249,"London","London Borough of Lambeth","SW2 5HH","In service","2019-10-10 15:09:34","2019-10-10 15:09:34","","On-street","SW2 5HH"
"97ef0d85cf65b350b0c71c9abdcfe67e",51.431478,-0.093353,"London","London Borough of Lambeth","SE27 9RR","In service","2019-10-10 15:09:34","2019-10-10 15:09:34","","On-street","SE27 9RR"
"9e2482461175ac10b26c0fd4b4b56e28",51.429296,-0.133755,"London","London Borough of Lambeth","SW16 1RD","In service","2019-10-10 15:09:34","2019-10-10 15:09:34","","On-street","SW16 1RD"
"da2f5c70767a018829cb65f26d72fb8b",51.439326,-0.094369,"London","London Borough of Lambeth","SE21 8HU","In service","2019-10-10 15:09:34","2019-10-10 15:09:34","","On-street","SE21 8HU"
"0dbe26fd564079bd6cd171f83c3e0c0b",51.48057,-0.120368,"London","London Borough of Lambeth","SW8 1PP","In service","2019-10-10 15:09:34","2019-10-10 15:09:34","","On-street","SW8 1PP"
"7dedd8fd08abd182261431db20a68bb4",51.482661,-0.117618,"London","London Borough of Lambeth","SW8 1QD","In service","2019-10-10 15:09:34","2019-10-10 15:09:34","","On-street","SW8 1QD"
"b1ae841025025b7b9bd01561f6f477ca",51.416747,-0.139028,"London","London Borough of Lambeth","SW16 5AY","In service","2019-10-10 15:09:34","2019-10-10 15:09:34","","On-street","SW16 5AY"
"81e50a7fa265a8449a3e26bacb9d1c88",51.477736,-0.114354,"London","London Borough of Lambeth","SW9 0EP","In service","2019-10-10 15:09:34","2019-10-10 15:09:34","","On-street","SW9 0EP"
"94137d7f34cd241d9af566be661342e4",51.477755,-0.113914,"London","London Borough of Lambeth","SW9 0ES","In service","2019-10-10 15:09:34","2019-10-10 15:09:34","","On-street","SW9 0ES"
"485df165e87a50605708a2bc84d45d6b",51.460665,-0.123625,"London","London Borough of Lambeth","SW2 5QR","In service","2019-10-10 15:09:34","2019-10-10 15:09:34","","On-street","SW2 5QR"
"5d9c1505039e949cee6f2fdf85a33a3d",51.430613,-0.125129,"London","London Borough of Lambeth","SW16 2UR","In service","2019-10-10 15:09:34","2019-10-10 15:09:34","","On-street","SW16 2UR"
"5c77de861205d50d09f6d745ed3a520d",51.440705,-0.12211,"London","London Borough of Lambeth","SW2 3TH","In service","2019-10-10 15:09:34","2019-10-10 15:09:34","","On-street","SW2 3TH"
"696335a2cf406496356646f34ddd1b25",51.441308,-0.101121,"London","London Borough of Lambeth","SE21 8JS","In service","2019-10-10 15:09:34","2019-10-10 15:09:34","","On-street","SE21 8JS"
"21b39f6bb24a7facdbb5e4eafe45cad3",51.427646,-0.093246,"London","London Borough of Lambeth","SE27 9QS","In service","2019-10-10 15:09:34","2019-10-10 15:09:34","","On-street","SE27 9QS"
"7fbfd5d82c2761e6b418224c78267fb2",51.433218,-0.114591,"London","London Borough of Lambeth","SE27 0LZ","In service","2019-10-10 15:09:34","2019-10-10 15:09:34","","On-street","SE27 0LZ"
"57c95c5d61693b26f01479fb21da8752",51.467678,-0.123066,"London","London Borough of Lambeth","SW9 9DG","In service","2019-10-10 15:09:34","2019-10-10 15:09:34","","On-street","SW9 9DG"
"81c893892f332e26d4895fdc8b9ad82e",51.456301,-0.128025,"London","London Borough of Lambeth","SW2 5DH","In service","2019-10-10 15:09:34","2019-10-10 15:09:34","","On-street","SW2 5DH"
"421f6f72a1bbb03bf6b5de84d10f7c27",51.45307,-0.138566,"London","London Borough of Lambeth","SW4 9HR","In service","2019-10-10 15:09:34","2019-10-10 15:09:34","","On-street","SW4 9HR"
"75a796c1a072d731e2210427610a52e8",51.461211,-0.123786,"London","London Borough of Lambeth","SW2 5QS","In service","2019-10-10 15:09:34","2019-10-10 15:09:34","","On-street","SW2 5QS"
"512a67f3c2573a9704028bb554bf44e1",51.464578,-0.111667,"London","London Borough of Lambeth","SW9 7PY","In service","2019-10-10 15:09:34","2019-10-10 15:09:34","","On-street","SW9 7PY"
"abca41e6b2420fd54b5498903222d0bd",51.436914,-0.120711,"London","London Borough of Lambeth","SW2 3AS","In service","2019-10-10 15:09:34","2019-10-10 15:09:34","","On-street","SW2 3AS"
"33e66d048e43fb2f52f7486b2a3d3a4f",51.430806,-0.125322,"London","London Borough of Lambeth","SW16 2UU","In service","2019-10-10 15:09:34","2019-10-10 15:09:34","","On-street","SW16 2UU"
"befa1d1faf9bc95c1a29d30ea9a751a2",51.43953,-0.094419,"London","London Borough of Lambeth","SE21 8HU","In service","2019-10-10 15:09:34","2019-10-10 15:09:34","","On-street","SE21 8HU"
"5f93cadf88e775ae540ef0a0b839373d",51.442208,-0.130659,"London","London Borough of Lambeth","SW2 4XL","In service","2019-10-10 15:09:34","2019-10-10 15:09:34","","On-street","SW2 4XL"
"ac56fec351c48c80bf87e1565034efe6",51.476289,-0.109055,"London","London Borough of Lambeth","SW9 6HN","In service","2019-10-10 15:09:34","2019-10-10 15:09:34","","On-street","SW9 6HN"
"64b1dec8706b666ee1382d44e2589ec7",51.468329,-0.123884,"London","London Borough of Lambeth","SW9 9DH","In service","2019-10-10 15:09:34","2019-10-10 15:09:34","","On-street","SW9 9DH"
"984852334d07789b395be2f7122d7019",51.502218,-0.329539,"London","London Borough of Ealing","W7 2BG","In service","2019-10-10 15:09:49","2019-10-10 15:09:49","","On-street","W7 2BG"
"a17b4ec59e767fb4ec5ae3dd565ae1f1",51.5492,-0.189219,"London","London Borough of Camden","NW6 1HY","In service","2019-10-10 15:09:49","2019-10-10 15:09:49","","On-street","NW6 1HY"
"7814d6c5454757a2032524be9faaf02f",51.546803,-0.160781,"London","London Borough of Camden","NW3 4TH","In service","2019-10-10 15:09:49","2019-10-10 15:09:49","","On-street","NW3 4TH"
"cb47aeee63c4e9c0c16299cd7216703a",51.552741,-0.191387,"London","London Borough of Camden","NW6 1JS","In service","2019-10-10 15:09:49","2019-10-10 15:09:49","","On-street","NW6 1JS"
"6725296e2660ad0fdda6667f175d7d96",51.550328,-0.13479,"London","London Borough of Camden","NW5 2BJ","In service","2019-10-10 15:09:49","2019-10-10 15:09:49","","On-street","NW5 2BJ"
"ad009cfd9d10e52d8d59334c4d32c43e",51.553759,-0.15536,"London","London Borough of Camden","NW3 2LE","In service","2019-10-10 15:09:49","2019-10-10 15:09:49","","On-street","NW3 2LE"
"f53d4fd511bdd50465098e85da23cae4",51.553821,-0.199599,"London","London Borough of Camden","NW6 1EN","In service","2019-10-10 15:09:49","2019-10-10 15:09:49","","On-street","NW6 1EN"
"3ee9103dcaab55d5ff8d5a1bcc25b8d8",51.539121,-0.190679,"London","London Borough of Camden","NW6 4NN","In service","2019-10-10 15:09:49","2019-10-10 15:09:49","","On-street","NW6 4NN"
"30b8a6aee93efb4be51af5e05ea3ce29",51.41699,-0.138716,"London","London Borough of Lambeth","SW16 5AX","In service","2019-10-10 15:09:49","2019-10-10 15:09:49","","On-street","SW16 5AX"
"12bb6b22328ff860f3a7e98ade24dbc5",51.517782,-0.130023,"London","London Borough of Camden","WC1B 3AJ","In service","2019-10-10 15:09:49","2019-10-10 15:09:49","","On-street","WC1B 3AJ"
"450d86718b4b3697ccf2f66f3c051f56",51.558527,-0.144756,"London","London Borough of Camden","NW5 1SX","In service","2019-10-10 15:09:49","2019-10-10 15:09:49","","On-street","NW5 1SX"
"43e68672be7254d15af7e5ab3b6ccc65",51.553256,-0.173799,"London","London Borough of Camden","NW3 5PL","In service","2019-10-10 15:09:49","2019-10-10 15:09:49","","On-street","NW3 5PL"
"13f2061bef9b0eb8a12e8cd762c68e78",51.522851,-0.113537,"London","London Borough of Camden","WC1X 0BJ","In service","2019-10-10 15:09:49","2019-10-10 15:09:49","","On-street","WC1X 0BJ"
"3e1f0c948d7559c0884b1c664382618b",51.557079,-0.174621,"London","London Borough of Camden","NW3 1UB","In service","2019-10-10 15:09:49","2019-10-10 15:09:49","","On-street","NW3 1UB"
"4880ae0c619c185fc7611dbe70f424c9",51.553001,-0.171273,"London","London Borough of Camden","NW3 5NL","In service","2019-10-10 15:09:49","2019-10-10 15:09:49","","On-street","NW3 5NL"
"42fa0ae29bfef4936055a239c6eafd54",51.545062,-0.197608,"London","London Borough of Camden","NW6 2JL","In service","2019-10-10 15:09:49","2019-10-10 15:09:49","","On-street","NW6 2JL"
"7e7296b6c0eeb90e0d99b60ec78b92e4",51.555167,-0.16846,"London","London Borough of Camden","NW3 2RX","In service","2019-10-10 15:09:49","2019-10-10 15:09:49","","On-street","NW3 2RX"
"3d2c58b49ad56f76a00a991fdb283798",51.541668,-0.135499,"London","London Borough of Camden","NW1 0RD","In service","2019-10-10 15:09:49","2019-10-10 15:09:49","","On-street","NW1 0RD"
"03f297d7a2bf59726aeee7116dff5ffd",51.5491,-0.170112,"London","London Borough of Camden","NW3 4AU","In service","2019-10-10 15:09:49","2019-10-10 15:09:49","","On-street","NW3 4AU"
"c05556c0b8b22d19da665af35946abf7",51.555043,-0.167558,"London","London Borough of Camden","NW3 2RX","In service","2019-10-10 15:09:49","2019-10-10 15:09:49","","On-street","NW3 2RX"
"d668b2ff5c6d1765a4a8eaa31e665e8d",51.544162,-0.190528,"London","London Borough of Camden","NW6 3RN","In service","2019-10-10 15:09:49","2019-10-10 15:09:49","","On-street","NW6 3RN"
"16d3f097e0d74aa1b35505bc16e33473",51.547573,-0.166906,"London","London Borough of Camden","NW3 4NG","In service","2019-10-10 15:09:49","2019-10-10 15:09:49","","On-street","NW3 4NG"
"585b8b7725f01edcb97a1124b6404501",51.541323,-0.172779,"London","London Borough of Camden","NW8 6HY","In service","2019-10-10 15:09:49","2019-10-10 15:09:49","","On-street","NW8 6HY"
"ca9fb1d01fb6c899ef4095abc2d3ea13",51.553747,-0.155774,"London","London Borough of Camden","NW3 2HT","In service","2019-10-10 15:09:49","2019-10-10 15:09:49","","On-street","NW3 2HT"
"cfd6458914c4644c1203add909557aef",51.556152,-0.165171,"London","London Borough of Camden","NW3 2SB","In service","2019-10-10 15:09:49","2019-10-10 15:09:49","","On-street","NW3 2SB"
"e6b0fea91389c78aeda5659015055106",51.539804,-0.190399,"London","London Borough of Camden","NW6 4NN","In service","2019-10-10 15:09:49","2019-10-10 15:09:49","","On-street","NW6 4NN"
"b790198028e7b75cde4173bc1c825c64",51.538767,-0.147251,"London","London Borough of Camden","NW1 7EA","In service","2019-10-10 15:09:49","2019-10-10 15:09:49","","On-street","NW1 7EA"
"41212a9d660d861b9d5bd9c37de55961",51.529084,-0.142585,"London","London Borough of Camden","NW1 3QL","In service","2019-10-10 15:09:49","2019-10-10 15:09:49","","On-street","NW1 3QL"
"7566e16caca64683927ae8657adbf956",51.529108,-0.143416,"London","London Borough of Camden","NW1 4EN","In service","2019-10-10 15:09:49","2019-10-10 15:09:49","","On-street","NW1 4EN"
"f8b7548640ea5e5e49065484c792ce6f",51.540094,-0.130843,"London","London Borough of Camden","N1C 4PD","In service","2019-10-10 15:09:49","2019-10-10 15:09:49","","On-street","N1C 4PD"
"81603250b746b4f2c0baa4305c767c01",51.545542,-0.19965,"London","London Borough of Camden","NW6 2JR","In service","2019-10-10 15:09:49","2019-10-10 15:09:49","","On-street","NW6 2JR"
"2d8d607eebaed8ebe7ab545194237fae",51.538567,-0.136594,"London","London Borough of Camden","NW1 0DJ","In service","2019-10-10 15:09:49","2019-10-10 15:09:49","","On-street","NW1 0DJ"
"4f7d333ea44502605726decff16876f0",51.542522,-0.1602,"London","London Borough of Camden","NW3 3RP","In service","2019-10-10 15:09:49","2019-10-10 15:09:49","","On-street","NW3 3RP"
"5f4824438d60736ffbb41b166fe5c432",51.557093,-0.145784,"London","London Borough of Camden","NW5 1BX","In service","2019-10-10 15:09:49","2019-10-10 15:09:49","","On-street","NW5 1BX"
"f49cc4ca4cdadcf27523ee0eb6908bf8",51.536163,-0.143204,"London","London Borough of Camden","NW1 7RX","In service","2019-10-10 15:09:49","2019-10-10 15:09:49","","On-street","NW1 7RX"
"28bde6c83b6239dbd65137fe015fbf21",51.544919,-0.127143,"London","London Borough of Camden","NW1 9UB","In service","2019-10-10 15:09:49","2019-10-10 15:09:49","","On-street","NW1 9UB"
"d8cca0e2e9a91d7a54349b03f0532772",51.544277,-0.126977,"London","London Borough of Camden","NW1 9UB","In service","2019-10-10 15:09:49","2019-10-10 15:09:49","","On-street","NW1 9UB"
"f2be8a092d43c526b10b8ed00c07f614",51.545228,-0.142978,"London","London Borough of Camden","NW1 8PT","In service","2019-10-10 15:09:50","2019-10-10 15:09:50","","On-street","NW1 8PT"
"a52123d1a17710351a6a1c66dde6b8ee",51.544398,-0.143976,"London","London Borough of Camden","NW1 8PU","In service","2019-10-10 15:09:53","2019-10-10 15:09:53","","On-street","NW1 8PU"
"004cbc35eed8995456a63ec720fe63c7",51.5503,-0.1327,"Camden","London Borough of Camden","NW5 2SG","In service","2019-10-10 15:09:53","2019-10-10 15:09:53","","On-street","NW5 2SG"
"12fc3734e6e65b6a3957db507c721049",51.545892,-0.194929,"London","London Borough of Camden","NW6 2AS","In service","2019-10-10 15:09:53","2019-10-10 15:09:53","","On-street","NW6 2AS"
"9789a1193c164c21b4b0dadc12b07d5a",51.550584,-0.179226,"London","London Borough of Camden","NW3 5TL","In service","2019-10-10 15:09:53","2019-10-10 15:09:53","","On-street","NW3 5TL"
"92fb1a68b412d1f8a31b1dd8c8e2ef16",51.545618,-0.143869,"London","London Borough of Camden","NW1 8PL","In service","2019-10-10 15:09:53","2019-10-10 15:09:53","","On-street","NW1 8PL"
"52de92b7a495fb318601c28ff6edc01f",51.545248,-0.127375,"London","London Borough of Camden","NW1 9UD","In service","2019-10-10 15:09:59","2019-10-10 15:09:59","","On-street","NW1 9UD"
"a2b64ecb3b81649a2fa3fe3171490130",51.550692,-0.131863,"London","London Borough of Camden","NW5 2RE","In service","2019-10-10 15:09:59","2019-10-10 15:09:59","","On-street","NW5 2RE"
"0d4546ec606bbda339053c0826d11c27",51.547145,-0.154469,"London","London Borough of Camden","NW5 3QG","In service","2019-10-10 15:10:02","2019-10-10 15:10:02","","On-street","NW5 3QG"
"7ac0a8452b1cf16561b99a2f45c02073",51.554009,-0.18486,"London","London Borough of Camden","NW3 7DT","In service","2019-10-10 15:10:02","2019-10-10 15:10:02","","On-street","NW3 7DT"
"b0953d755a1dc7e1a673649f5ccc8fa8",51.547323,-0.16624,"London","London Borough of Camden","NW3 4LY","In service","2019-10-10 15:10:02","2019-10-10 15:10:02","","On-street","NW3 4LY"
"5408b1407c22522189bf41d988268d14",51.558085,-0.16423,"London","London Borough of Camden","NW3 2SS","In service","2019-10-10 15:10:02","2019-10-10 15:10:02","","On-street","NW3 2SS"
"a5c26c106e8cd6df2d4d4d48eb7a8a08",51.554318,-0.136816,"London","London Borough of Camden","NW5 2NP","In service","2019-10-10 15:10:02","2019-10-10 15:10:02","","On-street","NW5 2NP"
"e772e5febdc3775a7c71d2d5514c1f1d",51.546582,-0.154626,"London","London Borough of Camden","NW5 3QD","In service","2019-10-10 15:10:02","2019-10-10 15:10:02","","On-street","NW5 3QD"
"afa1f9dbc9a0503cc85066dd33d3d076",51.54811,-0.168876,"London","London Borough of Camden","NW3 4LD","In service","2019-10-10 15:10:02","2019-10-10 15:10:02","","On-street","NW3 4LD"
"b30f2bf3526450b57ffc2dc4f11999da",51.557779,-0.145812,"London","London Borough of Camden","NW5 1SU","In service","2019-10-10 15:10:02","2019-10-10 15:10:02","","On-street","NW5 1SU"
"8a6ced04e8aa73b38e127d57b5707215",51.528867,-0.142614,"London","London Borough of Camden","NW1 3QL","In service","2019-10-10 15:10:02","2019-10-10 15:10:02","","On-street","NW1 3QL"
"6ad0544fd6c33152bb919a1118101d7c",51.55039,-0.167933,"London","London Borough of Camden","NW3 4AA","In service","2019-10-10 15:10:02","2019-10-10 15:10:02","","On-street","NW3 4AA"
"71571aff3cd031078ef458a08d501003",51.546051,-0.17398,"London","London Borough of Camden","NW3 4EE","In service","2019-10-10 15:10:02","2019-10-10 15:10:02","","On-street","NW3 4EE"
"2e357e27080abc5f20577396df782a14",51.546732,-0.160993,"London","London Borough of Camden","NW3 4TH","In service","2019-10-10 15:10:02","2019-10-10 15:10:02","","On-street","NW3 4TH"
"c139cc7b7929293a440abd7a16552b05",51.547134,-0.152299,"London","London Borough of Camden","NW5 3JB","In service","2019-10-10 15:10:02","2019-10-10 15:10:02","","On-street","NW5 3JB"
"b59afec3c8a23ac3fe9ad100261fa291",51.555592,-0.185294,"London","London Borough of Camden","NW3 7DE","In service","2019-10-10 15:10:02","2019-10-10 15:10:02","","On-street","NW3 7DE"
"d641a61027e21d4a41dc2e2e8f16d0b7",51.523691,-0.138698,"London","London Borough of Camden","W1T 5EN","In service","2019-10-10 15:10:02","2019-10-10 15:10:02","","On-street","W1T 5EN"
"9cf727482cff1eec382ea1cba007d909",51.535587,-0.142735,"London","London Borough of Camden","NW1 7LX","In service","2019-10-10 15:10:02","2019-10-10 15:10:02","","On-street","NW1 7LX"
"17c85a939e5ee1b0b0e00ed7187d11f7",51.546981,-0.160573,"London","London Borough of Camden","NW3 4XQ","In service","2019-10-10 15:10:02","2019-10-10 15:10:02","","On-street","NW3 4XQ"
"4e1ae9df6190058decb1b8c49dee8af9",51.542589,-0.159011,"London","London Borough of Camden","NW3 3RP","In service","2019-10-10 15:10:02","2019-10-10 15:10:02","","On-street","NW3 3RP"
"63e3aa422a6fc5c78e11caf7d588ebab",51.55267,-0.17262,"London","London Borough of Camden","NW3 5PX","In service","2019-10-10 15:10:02","2019-10-10 15:10:02","","On-street","NW3 5PX"
"845df1e63f2d864511bfb890e4eb2899",51.539969,-0.190312,"London","London Borough of Camden","NW6 4SJ","In service","2019-10-10 15:10:02","2019-10-10 15:10:02","","On-street","NW6 4SJ"
"1e241c17e792b27dcf1ff8b552a0a5d5",51.547429,-0.201987,"London","London Borough of Camden","NW6 2EE","In service","2019-10-10 15:10:02","2019-10-10 15:10:02","","On-street","NW6 2EE"
"d29086e1236e44097e5f4eb2238d9d3e",51.549868,-0.168766,"London","London Borough of Camden","NW3 4AH","In service","2019-10-10 15:10:02","2019-10-10 15:10:02","","On-street","NW3 4AH"
"d7a2b7a35459409adc9ff430a6b0c51e",51.545464,-0.200009,"London","London Borough of Camden","NW6 2JS","In service","2019-10-10 15:10:02","2019-10-10 15:10:02","","On-street","NW6 2JS"
"ef99345946e584379e8c1a90f4ae6f1a",51.547753,-0.200704,"London","London Borough of Camden","NW6 2ED","In service","2019-10-10 15:10:02","2019-10-10 15:10:02","","On-street","NW6 2ED"
"ddf7e6b415ec7066b21a01f77f709335",51.547887,-0.196647,"London","London Borough of Camden","NW6 2EP","In service","2019-10-10 15:10:02","2019-10-10 15:10:02","","On-street","NW6 2EP"
"29af9f20ad669be5a1e390b1afe2f64c",51.548038,-0.177652,"London","London Borough of Camden","NW3 5SD","In service","2019-10-10 15:10:02","2019-10-10 15:10:02","","On-street","NW3 5SD"
"e26bf6d0637420e41b0108df8c21acb5",51.503102,-0.258297,"London","London Borough of Ealing","W4 1AU","In service","2019-10-10 15:10:02","2019-10-10 15:10:02","","On-street","W4 1AU"
"8ee4a89e4b4bbd9b4281e6c9a91cd032",51.498886,-0.262163,"London","London Borough of Ealing","W4 5JA","In service","2019-10-10 15:10:02","2019-10-10 15:10:02","","On-street","W4 5JA"
"f898477831293121e66a7dfe92c1efb2",51.514683,-0.323444,"London","London Borough of Ealing","W13 0LQ","In service","2019-10-10 15:10:02","2019-10-10 15:10:02","","On-street","W13 0LQ"
"b72423cd8d54a5779a6407e8da62ea64",51.499414,-0.303982,"London","London Borough of Ealing","W5 4JR","In service","2019-10-10 15:10:02","2019-10-10 15:10:02","","On-street","W5 4JR"
"46625972490bd5599e5a21c11f16c3cc",51.500387,-0.257467,"London","London Borough of Ealing","W4 1DA","In service","2019-10-10 15:10:02","2019-10-10 15:10:02","","On-street","W4 1DA"
"8822dc57850265f1e20f51f5d17d1e21",51.527815,-0.316109,"London","London Borough of Ealing","W5 1LT","In service","2019-10-10 15:10:02","2019-10-10 15:10:02","","On-street","W5 1LT"
"e3bf171dc16a50ede1516ff8db0f7b15",51.504841,-0.246546,"London","London Borough of Ealing","W3 7SF","In service","2019-10-10 15:10:02","2019-10-10 15:10:02","","On-street","W3 7SF"
"71d3e01703573235370836712a568d26",51.499133,-0.25463,"London","London Borough of Ealing","W4 1UA","In service","2019-10-10 15:10:03","2019-10-10 15:10:03","","On-street","W4 1UA"
"ab22c8c51559e133736cb1412bfd48cd",51.498173,-0.26938,"London","London Borough of Ealing","W4 5ET","In service","2019-10-10 15:10:03","2019-10-10 15:10:03","","On-street","W4 5ET"
"aceba1fb3ebdaea9098eb93239479aa4",51.503433,-0.258302,"London","London Borough of Ealing","W4 1AU","In service","2019-10-10 15:10:03","2019-10-10 15:10:03","","On-street","W4 1AU"
"c1b065665fca248c21d290530afb9f23",51.506065,-0.25315,"London","London Borough of Ealing","W3 7ST","In service","2019-10-10 15:10:03","2019-10-10 15:10:03","","On-street","W3 7ST"
"e2c8c3ba9908e6476e6fb59366408c09",51.501111,-0.264151,"London","London Borough of Ealing","W4 5DP","In service","2019-10-10 15:10:05","2019-10-10 15:10:05","","On-street","W4 5DP"
"c97d6daec0909a6b91b905432649c849",51.508986,-0.286449,"London","London Borough of Ealing","W5 3NY","In service","2019-10-10 15:10:05","2019-10-10 15:10:05","","On-street","W5 3NY"
"465aed4661aae2ec7be09b3dec166f7a",51.514835,-0.269944,"London","London Borough of Ealing","W3 9JA","In service","2019-10-10 15:10:05","2019-10-10 15:10:05","","On-street","W3 9JA"
"5aefab87ce11f489f6f278fea7496990",51.504702,-0.324173,"London","London Borough of Ealing","W13 9DS","In service","2019-10-10 15:10:05","2019-10-10 15:10:05","","On-street","W13 9DS"
"446284574e16aeddd39495930477d8ff",51.527742,-0.31752,"London","London Borough of Ealing","W5 1LT","In service","2019-10-10 15:10:05","2019-10-10 15:10:05","","On-street","W5 1LT"
"055a8424688d7a1aaf426ab0285c92f4",51.502591,-0.263827,"London","London Borough of Ealing","W4 5LB","In service","2019-10-10 15:10:07","2019-10-10 15:10:07","","On-street","W4 5LB"
"b8e4da6cb821b8fed222061da1cc0565",51.507665,-0.28349,"London","London Borough of Ealing","W3 9SE","In service","2019-10-10 15:10:07","2019-10-10 15:10:07","","On-street","W3 9SE"
"0aa1511124ea5b7ea5d54e0a648bf830",51.500148,-0.322597,"London","London Borough of Ealing","W13 9UH","In service","2019-10-10 15:10:08","2019-10-10 15:10:08","","On-street","W13 9UH"
"78ffaaadd841e4c71322637cb77c5693",51.500542,-0.264264,"London","London Borough of Ealing","W4 1DA","In service","2019-10-10 15:10:09","2019-10-10 15:10:09","","On-street","W4 1DA"
"d1a84638a6a9962d29aa2a87cfa69ecf",51.555,-0.32867,"Greenford","London Borough of Ealing","UB6 0LP","In service","2019-10-10 15:10:09","2019-10-10 15:10:09","","On-street","UB6 0LP"
"a9d7c4baa7169b66fc3145c290fe6b2f",51.499317,-0.26277,"London","London Borough of Ealing","W4 5HG","In service","2019-10-10 15:10:09","2019-10-10 15:10:09","","On-street","W4 5HG"
"57059f591928daaeb800384fdbef7627",51.495016,-0.26826,"London","London Borough of Ealing","W4 5EF","In service","2019-10-10 15:10:09","2019-10-10 15:10:09","","On-street","W4 5EF"
"7ca7066de79a392c500a95aa6331b3ea",51.5045,-0.265713,"London","London Borough of Ealing","W3 8NY","In service","2019-10-10 15:10:09","2019-10-10 15:10:09","","On-street","W3 8NY"
"afc46631ee0ab3722abcdf1a96a08a61",51.514928,-0.270805,"London","London Borough of Ealing","W3 9JA","In service","2019-10-10 15:10:10","2019-10-10 15:10:10","","On-street","W3 9JA"
"cca71ff818bc73b972a818cafb2ae4ea",51.499303,-0.256742,"London","London Borough of Ealing","W4 1AU","In service","2019-10-10 15:10:10","2019-10-10 15:10:10","","On-street","W4 1AU"
"2a28a82669c333c4d264ccb1d8a8fb4b",51.502892,-0.258211,"London","London Borough of Ealing","W4 1AU","In service","2019-10-10 15:10:10","2019-10-10 15:10:10","","On-street","W4 1AU"
"b32a72f00a14c2f3a01193e920e02708",51.498449,-0.260625,"London","London Borough of Ealing","W4 1JW","In service","2019-10-10 15:10:10","2019-10-10 15:10:10","","On-street","W4 1JW"
"b3037ee7921a2584f30e336641b966bb",51.50004,-0.322902,"London","London Borough of Ealing","W13 9UH","In service","2019-10-10 15:10:10","2019-10-10 15:10:10","","On-street","W13 9UH"
"d58ee6069cfe33295718c32aa7cc12d8",51.508309,-0.28345,"London","London Borough of Ealing","W3 9SF","In service","2019-10-10 15:10:10","2019-10-10 15:10:10","","On-street","W3 9SF"
"6b27cbe5d253f75de939daf7df8e51ae",51.515695,-0.318421,"London","London Borough of Ealing","W13 8PQ","In service","2019-10-10 15:10:10","2019-10-10 15:10:10","","On-street","W13 8PQ"
"d64eacb932a5d483336b1008fff7da34",51.497977,-0.260641,"London","London Borough of Ealing","W13 0SP","In service","2019-10-10 15:10:10","2019-10-10 15:10:10","","On-street","W13 0SP"
"d7b845942fb4d059f4439481f74924c2",51.499822,-0.259501,"London","London Borough of Ealing","W4 1HG","In service","2019-10-10 15:10:10","2019-10-10 15:10:10","","On-street","W4 1HG"
"810d9fa0678ef5577373c796d74e8ef4",51.513254,-0.291507,"London","London Borough of Ealing","W5 3HH","In service","2019-10-10 15:10:10","2019-10-10 15:10:10","","On-street","W5 3HH"
"c612f7529f0108733e9574b101f568e2",51.49999,-0.252795,"London","London Borough of Ealing","W4 1ED","In service","2019-10-10 15:10:10","2019-10-10 15:10:10","","On-street","W4 1ED"
"5954aab31b20ab1c654f77689fa95561",51.501828,-0.386149,"Southall","London Borough of Ealing","UB2 5AQ","In service","2019-10-10 15:10:10","2019-10-10 15:10:10","","On-street","UB2 5AQ"
"e81fef8820149d2910bc279001126f97",51.498284,-0.262285,"London","London Borough of Ealing","W4 5JS","In service","2019-10-10 15:10:10","2019-10-10 15:10:10","","On-street","W4 5JS"
"e199aa49c659ce6975e2690109c2d30c",51.501192,-0.259474,"London","London Borough of Ealing","W4 1BZ","In service","2019-10-10 15:10:10","2019-10-10 15:10:10","","On-street","W4 1BZ"
"c862dd658626745456a301227b189f93",51.496639,-0.261567,"London","London Borough of Ealing","W4 1BP","In service","2019-10-10 15:10:10","2019-10-10 15:10:10","","On-street","W4 1BP"
"be559ececa32c68efd42ca77b9f85c3b",51.496085,-0.26167,"London","London Borough of Ealing","W4 1BP","In service","2019-10-10 15:10:10","2019-10-10 15:10:10","","On-street","W4 1BP"
"d709b1341ef2d05b8df58b3e1725b0f7",51.505012,-0.326582,"London","London Borough of Ealing","W7 2JR","In service","2019-10-10 15:10:10","2019-10-10 15:10:10","","On-street","W7 2JR"
"e2db1be42fede6a83086066b0f563cd6",51.50916,-0.27051,"London","London Borough of Ealing","W3 6DF","In service","2019-10-10 15:10:10","2019-10-10 15:10:10","","On-street","W3 6DF"
"eea1c0b51d71410b3eb79200715a3d60",51.55349,-0.137616,"London","London Borough of Camden","NW5 2NR","In service","2019-10-10 15:10:11","2019-10-10 15:10:11","","On-street","NW5 2NR"
"62bd48ae561f96cedc9cacd5266ac9ab",51.550765,-0.134008,"London","London Borough of Camden","NW5 2RB","In service","2019-10-10 15:10:25","2019-10-10 15:10:25","","On-street","NW5 2RB"
"96f03b40f10104906b823065df07e8c6",51.551381,-0.038649,"London","London Borough of Hackney","E5 0DP","In service","2019-10-10 15:10:25","2019-10-10 15:10:25","","On-street","E5 0DP"
"d21e57c18896f7a671e877fb588239b2",51.466504,-0.105745,"London","London Borough of Lambeth","SW9 7EB","In service","2019-10-10 15:34:28","2019-10-10 15:34:28","","On-street","SW9 7EB"
"f3cc098e00f067307a307488cba333c7",51.461304,-0.105451,"London","London Borough of Lambeth","SW9 8UB","In service","2019-10-10 15:34:28","2019-10-10 15:34:28","","On-street","SW9 8UB"
"21ddd604f061d571546dcffc82e7143a",51.468951,-0.1013,"Brixton, London","London Borough of Lambeth","SE5 9DN","In service","2019-10-10 15:34:28","2019-10-10 15:34:28","","On-street","SE5 9DN"
"2f8720217a0765efb4d64477e772ccb9",51.468523,-0.101413,"London","London Borough of Lambeth","SE5 9DN","In service","2019-10-10 15:34:28","2019-10-10 15:34:28","","On-street","SE5 9DN"
"127f87501a6abc7215ac0aac4f95b6b2",51.46671,-0.119447,"London","London Borough of Lambeth","SW9 9QS","In service","2019-10-10 15:34:28","2019-10-10 15:34:28","","On-street","SW9 9QS"
"dc33b93e01c3b3ce4269868811f3b08d",51.466531,-0.120182,"London","London Borough of Lambeth","SW9 9QR","In service","2019-10-10 15:34:28","2019-10-10 15:34:28","","On-street","SW9 9QR"
"82eb3bf3c702a1ced77e283ee7dd0078",51.42729,-0.109582,"West Norwood","London Borough of Lambeth","SE27 0TA","In service","2019-10-10 15:34:28","2019-10-10 15:34:28","","On-street","SE27 0TA"
"6fef80b5b72f9ce4f90634600b35b2dc",51.427174,-0.11,"West Norwood","London Borough of Lambeth","SE27 0TA","In service","2019-10-10 15:34:28","2019-10-10 15:34:28","","On-street","SE27 0TA"
"3815e5daff7da1b6719c794b3dd75c36",51.451697,-0.116822,"Brixton, London","London Borough of Lambeth","SW2 2JS","In service","2019-10-10 15:34:28","2019-10-10 15:34:28","","On-street","SW2 2JS"
"873399fd80a7a1dfd548791bbd367c67",51.45139,-0.116822,"Brixton, London","London Borough of Lambeth","SW2 2JS","In service","2019-10-10 15:34:28","2019-10-10 15:34:28","","On-street","SW2 2JS"
"d058119339a228a264b25bbd79b8b33d",51.46988,-0.137054,"London","London Borough of Lambeth","SW4 6JX","In service","2019-10-10 15:34:28","2019-10-10 15:34:28","","On-street","SW4 6JX"
"491418ebb3ca9759c71ba0731ef5f878",51.469482,-0.136705,"London","London Borough of Lambeth","SW4 6JX","In service","2019-10-10 15:34:28","2019-10-10 15:34:28","","On-street","SW4 6JX"
"663505be9a16bb557423d4d7af8f9cba",51.451125,-0.128732,"London","London Borough of Lambeth","SW2 4JE","In service","2019-10-10 15:34:28","2019-10-10 15:34:28","","On-street","SW2 4JE"
"7e59f968e71cdbee2d0390e970d2dd9f",51.450117,-0.128715,"London","London Borough of Lambeth","SW2 4JH","In service","2019-10-10 15:34:28","2019-10-10 15:34:28","","On-street","SW2 4JH"
"128433173bd991b5f6d7493f2d98ffcc",51.532667,-0.133123,"London","London Borough of Camden","NW1 1SA","In service","2019-10-10 15:34:29","2019-10-10 15:34:29","","On-street","NW1 1SA"
"1293f6cba2b5dd05dab960295239c368",51.559108,-0.163145,"London","London Borough of Camden","NW3 2ST","In service","2019-10-10 15:34:29","2019-10-10 15:34:29","","On-street","NW3 2ST"
"706a59a7dc0ee268d088864379c23f14",51.542817,-0.156658,"London","London Borough of Camden","NW3 3RP","In service","2019-10-10 15:34:29","2019-10-10 15:34:29","","On-street","NW3 3RP"
"b530923c9e70171ce4655527465392a0",51.552837,-0.174739,"London","London Borough of Camden","NW3 5QA","In service","2019-10-10 15:34:29","2019-10-10 15:34:29","","On-street","NW3 5QA"
"de04b69dc1dd87f188c8f52b7a57a628",51.491671,-0.246593,"London","London Borough of Hounslow","W4 2NA","In service","2019-10-10 15:34:29","2019-10-10 15:34:29","","On-street","W4 2NA"
"379346f1041ac469a3467ee9679807f7",51.490166,-0.27908,"Chiswick, London","London Borough of Hounslow","W4 3AD","In service","2019-10-10 15:34:29","2019-10-10 15:34:29","","On-street","W4 3AD"
"ad3d97e42de5e90c96c65be40700347b",51.485794,-0.271665,"London","London Borough of Hounslow","W4 3JD","In service","2019-10-10 15:34:30","2019-10-10 15:34:30","","On-street","W4 3JD"
"aeccf2a028c6aa7fa3ea11fe774d0584",51.487494,-0.275398,"London","London Borough of Hounslow","W4 3NE","In service","2019-10-10 15:34:31","2019-10-10 15:34:31","","On-street","W4 3NE"
"e3f5146af9c7ac171b12bd3fc5753c4e",51.487918,-0.275714,"London","London Borough of Hounslow","W4 3LZ","In service","2019-10-10 15:34:31","2019-10-10 15:34:31","","On-street","W4 3LZ"
"3289ef4740918e61f2365d08b4e93cb7",51.489134,-0.253577,"London","London Borough of Hounslow","W4 2JH","In service","2019-10-10 15:34:31","2019-10-10 15:34:31","","On-street","W4 2JH"
"2e2d85d6edfd182f6dd166c78dff8d45",51.485943,-0.271988,"London","London Borough of Hounslow","W4 3JD","In service","2019-10-10 15:34:31","2019-10-10 15:34:31","","On-street","W4 3JD"
"8735a36c932e1ede2b3b0f8ea5b4e061",51.486156,-0.27237,"London","London Borough of Hounslow","W4 3JD","In service","2019-10-10 15:34:32","2019-10-10 15:34:32","","On-street","W4 3JD"
"86570f4fab12c51c0e6cf0b75a0350c4",51.494683,-0.253103,"London","London Borough of Hounslow","W4 1QQ","In service","2019-10-10 15:34:34","2019-10-10 15:34:34","","On-street","W4 1QQ"
"11f8ab501c65295fc40d9c3c94f78bb5",51.487136,-0.269732,"London","London Borough of Hounslow","W4 3DY","In service","2019-10-10 15:34:35","2019-10-10 15:34:35","","On-street","W4 3DY"
"c2bc8c9ddb2c6eaa4685df60e2ec8e7b",51.489811,-0.261379,"London","London Borough of Hounslow","W4 4NT","In service","2019-10-10 15:34:35","2019-10-10 15:34:35","","On-street","W4 4NT"
"f4e46ba9669d3a459c71e93e431607b7",51.489533,-0.253699,"London","London Borough of Hounslow","W4 2HX","In service","2019-10-10 15:34:35","2019-10-10 15:34:35","","On-street","W4 2HX"
"529e3143f3b9b5173ad092483e6bdf0c",51.487369,-0.270087,"London","London Borough of Hounslow","W4 3DZ","In service","2019-10-10 15:34:36","2019-10-10 15:34:36","","On-street","W4 3DZ"
"559ccfaf8e8ffa44335f3fc790c04dec",51.487326,-0.270549,"London","London Borough of Hounslow","W4 3DY","In service","2019-10-10 15:34:38","2019-10-10 15:34:38","","On-street","W4 3DY"
"fa2a29b9ba528f5832b00e81473357c6",51.487462,-0.270893,"London","London Borough of Hounslow","W4 3DZ","In service","2019-10-10 15:34:38","2019-10-10 15:34:38","","On-street","W4 3DZ"
"b9243d43f1266f5b50c9f25a94fac9e7",51.487442,-0.271422,"London","London Borough of Hounslow","W4 3DY","In service","2019-10-10 15:34:38","2019-10-10 15:34:38","","On-street","W4 3DY"
"fca0113e8cf114d0ebc907bdd0157f05",51.493966,-0.252509,"London","London Borough of Hounslow","W4 1QG","In service","2019-10-10 15:34:38","2019-10-10 15:34:38","","On-street","W4 1QG"
"385c0958cf6fad65d5fc7ff75ec94890",51.486102,-0.26736,"Chiswick, London","London Borough of Hounslow","W4 3HQ","In service","2019-10-10 15:34:38","2019-10-10 15:34:38","","On-street","W4 3HQ"
"37fb5f705c17ecad2cbba32e0751f52a",51.486269,-0.267731,"Chiswick, London","London Borough of Hounslow","W4 3HQ","In service","2019-10-10 15:34:38","2019-10-10 15:34:38","","On-street","W4 3HQ"
"3e50833ade1b7d6fea055ae280997308",51.489567,-0.261883,"London","London Borough of Hounslow","W4 4NT","In service","2019-10-10 15:34:38","2019-10-10 15:34:38","","On-street","W4 4NT"
"a830aa480783925d25480f1a0b97848d",51.487445,-0.276225,"Chiswick, London","London Borough of Hounslow","W4 3LT","In service","2019-10-10 15:34:38","2019-10-10 15:34:38","","On-street","W4 3LT"
"2722110d9807b6afa8072e8d22ffaf56",51.490023,-0.281524,"Chiswick, London","London Borough of Hounslow","W4 3AD","In service","2019-10-10 15:34:38","2019-10-10 15:34:38","","On-street","W4 3AD"
"61cea591ead5535009b0263e32914472",51.485482,-0.270502,"Chiswick, London","London Borough of Hounslow","W4 3JU","In service","2019-10-10 15:34:38","2019-10-10 15:34:38","","On-street","W4 3JU"
"a194cc83285032765f03a660f7781dad",51.486256,-0.273288,"London","London Borough of Hounslow","W4 3DR","In service","2019-10-10 15:34:38","2019-10-10 15:34:38","","On-street","W4 3DR"
"05a48732b3fabb0b10b1df6755d8ea5b",51.492027,-0.246706,"London","London Borough of Hounslow","W4 2NA","In service","2019-10-10 15:34:38","2019-10-10 15:34:38","","On-street","W4 2NA"
"c1ec4d0f6bbfd8a99b92b00adb7178bd",51.485356,-0.273604,"London","London Borough of Hounslow","W4 3LW","In service","2019-10-10 15:34:38","2019-10-10 15:34:38","","On-street","W4 3LW"
"ff21f8d980be90fd7d986296360e9447",51.447167,-0.415796,"Feltham","London Borough of Hounslow","TW14 9NE","In service","2019-10-10 15:34:38","2019-10-10 15:34:38","","On-street","TW14 9NE"
"22e6a9213136964e32370c20e5020123",51.488875,-0.257804,"London","London Borough of Hounslow","W4 2BX","In service","2019-10-10 15:34:38","2019-10-10 15:34:38","","On-street","W4 2BX"
"4bc8b6842770af33990ad0f4db3e0a2a",51.449187,-0.414854,"Feltham","London Borough of Hounslow","TW14 9BH","In service","2019-10-10 15:34:38","2019-10-10 15:34:38","","On-street","TW14 9BH"
"213918481e65dda31a328f2917b9afa5",51.490325,-0.256035,"London","London Borough of Hounslow","W4 2BL","In service","2019-10-10 15:34:38","2019-10-10 15:34:38","","On-street","W4 2BL"
"6c7e60741aa47f9dcc2859a37574b220",51.447195,-0.416481,"Feltham","London Borough of Hounslow","TW14 9NF","In service","2019-10-10 15:34:38","2019-10-10 15:34:38","","On-street","TW14 9NF"
"66b9482ba6b3305665d95e9449debd0f",51.487497,-0.303839,"Brentford","London Borough of Hounslow","TW8 0PH","In service","2019-10-10 15:34:38","2019-10-10 15:34:38","","On-street","TW8 0PH"
"500662c12735117ffede765e35e99b5f",51.476389,-0.258712,"London","London Borough of Hounslow","W4 2TB","In service","2019-10-10 15:34:38","2019-10-10 15:34:38","","On-street","W4 2TB"
"45bf719b4aa7c1611b2e597a32f485ad",51.49697,-0.249893,"London","London Borough of Hounslow","W4 1LJ","In service","2019-10-10 15:34:38","2019-10-10 15:34:38","","On-street","W4 1LJ"
"3b85f0a9401a400f160c1c293fe2959e",51.497483,-0.250424,"London","London Borough of Hounslow","W4 1ER","In service","2019-10-10 15:34:38","2019-10-10 15:34:38","","On-street","W4 1ER"
"10722f67bfcb15fea02a5dcdb40fcc02",51.497304,-0.25356,"London","London Borough of Hounslow","W4 1TZ","In service","2019-10-10 15:34:38","2019-10-10 15:34:38","","On-street","W4 1TZ"
"014951e6cd4b309b015ac4589a5bc0a8",51.497227,-0.253577,"London","London Borough of Hounslow","W4 1TX","In service","2019-10-10 15:34:38","2019-10-10 15:34:38","","On-street","W4 1TX"
"61aed3c9c3852854775b4986615901e0",51.497127,-0.253442,"London","London Borough of Hounslow","W4 1TX","In service","2019-10-10 15:34:38","2019-10-10 15:34:38","","On-street","W4 1TX"
"c7681a28fff6837d2c69c74515e04d44",51.497259,-0.253747,"London","London Borough of Hounslow","W4 1TZ","In service","2019-10-10 15:34:38","2019-10-10 15:34:38","","On-street","W4 1TZ"
"8be6210b0214833433b04c4f0b874810",51.497004,-0.253008,"London","London Borough of Hounslow","W4 1TX","In service","2019-10-10 15:34:38","2019-10-10 15:34:38","","On-street","W4 1TX"
"8f8f29122c85f275208027a680bdf88d",51.49766,-0.250244,"London","London Borough of Hounslow","W4 1EL","In service","2019-10-10 15:34:38","2019-10-10 15:34:38","","On-street","W4 1EL"
"b70652de9dffc827c434fb750d80909c",51.498075,-0.250538,"London","London Borough of Hounslow","W4 1EL","In service","2019-10-10 15:34:38","2019-10-10 15:34:38","","On-street","W4 1EL"
"f9c016f8da1971aee07443ecd506773c",51.498138,-0.250696,"London","London Borough of Hounslow","W4 1EY","In service","2019-10-10 15:34:38","2019-10-10 15:34:38","","On-street","W4 1EY"
"d9d71a3ec466b3cc859fcff3a6cd7e21",51.498386,-0.250753,"London","London Borough of Hounslow","W4 1EL","In service","2019-10-10 15:34:38","2019-10-10 15:34:38","","On-street","W4 1EL"
"1278fc97734f54ce31d4b69fd9b07221",51.489387,-0.265224,"London","London Borough of Hounslow","W4 4NT","In service","2019-10-10 15:34:38","2019-10-10 15:34:38","","On-street","W4 4NT"
"0055ad22950e274e9c78508cf83bb886",51.453801,-0.396301,"Feltham","London Borough of Hounslow","TW14 0EJ","In service","2019-10-10 15:34:38","2019-10-10 15:34:38","","On-street","TW14 0EJ"
"af7db10d0be1b18150d81df39fac7dc7",51.485209,-0.307528,"Brentford","London Borough of Hounslow","TW8 8BJ","In service","2019-10-10 15:34:38","2019-10-10 15:34:38","","On-street","TW8 8BJ"
"212a442c8de43e6caf034236c1917beb",51.485209,-0.307528,"Brentford","London Borough of Hounslow","TW8 8BJ","In service","2019-10-10 15:34:38","2019-10-10 15:34:38","","On-street","TW8 8BJ"
"22fdd407d328ecee225f21e8ab42d5d5",51.489496,-0.262618,"London","London Borough of Hounslow","W4 4NT","In service","2019-10-10 15:34:38","2019-10-10 15:34:38","","On-street","W4 4NT"
"cea89ae6d57a18af07a3c114b5fd4bfd",51.492051,-0.273154,"London","London Borough of Hounslow","W4 4DA","In service","2019-10-10 15:34:39","2019-10-10 15:34:39","","On-street","W4 4DA"
"4ddd94b1e3debb3db7ebc41859ec4ced",51.489223,-0.283566,"London","London Borough of Hounslow","W4 3BU","In service","2019-10-10 15:34:39","2019-10-10 15:34:39","","On-street","W4 3BU"
"7e82ec3e6ca81d105e96085888601d4c",51.491287,-0.274061,"London","London Borough of Hounslow","W4 4DB","In service","2019-10-10 15:34:39","2019-10-10 15:34:39","","On-street","W4 4DB"
"d4eb1844a74eb364a7b6f17a73781456",51.488518,-0.25296,"London","London Borough of Hounslow","W4 2JY","In service","2019-10-10 15:34:39","2019-10-10 15:34:39","","On-street","W4 2JY"
"a7abc0abaaee4c2303c62f29c8f8de6d",51.488717,-0.253265,"London","London Borough of Hounslow","W4 2JT","In service","2019-10-10 15:34:39","2019-10-10 15:34:39","","On-street","W4 2JT"
"309dc110ba217c8f2a1d43e93bfaa820",51.488676,-0.252721,"London","London Borough of Hounslow","W4 2JX","In service","2019-10-10 15:34:39","2019-10-10 15:34:39","","On-street","W4 2JX"
"769c2bce0a31600690d3a529c2576565",51.491833,-0.274127,"London","London Borough of Hounslow","W4 4DE","In service","2019-10-10 15:34:39","2019-10-10 15:34:39","","On-street","W4 4DE"
"e0679741969383717173a64cf04e0678",51.489273,-0.282233,"London","London Borough of Hounslow","W4 3BU","In service","2019-10-10 15:34:39","2019-10-10 15:34:39","","On-street","W4 3BU"
"fd9d1ffb6d1c391795898247296b66a0",51.493327,-0.252451,"London","London Borough of Hounslow","W4 1QG","In service","2019-10-10 15:34:39","2019-10-10 15:34:39","","On-street","W4 1QG"
"d29ea3608fa94f6a5fce296f72d8d61c",51.489372,-0.282593,"London","London Borough of Hounslow","W4 3BT","In service","2019-10-10 15:34:39","2019-10-10 15:34:39","","On-street","W4 3BT"
"dbf594efeb99abf7e4cfcadb6518730e",51.486227,-0.27322,"London","London Borough of Hounslow","W4 3LH","In service","2019-10-10 15:34:39","2019-10-10 15:34:39","","On-street","W4 3LH"
"d916b95b34a34712a609635265f450cc",51.477569,-0.259651,"Hounslow","London Borough of Hounslow","W4 2TE","In service","2019-10-10 15:34:39","2019-10-10 15:34:39","","On-street","W4 2TE"
"bed495e8c39041a30a97924aedac001b",51.489463,-0.260373,"London","London Borough of Hounslow","W4 4NT","In service","2019-10-10 15:34:39","2019-10-10 15:34:39","","On-street","W4 4NT"
"373bf4156f1922e8f302170cbd4190c6",51.464967,-0.325078,"London","London Borough of Hounslow","TW7 7HB","In service","2019-10-10 15:34:39","2019-10-10 15:34:39","","On-street","TW7 7HB"
"70341d0382fccfcd784aee94ad60dc80",51.491322,-0.246535,"London","London Borough of Hounslow","W4 2NA","In service","2019-10-10 15:34:39","2019-10-10 15:34:39","","On-street","W4 2NA"
"f620aae7de49c0fe1126bbb91fc22290",51.487193,-0.275199,"London","London Borough of Hounslow","W4 3LL","In service","2019-10-10 15:34:39","2019-10-10 15:34:39","","On-street","W4 3LL"
"67e367083c41b6f313d620a461102e87",51.48782,-0.275335,"London","London Borough of Hounslow","W4 3LS","In service","2019-10-10 15:34:40","2019-10-10 15:34:40","","On-street","W4 3LS"
"d8225f2d417b2db0cc922fc02aedf369",51.489947,-0.28072,"Chiswick, London","London Borough of Hounslow","W4 3AD","In service","2019-10-10 15:34:40","2019-10-10 15:34:40","","On-street","W4 3AD"
"411c8202183ca36abc2c4c77c98034b6",51.49203,-0.24642,"London","London Borough of Hounslow","W4 2NA","In service","2019-10-10 15:34:41","2019-10-10 15:34:41","","On-street","W4 2NA"
"bed72a7299f9e9221b16f3f84dbc4a91",51.493214,-0.24713,"London","London Borough of Hounslow","W4 2NA","In service","2019-10-10 15:34:41","2019-10-10 15:34:41","","On-street","W4 2NA"
"d69f6b7d7cf85bdcb0ed9fbe5805a54e",51.465094,-0.324549,"London","London Borough of Hounslow","TW7 7HB","In service","2019-10-10 15:34:41","2019-10-10 15:34:41","","On-street","TW7 7HB"
"6c8075485f7dfe210a0fd7399258ded1",51.489376,-0.264563,"London","London Borough of Hounslow","W4 4NT","In service","2019-10-10 15:34:42","2019-10-10 15:34:42","","On-street","W4 4NT"
"c8bd18ea08d2f47cb0a7992f11ada9de",51.489374,-0.262817,"London","London Borough of Hounslow","W4 4NT","In service","2019-10-10 15:34:43","2019-10-10 15:34:43","","On-street","W4 4NT"
"ad3fc6089fb776d3cc919544c370dddf",51.465142,-0.326042,"London","London Borough of Hounslow","TW7 7HB","In service","2019-10-10 15:34:43","2019-10-10 15:34:43","","On-street","TW7 7HB"
"1cb3a246a0d7e6a0e47110a1cd5723af",51.48936,-0.2615,"London","London Borough of Hounslow","W4 4NT","In service","2019-10-10 15:34:44","2019-10-10 15:34:44","","On-street","W4 4NT"
"0c186ef3f13356a6e82e64675790baf4",51.489472,-0.260851,"London","London Borough of Hounslow","W4 4NT","In service","2019-10-10 15:34:44","2019-10-10 15:34:44","","On-street","W4 4NT"
"a3e89b95b65a5fa357709b8336cd36e6",51.489383,-0.265928,"London","London Borough of Hounslow","W4 4NT","In service","2019-10-10 15:34:45","2019-10-10 15:34:45","","On-street","W4 4NT"
"010e9b46a796a3abf79b9bb492f5958a",51.489446,-0.261112,"London","London Borough of Hounslow","W4 4NT","In service","2019-10-10 15:34:46","2019-10-10 15:34:46","","On-street","W4 4NT"
"67269c036d97dccf8316fc9892954109",51.543314,-0.039737,"London","London Borough of Hackney","E9 5ED","In service","2019-10-10 15:35:03","2019-10-10 15:35:03","","On-street","E9 5ED"
"3041888f78844b286564c3c576df7b96",51.542526,-0.063463,"London","London Borough of Hackney","E8 3EL","In service","2019-10-10 15:35:04","2019-10-10 15:35:04","","On-street","E8 3EL"
"27565002c4e5a784a1c9599648328e93",51.55158,-0.037357,"London","London Borough of Hackney","E5 0EF","In service","2019-10-10 15:35:05","2019-10-10 15:35:05","","On-street","E5 0EF"
"5c9a093b636b1b4fc70150cb9d94e34a",51.56019,-0.078279,"London","London Borough of Hackney","N16 0EB","In service","2019-10-10 15:35:05","2019-10-10 15:35:05","","On-street","N16 0EB"
"14ce1239a6638e0b7acb18c8bc60a340",51.555911,-0.052606,"London","London Borough of Hackney","E5 0SB","In service","2019-10-10 15:35:05","2019-10-10 15:35:05","","On-street","E5 0SB"
"9db1c4a3a80276439554314a0b2dabe2",51.565699,-0.089924,"London","London Borough of Hackney","N16 5UJ","In service","2019-10-10 15:35:05","2019-10-10 15:35:05","","On-street","N16 5UJ"
"e780d0482ca5cbf18e88435efbe58333",51.549815,-0.071497,"London","London Borough of Hackney","E8 2LR","In service","2019-10-10 15:35:05","2019-10-10 15:35:05","","On-street","E8 2LR"
"9a706a7e205af67d5986dd0d6d1befa3",51.561195,-0.053388,"London","London Borough of Hackney","E5 9JW","In service","2019-10-10 15:35:06","2019-10-10 15:35:06","","On-street","E5 9JW"
"8d2ef026297d62efc3036ee2a3890be6",51.565899,-0.089764,"London","London Borough of Hackney","N16 5UF","In service","2019-10-10 15:35:06","2019-10-10 15:35:06","","On-street","N16 5UF"
"fee159a86e745b0bfc6222f08285cb6a",51.553623,-0.078858,"London","London Borough of Hackney","N16 8BY","In service","2019-10-10 15:35:08","2019-10-10 15:35:08","","On-street","N16 8BY"
"fbac069aaa8d6961d3b4c90bde016147",51.553623,-0.078858,"London","London Borough of Hackney","N16 8DL","In service","2019-10-10 15:35:08","2019-10-10 15:35:08","","On-street","N16 8DL"
"65196aa6b3bb88aca916771cc6ae88df",51.556349,-0.051329,"London","London Borough of Hackney","E5 0SB","In service","2019-10-10 15:35:08","2019-10-10 15:35:08","","On-street","E5 0SB"
"d48a5177c12fc8f5b04d30c1e46ec59f",51.569196,-0.081861,"London","London Borough of Hackney","N16 5LZ","In service","2019-10-10 15:35:08","2019-10-10 15:35:08","","On-street","N16 5LZ"
"502485e108e0a0469cb90c86522eb613",51.564041,-0.050205,"London","London Borough of Hackney","E5 9NF","In service","2019-10-10 15:35:09","2019-10-10 15:35:09","","On-street","E5 9NF"
"ce9920ac9521bd85f15394aabcc3ad83",51.549775,-0.069859,"London","London Borough of Hackney","E8 2LL","In service","2019-10-10 15:35:09","2019-10-10 15:35:09","","On-street","E8 2LL"
"36f48f041041f3b0d880ceb979bbcb0e",51.56946,-0.082044,"London","London Borough of Hackney","N16 5LZ","In service","2019-10-10 15:35:10","2019-10-10 15:35:10","","On-street","N16 5LZ"
"ed429ceecdcd1a762fd652bc688568d1",51.569494,-0.081893,"London","London Borough of Hackney","N16 5LZ","In service","2019-10-10 15:35:11","2019-10-10 15:35:11","","On-street","N16 5LZ"
"e5e6bf4f5554b6f9244f605136d6888b",51.5385,-0.051357,"London","London Borough of Hackney","E9 7SR","In service","2019-10-10 15:35:11","2019-10-10 15:35:11","","On-street","E9 7SR"
"a6d240df99decf2f12d15e0e79cecebb",51.569616,-0.082084,"London","London Borough of Hackney","N16 5PQ","In service","2019-10-10 15:35:11","2019-10-10 15:35:11","","On-street","N16 5PQ"
"a2e4e331c972b69c464abdec8293a86a",51.554822,-0.053742,"London","London Borough of Hackney","E5 0QP","In service","2019-10-10 15:35:11","2019-10-10 15:35:11","","On-street","E5 0QP"
"1ed3dad2a3b658b0ffd0e867716de70a",51.554638,-0.088504,"London","London Borough of Hackney","N16 9NS","In service","2019-10-10 15:35:11","2019-10-10 15:35:11","","On-street","N16 9NS"
"8d2d29677de79211195e3dcb6df68339",51.551297,-0.040174,"London","London Borough of Hackney","E5 0DP","In service","2019-10-10 15:35:11","2019-10-10 15:35:11","","On-street","E5 0DP"
"197fa5ee76368bb7cb32470431f30d9b",51.557799,-0.071327,"London","London Borough of Hackney","N16 7LU","In service","2019-10-10 15:35:11","2019-10-10 15:35:11","","On-street","N16 7LU"
"473047aea4ad7546f025874d557e431e",51.542444,-0.083374,"London","London Borough of Hackney","N1 4HG","In service","2019-10-10 15:35:11","2019-10-10 15:35:11","","On-street","N1 4HG"
"14722bd8223c8f30d0fd38fd6a8332f1",51.555308,-0.089063,"London","London Borough of Hackney","N16 9ED","In service","2019-10-10 15:35:11","2019-10-10 15:35:11","","On-street","N16 9ED"
"9d52df87c64852d2bb7cc251e17d3a51",51.560676,-0.075647,"London","London Borough of Hackney","N16 0EX","In service","2019-10-10 15:35:11","2019-10-10 15:35:11","","On-street","N16 0EX"
"ff079df536ba9f5cc6ea9a056d8e4b1c",51.523383,-0.08315,"London","London Borough of Hackney","EC2A 4LD","In service","2019-10-10 15:35:11","2019-10-10 15:35:11","","On-street","EC2A 4LD"
"2811a99e594c3cda28b86d3a94a0550f",51.523588,-0.083102,"London","London Borough of Hackney","EC2A 4LD","In service","2019-10-10 15:35:11","2019-10-10 15:35:11","","On-street","EC2A 4LD"
"aeee06fc6ee1d69d2f5cdb9eb3c9f5d0",51.559595,-0.062258,"London","London Borough of Hackney","N16 0EX","In service","2019-10-10 15:35:11","2019-10-10 15:35:11","","On-street","N16 0EX"
"877e4a3ccef92bde8b3c76fb9c3d67a7",51.523792,-0.082951,"London","London Borough of Hackney","EC2A 4LD","In service","2019-10-10 15:35:11","2019-10-10 15:35:11","","On-street","EC2A 4LD"
"a2af5c1fc41987e8007039380a9e8a38",51.554903,-0.053495,"London","London Borough of Hackney","E5 0QP","In service","2019-10-10 15:35:11","2019-10-10 15:35:11","","On-street","E5 0QP"
"6fb4c44c8dea29661e2341e5a16c5506",51.551474,-0.039312,"London","London Borough of Hackney","E5 0DP","In service","2019-10-10 15:35:11","2019-10-10 15:35:11","","On-street","E5 0DP"
"50b9c141768db11d4b96b0957c487bd3",51.572452,-0.061251,"London","London Borough of Hackney","E5 9BN","In service","2019-10-10 15:35:11","2019-10-10 15:35:11","","On-street","E5 9BN"
"8d0118702141c1892ca7ac1fbafce94c",51.554841,-0.088123,"London","London Borough of Hackney","N16 9NX","In service","2019-10-10 15:35:11","2019-10-10 15:35:11","","On-street","N16 9NX"
"6b5b044879eea348b40407ab70d12aa9",51.542425,-0.083771,"London","London Borough of Hackney","N1 4HG","In service","2019-10-10 15:35:11","2019-10-10 15:35:11","","On-street","N1 4HG"
"a5804b35ff9add427b0ca1ceef515bba",51.55123,-0.039693,"London","London Borough of Hackney","E5 0DP","In service","2019-10-10 15:35:11","2019-10-10 15:35:11","","On-street","E5 0DP"
"43279a0936368b5b5ac0819a0f41254c",51.555105,-0.053345,"London","London Borough of Hackney","E5 0QP","In service","2019-10-10 15:35:11","2019-10-10 15:35:11","","On-street","E5 0QP"
"b288d957e46e6606192f70159861af02",51.560528,-0.076307,"London","London Borough of Hackney","N16 0EA","In service","2019-10-10 15:35:11","2019-10-10 15:35:11","","On-street","N16 0EA"
"49d33d69dadcaba11f6a82c21b0e9251",51.556432,-0.075926,"London","London Borough of Hackney","N16 8EA","In service","2019-10-10 15:35:11","2019-10-10 15:35:11","","On-street","N16 8EA"
"bae12df2aaadaecd1064e1b82d0094d7",51.539501,-0.057749,"London","London Borough of Hackney","E8 3DQ","In service","2019-10-10 15:35:11","2019-10-10 15:35:11","","On-street","E8 3DQ"
"d505f49099ae12478341109b0d167455",51.551476,-0.03906,"London","London Borough of Hackney","E5 0DP","In service","2019-10-10 15:35:11","2019-10-10 15:35:11","","On-street","E5 0DP"
"f4ba52deac04bbf1d37d329894774b3f",51.539495,-0.05787,"London","London Borough of Hackney","E8 3DQ","In service","2019-10-10 15:35:11","2019-10-10 15:35:11","","On-street","E8 3DQ"
"ffe51feba7c5e5e7b74db593b0d4f021",51.55759,-0.070663,"London","London Borough of Hackney","N16 7PU","In service","2019-10-10 15:35:11","2019-10-10 15:35:11","","On-street","N16 7PU"
"df50c778908ba687c7006dee97540523",51.560421,-0.07659,"London","London Borough of Hackney","N16 0EA","In service","2019-10-10 15:35:11","2019-10-10 15:35:11","","On-street","N16 0EA"
"f90503d430452da9236bffac39001e1a",51.556442,-0.076685,"London","London Borough of Hackney","N16 8EB","In service","2019-10-10 15:35:11","2019-10-10 15:35:11","","On-street","N16 8EB"
"ea90a4812ed10cb09ee7c1ba94498d70",51.537917,-0.050065,"London","London Borough of Hackney","E9 7TW","In service","2019-10-10 15:35:11","2019-10-10 15:35:11","","On-street","E9 7TW"
"85617c1aa79c47e1a5a41ee38a7b25bd",51.542239,-0.044021,"London","London Borough of Hackney","E9 7AP","In service","2019-10-10 15:35:11","2019-10-10 15:35:11","","On-street","E9 7AP"
"1f2700e23e28608434f21942f3298107",51.563889,-0.052966,"London","London Borough of Hackney","E5 9NF","In service","2019-10-10 15:35:11","2019-10-10 15:35:11","","On-street","E5 9NF"
"0fc644706b8e7ab2ad9fb02552ebc7b5",51.542297,-0.044385,"London","London Borough of Hackney","E9 7AP","In service","2019-10-10 15:35:11","2019-10-10 15:35:11","","On-street","E9 7AP"
"654adcd0696a9cfff110373a8858629b",51.542518,-0.06405,"London","London Borough of Hackney","E8 3EG","In service","2019-10-10 15:35:11","2019-10-10 15:35:11","","On-street","E8 3EG"
"05039260bac431bc29c70967d9c485f7",51.541763,-0.044482,"London","London Borough of Hackney","E9 7AS","In service","2019-10-10 15:35:11","2019-10-10 15:35:11","","On-street","E9 7AS"
"df7e1de23b6e8c68863e49e03d05ef0e",51.573168,-0.062117,"London","London Borough of Hackney","E5 9BN","In service","2019-10-10 15:35:11","2019-10-10 15:35:11","","On-street","E5 9BN"
"24e2c4699e2fe1ae11d6845c65a9a12c",51.5392,-0.05038,"London","London Borough of Hackney","E9 7LP","In service","2019-10-10 15:35:11","2019-10-10 15:35:11","","On-street","E9 7LP"
"a699b7b5b42180d235ab0d87fafce345",51.542484,-0.044672,"London","London Borough of Hackney","E9 7AP","In service","2019-10-10 15:35:11","2019-10-10 15:35:11","","On-street","E9 7AP"
"97cdc9382a1d068b806b8d3eacbd0cae",51.54255,-0.06399,"London","London Borough of Hackney","E8 3EJ","In service","2019-10-10 15:35:11","2019-10-10 15:35:11","","On-street","E8 3EJ"
"277e83942ae487287a674d5aa14f8c77",51.541779,-0.044103,"London","London Borough of Hackney","E9 7AS","In service","2019-10-10 15:35:11","2019-10-10 15:35:11","","On-street","E9 7AS"
"9eacf80c8de88519fb56590e86cbf541",51.5432,-0.039536,"London","London Borough of Hackney","E9 5ED","In service","2019-10-10 15:35:11","2019-10-10 15:35:11","","On-street","E9 5ED"
"0f0d2f5cf7dbdc532b918660f473d2ae",51.539061,-0.050281,"London","London Borough of Hackney","E9 7JE","In service","2019-10-10 15:35:11","2019-10-10 15:35:11","","On-street","E9 7JE"
"3b63b636ffb809232f5790cac99209e4",51.561483,-0.093841,"London","London Borough of Hackney","N4 2XG","In service","2019-10-10 15:35:11","2019-10-10 15:35:11","","On-street","N4 2XG"
"282984b385d80166ba0d4f32a7843f53",51.565545,-0.090556,"London","London Borough of Hackney","N16 5UF","In service","2019-10-10 15:35:11","2019-10-10 15:35:11","","On-street","N16 5UF"
"b6871caaf03565202e4c3bafef2af7c6",51.557864,-0.069762,"London","London Borough of Hackney","N16 7PR","In service","2019-10-10 15:35:11","2019-10-10 15:35:11","","On-street","N16 7PR"
"3b0a630f82f0e5afe7a6ead1eaf51665",51.504864,-0.24573,"London","London Borough of Ealing","W12 9DZ","In service","2019-10-10 15:35:22","2019-10-10 15:35:22","","On-street","W12 9DZ"
"c5753af6feefc11f0395ab64762748d8",51.504838,-0.245721,"London","London Borough of Ealing","W12 9DZ","In service","2019-10-10 15:35:22","2019-10-10 15:35:22","","On-street","W12 9DZ"
"4c03ca5c4fff62a145fd13ee5dca3a0f",51.512988,-0.263775,"London","London Borough of Ealing","W3 6HP","In service","2019-10-10 15:35:22","2019-10-10 15:35:22","","On-street","W3 6HP"
"68122d0065b25ec6427fa626e691525a",51.512953,-0.265362,"London","London Borough of Ealing","W3 6SX","In service","2019-10-10 15:35:22","2019-10-10 15:35:22","","On-street","W3 6SX"
"40efa14d69b3b67cb5f4793c34898ad3",51.48764,-0.108041,"London","London Borough of Lambeth","SE11 4EA","In service","2019-10-10 15:35:25","2019-10-10 15:35:25","","On-street","SE11 4EA"
"2688c3c7daec72869d298a3282321308",51.481133,-0.11596,"London","London Borough of Lambeth","SW8 1NH","In service","2019-10-10 15:35:25","2019-10-10 15:35:25","","On-street","SW8 1NH"
"eb8a56e79a90fff26e50196dbc6c9d66",51.55255,-0.174544,"London","London Borough of Camden","NW3 5QA","In service","2019-10-10 15:35:25","2019-10-10 15:35:25","","On-street","NW3 5QA"
"1d40fa75e6dbc9e8e5acc5f93d86f786",51.500365,-0.254653,"London","London Borough of Ealing","W4 1HL","In service","2019-10-10 15:35:28","2019-10-10 15:35:28","","On-street","W4 1HL"
"9479d835ed583f3c96bd866b4aba46f2",51.488485,-0.083006,"London","London Borough Of Southwark","SE17 2JY","In service","2019-10-10 15:35:29","2019-10-10 15:35:29","","On-street","SE17 2JY"
"bb54135255a19c1d0a4ddd96898a793e",51.506841,-0.03877,"London","London Borough Of Southwark","SE16 5EH","In service","2019-10-10 15:35:31","2019-10-10 15:35:31","","On-street","SE16 5EH"
"90d534070e84745366962ab2201898c0",51.497185,-0.073691,"London","London Borough Of Southwark","SE16 3QJ","In service","2019-10-10 15:35:32","2019-10-10 15:35:32","","On-street","SE16 3QJ"
"98839ab8621ab5d1df4b86de3eaa64cb",51.449665,-0.076256,"London","London Borough Of Southwark","SE22 8UN","In service","2019-10-10 15:35:33","2019-10-10 15:35:33","","On-street","SE22 8UN"
"f89037b0d57f6e4ec31a64055cfef2c5",51.450832,-0.096958,"London","London Borough Of Southwark","SE24 9JA","In service","2019-10-10 15:35:33","2019-10-10 15:35:33","","On-street","SE24 9JA"
"6dfe77ec115d94e7898e1788f6dd1511",51.450435,-0.096405,"London","London Borough Of Southwark","SE24 9HL","In service","2019-10-10 15:35:33","2019-10-10 15:35:33","","On-street","SE24 9HL"
"7421f9a5c324f16711e12467bfcf268e",51.497854,-0.070536,"London","London Borough Of Southwark","SE16 4BB","In service","2019-10-10 15:35:33","2019-10-10 15:35:33","","On-street","SE16 4BB"
"5ae6765775a192cc87e85f993c9f2b05",51.451615,-0.097871,"London","London Borough Of Southwark","SE24 9HZ","In service","2019-10-10 15:35:33","2019-10-10 15:35:33","","On-street","SE24 9HZ"
"4d7dd2d92f7b44b057d2601f449f50c9",51.451326,-0.097345,"London","London Borough Of Southwark","SE24 9JA","In service","2019-10-10 15:35:33","2019-10-10 15:35:33","","On-street","SE24 9JA"
"45c812208448b74e5c08d63eae39eb37",51.488599,-0.082808,"London","London Borough Of Southwark","SE17 2JY","In service","2019-10-10 15:35:33","2019-10-10 15:35:33","","On-street","SE17 2JY"
"d4b5ede962d87a4fd0c79272269209b0",51.454244,-0.075163,"London","London Borough Of Southwark","SE22 9JB","In service","2019-10-10 15:35:33","2019-10-10 15:35:33","","On-street","SE22 9JB"
"d9bbe183d71053e283ff658d00b6744a",51.477591,-0.084157,"London","London Borough Of Southwark","SE5 7LS","In service","2019-10-10 15:35:33","2019-10-10 15:35:33","","On-street","SE5 7LS"
"7bc94662f14a55f8e5895bcb4525d91c",51.454251,-0.075268,"London","London Borough Of Southwark","SE22 9JB","In service","2019-10-10 15:35:33","2019-10-10 15:35:33","","On-street","SE22 9JB"
"bcce54ef45426486a7fbab611ae633bd",51.477964,-0.057445,"London","London Borough Of Southwark","SE15 2RX","In service","2019-10-10 15:35:33","2019-10-10 15:35:33","","On-street","SE15 2RX"
"e736d083005a5eb084c0f8660d7d1453",51.510202,-0.270257,"London","London Borough of Ealing","W3 6DG","In service","2019-10-11 17:54:12","2019-10-11 17:54:12","","On-street","W3 6DG"
"ec68481a87592b1242c5f15e7904eec4",51.511105,-0.285382,"London","London Borough of Ealing","W5 3LP","In service","2019-10-11 17:54:12","2019-10-11 17:54:12","","On-street","W5 3LP"
"e53a59cacd84597b3666a6721b081487",51.509451,-0.269508,"London","London Borough of Ealing","W3 6DQ","In service","2019-10-11 17:54:12","2019-10-11 17:54:12","","On-street","W3 6DQ"
"244d3798f2c6a6c19e490491556f448b",51.513998,-0.288623,"London","London Borough of Ealing","W5 3RL","In service","2019-10-11 17:54:12","2019-10-11 17:54:12","","On-street","W5 3RL"
"eda7ed80f43155804315545688269635",51.502139,-0.324695,"London","London Borough of Ealing","W13 9TY","In service","2019-10-11 17:54:12","2019-10-11 17:54:12","","On-street","W13 9TY"
"3af735128a47958dd67b1d5989b69756",51.501055,-0.258518,"London","London Borough of Ealing","W4 1BY","In service","2019-10-11 17:54:12","2019-10-11 17:54:12","","On-street","W4 1BY"
"c94d2e380d5edb5af501cf4810ec5b66",51.495026,-0.267863,"London","London Borough of Ealing","W4 5EF","In service","2019-10-11 17:54:12","2019-10-11 17:54:12","","On-street","W4 5EF"
"0b6aa75198e4b0466ecc744f74a956e7",51.568856,-0.00207,"London","London Borough of Waltham Forest","E11 1DJ","In service","2019-11-08 15:43:31","2019-11-08 15:43:31","","On-street","E11 1DJ"
"64b36e734976a49dc0065096d14cc11e",51.566562,0.016307,"London","London Borough of Waltham Forest","E11 3BT","In service","2019-11-08 15:43:31","2019-11-08 15:43:31","","On-street","E11 3BT"
"0d1afd58f8213eaf99c8de8734547678",51.589377,-0.022166,"London","London Borough of Waltham Forest","E17 4QZ","In service","2019-11-08 15:43:31","2019-11-08 15:43:31","","On-street","E17 4QZ"
"9d98704a9888adefae52df00bf779dd1",51.564517,-0.001743,"London","London Borough of Waltham Forest","E11 4BP","In service","2019-11-08 15:43:31","2019-11-08 15:43:31","","On-street","E11 4BP"
"b4f52a1c3fcd05d72ba25c41859f5e3d",51.591416,-0.036219,"London","London Borough of Waltham Forest","E17 6BT","In service","2019-11-08 15:43:32","2019-11-08 15:43:32","","On-street","E17 6BT"
"65ae5a29745a7c46409d9ddd6044048d",51.556997,0.008504,"London","London Borough of Waltham Forest","E11 3LW","In service","2019-11-08 15:43:32","2019-11-08 15:43:32","","On-street","E11 3LW"
"d749404b6d46b10202ec2fe499e538dc",51.554826,0.016769,"London","London Borough of Waltham Forest","E7 0AN","In service","2019-11-08 15:43:33","2019-11-08 15:43:33","","On-street","E7 0AN"
"b13bba347a39e8c2e60d7700d823adc8",51.623854,0.005551,"London","London Borough of Waltham Forest","E4 6JH","In service","2019-11-08 15:43:34","2019-11-08 15:43:34","","On-street","E4 6JH"
"6d793f678f1728943d9b233155385adc",51.566563,0.015853,"London","London Borough of Waltham Forest","E11 3BT","In service","2019-11-08 15:43:35","2019-11-08 15:43:35","","On-street","E11 3BT"
"12cc8f67aed1ea8beb12ce57eb1ed276",51.572474,-0.015263,"London","London Borough of Waltham Forest","E10 7AH","In service","2019-11-08 15:43:35","2019-11-08 15:43:35","","On-street","E10 7AH"
"2bbc9911adabd2d0ea3a1d1ffaa46746",51.56705,-0.00676,"London","London Borough of Waltham Forest","E10 6LG","In service","2019-11-08 15:43:35","2019-11-08 15:43:35","","On-street","E10 6LG"
"c4a3e7f5a77ae5d7a72ad60e18467696",51.594669,-0.007343,"London","London Borough of Waltham Forest","E17 4JY","In service","2019-11-08 15:43:35","2019-11-08 15:43:35","","On-street","E17 4JY"
"e50498ccaf3dc9810ac32b3c413fb29a",51.565042,-0.000498,"London","London Borough of Waltham Forest","E11 4BQ","In service","2019-11-08 15:43:35","2019-11-08 15:43:35","","On-street","E11 4BQ"
"4d6d7868ba059092b1c7fb35b1c9b960",51.555697,0.010206,"London","London Borough of Waltham Forest","E11 3LQ","In service","2019-11-08 15:43:35","2019-11-08 15:43:35","","On-street","E11 3LQ"
"3b139fd659d89d1c5b05b466cf768182",51.568936,-0.002356,"London","London Borough of Waltham Forest","E11 1DJ","In service","2019-11-08 15:43:35","2019-11-08 15:43:35","","On-street","E11 1DJ"
"0d6a652110d37e4d630b426fd2d8d237",51.623848,0.00505,"London","London Borough of Waltham Forest","E4 6JH","In service","2019-11-08 15:43:35","2019-11-08 15:43:35","","On-street","E4 6JH"
"d62c7f3afd5f0aaa2f826dec7892a0c2",51.554037,-0.005931,"London","London Borough of Waltham Forest","E15 2DF","In service","2019-11-08 15:43:35","2019-11-08 15:43:35","","On-street","E15 2DF"
"1521012ec9b16400a37eeffdb6032746",51.555465,0.009743,"London","London Borough of Waltham Forest","E11 3LG","In service","2019-11-08 15:43:35","2019-11-08 15:43:35","","On-street","E11 3LG"
"0ceb7c1f67445ac41abc09af58114e5c",51.567157,-0.006487,"London","London Borough of Waltham Forest","E10 6LG","In service","2019-11-08 15:43:35","2019-11-08 15:43:35","","On-street","E10 6LG"
"421d3a035d978e9a9a6d8fc7faf2993e",51.557072,0.008302,"London","London Borough of Waltham Forest","E11 3JY","In service","2019-11-08 15:43:35","2019-11-08 15:43:35","","On-street","E11 3JY"
"992d4ed9131417604ee662b7525c2bba",51.59455,-0.039145,"London","London Borough of Waltham Forest","E17 6AH","In service","2019-11-08 15:43:35","2019-11-08 15:43:35","","On-street","E17 6AH"
"7297cd430ed62d59984b23c1cc763e98",51.56536,0.011675,"London","London Borough of Waltham Forest","E11 3DS","In service","2019-11-08 15:43:35","2019-11-08 15:43:35","","On-street","E11 3DS"
"6943718fb53c80b6bd8a937814db6efb",51.559842,-0.006605,"London","London Borough of Waltham Forest","E10 5RJ","In service","2019-11-08 15:43:35","2019-11-08 15:43:35","","On-street","E10 5RJ"
"7e2940423847a59a413f6ac358080ecb",51.564199,-0.000404,"London","London Borough of Waltham Forest","E11 4BU","In service","2019-11-08 15:43:35","2019-11-08 15:43:35","","On-street","E11 4BU"
"c698c7fed5d3665fbdba12109d5d6782",51.555065,0.015125,"London","London Borough of Waltham Forest","E7 9DY","In service","2019-11-08 15:43:35","2019-11-08 15:43:35","","On-street","E7 9DY"
"5cc03f92640d723a2467f9f252e97729",51.5777,-0.036974,"London","London Borough of Waltham Forest","E17 8AR","In service","2019-11-08 15:43:35","2019-11-08 15:43:35","","On-street","E17 8AR"
"0ebf8ab72300320714488d4aa61daa74",51.583791,-0.030802,"London","London Borough of Waltham Forest","E17 7ER","In service","2019-11-08 15:43:35","2019-11-08 15:43:35","","On-street","E17 7ER"
"a18c683dc35acbddc52d82d74d01672c",51.553977,-0.006342,"London","London Borough of Waltham Forest","E15 2DF","In service","2019-11-08 15:43:35","2019-11-08 15:43:35","","On-street","E15 2DF"
"d76821c4c3d0dd9dde2a369b3f0f4637",51.565384,0.012051,"London","London Borough of Waltham Forest","E11 3DS","In service","2019-11-08 15:43:35","2019-11-08 15:43:35","","On-street","E11 3DS"
"cee63e81fa1069e7cf4be0081edcd7ae",51.554762,0.006682,"London","London Borough of Waltham Forest","E11 3JW","In service","2019-11-08 15:43:35","2019-11-08 15:43:35","","On-street","E11 3JW"
"bbe6f3485dab2834b01db4863bcc3fc8",51.580313,-0.021158,"London","London Borough of Waltham Forest","E17 7PR","In service","2019-11-08 15:43:35","2019-11-08 15:43:35","","On-street","E17 7PR"
"65e5301674d2f749c993bb079cf5e71b",51.594595,-0.038674,"London","London Borough of Waltham Forest","E17 6AH","In service","2019-11-08 15:43:35","2019-11-08 15:43:35","","On-street","E17 6AH"
"95c37f46bfd672aa2eb38ebe8ec0b06d",51.554645,0.006967,"London","London Borough of Waltham Forest","E11 3JP","In service","2019-11-08 15:43:35","2019-11-08 15:43:35","","On-street","E11 3JP"
"bd49f03361b51dcc9ecb44da1bf893d1",51.574419,-0.001783,"London","London Borough of Waltham Forest","E10 6HF","In service","2019-11-08 15:43:35","2019-11-08 15:43:35","","On-street","E10 6HF"
"7a632135b42a2a866a39049bb2fdc3a2",51.594502,0.004782,"London","London Borough of Waltham Forest","E17 4BT","In service","2019-11-08 15:43:35","2019-11-08 15:43:35","","On-street","E17 4BT"
"6c4cb9283e7d92d40c32eaf9b81dfcbb",51.57067,-0.016321,"London","London Borough of Waltham Forest","E10 5AR","In service","2019-11-08 15:43:35","2019-11-08 15:43:35","","On-street","E10 5AR"
"22dc1e3ce2ca99e1a98a7334f8fb5c70",51.58912,-0.016434,"London","London Borough of Waltham Forest","E17 4SQ","In service","2019-11-08 15:43:35","2019-11-08 15:43:35","","On-street","E17 4SQ"
"257868824d3a0beedb87de1c05d817f9",51.567115,-0.019684,"London","London Borough of Waltham Forest","E10 7BD","In service","2019-11-08 15:43:35","2019-11-08 15:43:35","","On-street","E10 7BD"
"853c5fcbea8f01132e59d5e481870680",51.572304,-0.015098,"London","London Borough of Waltham Forest","E10 7AH","In service","2019-11-08 15:43:35","2019-11-08 15:43:35","","On-street","E10 7AH"
"130366f12449f97df3ff4f3d9fbc916b",51.568477,-0.02204,"London","London Borough of Waltham Forest","E10 7BG","In service","2019-11-08 15:43:35","2019-11-08 15:43:35","","On-street","E10 7BG"
"223cbeea72ad6d8bdc7413036415830b",51.55483,0.015285,"London","London Borough of Waltham Forest","E7 9DY","In service","2019-11-08 15:43:35","2019-11-08 15:43:35","","On-street","E7 9DY"
"65a778592f917333f1503563b118f866",51.569778,-0.018699,"London","London Borough of Waltham Forest","E10 7HL","In service","2019-11-08 15:43:35","2019-11-08 15:43:35","","On-street","E10 7HL"
"a73903647a7370584e0f57535af05fb6",51.589138,-0.022116,"London","London Borough of Waltham Forest","E17 4QZ","In service","2019-11-08 15:43:35","2019-11-08 15:43:35","","On-street","E17 4QZ"
"c65f7cf37da54f80820785cd61531249",51.580499,-0.020769,"London","London Borough of Waltham Forest","E17 7PS","In service","2019-11-08 15:43:35","2019-11-08 15:43:35","","On-street","E17 7PS"
"8b90eae0aa2250a70e4f5bf41e8af290",51.605126,-0.016434,"London","London Borough of Waltham Forest","E4 8SB","In service","2019-11-08 15:43:35","2019-11-08 15:43:35","","On-street","E4 8SB"
"0d268c63f6edb66f7d5ce093467b1f10",51.579763,-0.023274,"London","London Borough of Waltham Forest","E17 7PY","In service","2019-11-08 15:43:35","2019-11-08 15:43:35","","On-street","E17 7PY"
"f3cdbec569f860cabc54c17ff787a517",51.593996,0.004915,"London","London Borough of Waltham Forest","E17 4BT","In service","2019-11-08 15:43:35","2019-11-08 15:43:35","","On-street","E17 4BT"
"a34dfbef5668442567f72da5dfe506a0",51.569661,0.014363,"London","London Borough of Waltham Forest","E11 3BE","In service","2019-11-08 15:43:35","2019-11-08 15:43:35","","On-street","E11 3BE"
"6c787089533d4986bbe37d480b92ed5e",51.588903,-0.016463,"London","London Borough of Waltham Forest","E17 4SQ","In service","2019-11-08 15:43:35","2019-11-08 15:43:35","","On-street","E17 4SQ"
"9370a31d0ae3e3b0d62354d7ee1040a2",51.565296,-9.6e-05,"London","London Borough of Waltham Forest","E11 4BQ","In service","2019-11-08 15:43:35","2019-11-08 15:43:35","","On-street","E11 4BQ"
"95d00385ee8c0e99d5ff80c506ce93d0",51.591863,-0.03665,"London","London Borough of Waltham Forest","E17 6BT","In service","2019-11-08 15:43:35","2019-11-08 15:43:35","","On-street","E17 6BT"
"142ddba51f117ea22b09a9e68202e2ff",51.57458,-0.001807,"London","London Borough of Waltham Forest","E10 6HF","In service","2019-11-08 15:43:35","2019-11-08 15:43:35","","On-street","E10 6HF"
"1dc43796fb1b397a7f2b43180068b580",51.563857,-0.000694,"London","London Borough of Waltham Forest","E11 4BT","In service","2019-11-08 15:43:35","2019-11-08 15:43:35","","On-street","E11 4BT"
"486fe7bf40878c65112d074c9d0eb4df",51.583694,-0.031258,"London","London Borough of Waltham Forest","E17 7EP","In service","2019-11-08 15:43:36","2019-11-08 15:43:36","","On-street","E17 7EP"
"831b910669b007efb3eee43f4973a2ea",51.589381,-0.022126,"London","London Borough of Waltham Forest","E17 4QZ","In service","2019-11-08 15:43:36","2019-11-08 15:43:36","","On-street","E17 4QZ"
"298ed20c5b54cebf3c72eafd80b257c0",51.501249,-0.386654,"Southall","London Borough of Ealing","UB2 5AQ","In service","2019-11-11 12:51:01","2019-11-11 12:51:01","","On-street","UB2 5AQ"
"d1c72128dcf5aee20b5668fa388519b7",51.505827,-0.321058,"London","London Borough of Ealing","W13 9EP","In service","2019-11-11 12:51:01","2019-11-11 12:51:01","","On-street","W13 9EP"
"f99d32d586c4b1d5e120e25770fe5238",51.49992,-0.30424,"London","London Borough of Ealing","W5 4JJ","In service","2019-11-11 12:51:01","2019-11-11 12:51:01","","On-street","W5 4JJ"
"94b6431dbb0b87b0972de872e1b21283",51.501032,-0.376701,"Southall","London Borough of Ealing","UB2 4NU","In service","2019-11-11 12:51:01","2019-11-11 12:51:01","","On-street","UB2 4NU"
"4b2a33630dbb0f3ead21168e2bd63167",51.504755,-0.326548,"London","London Borough of Ealing","W7 2JT","In service","2019-11-11 12:51:02","2019-11-11 12:51:02","","On-street","W7 2JT"
"fb08818732dc3942a4423f03f19a9cd0",51.514665,-0.3238,"London","London Borough of Ealing","W13 0LQ","In service","2019-11-11 12:51:02","2019-11-11 12:51:02","","On-street","W13 0LQ"
"b7e97864589bd572d706f436fa2eb387",51.45788,-0.098266,"London","London Borough of Lambeth","SE24 0DQ","In service","2019-11-11 12:51:02","2019-11-11 12:51:02","","On-street","SE24 0DQ"
"bb7e049e2fef482dce7b87a20e05ed01",51.502815,-0.258227,"London","London Borough of Ealing","W4 1AU","In service","2019-11-21 16:16:19","2019-11-21 16:16:19","","On-street","W4 1AU"
"05f4e1a98bb11f96bef4229d2b9b34b2",51.50098,-0.376552,"Southall","London Borough of Ealing","UB2 4NU","In service","2019-11-21 16:16:20","2019-11-21 16:16:20","","On-street","UB2 4NU"
"83419ff790d5005f4c36805e7a3d0dfb",51.483719,-0.198331,"London","London Borough of Hammersmith and Fulham","SW6 1JX","In service","2019-11-21 16:16:21","2019-11-21 16:16:21","","On-street","SW6 1JX"
"c35ff0a7906f5eafe4b969b3554da30a",51.494255,-0.243958,"London","London Borough of Hammersmith and Fulham","W6 0TB","In service","2019-11-21 16:16:21","2019-11-21 16:16:21","","On-street","W6 0TB"
"ea0307931d54e7231e714fb5ee7423ef",51.557193,-0.134647,"London","London Borough of Islington","N7 0PX","In service","2019-11-21 16:16:21","2019-11-21 16:16:21","","On-street","N7 0PX"
"b6d843017e027d53ecc82b87b8feb3ca",51.585769,-0.035005,"London","London Borough of Waltham Forest","E17 6LA","In service","2019-11-21 16:16:21","2019-11-21 16:16:21","","On-street","E17 6LA"
"89013d8e1ded12e8068a49d8ce568da3",51.567297,-0.019156,"London","London Borough of Waltham Forest","E10 7BD","In service","2019-11-21 16:16:21","2019-11-21 16:16:21","","On-street","E10 7BD"
"b0282c7c7b81be13b9ba177c4af8aa8b",51.595128,-0.004385,"London","London Borough of Waltham Forest","E17 4AZ","In service","2019-11-21 16:16:21","2019-11-21 16:16:21","","On-street","E17 4AZ"
"2218eeca82b366499168c54ddc9e9cb6",51.595323,-0.003525,"London","London Borough of Waltham Forest","E17 4AY","In service","2019-11-21 16:16:22","2019-11-21 16:16:22","","On-street","E17 4AY"
"995c3120b368d6b35fed054225574ac8",51.56008,-0.00628,"London","London Borough of Waltham Forest","E10 5RJ","In service","2019-11-21 16:16:22","2019-11-21 16:16:22","","On-street","E10 5RJ"
"d737826839d79e887a7cd1b5c143b576",51.552571,-0.190111,"London","London Borough of Camden","NW6 1LN","In service","2019-12-04 13:30:15","2019-12-04 13:30:15","","On-street","NW6 1LN"
"41e507118b9686dc85f1b7d1080a50aa",51.544196,-0.185071,"London","London Borough of Camden","NW6 3EB","In service","2019-12-04 13:30:15","2019-12-04 13:30:15","","On-street","NW6 3EB"
"4dfd1d3eb70a47d3611a8bc08fdc155d",51.553565,-0.186328,"London","London Borough of Camden","NW3 7DU","In service","2019-12-04 13:30:15","2019-12-04 13:30:15","","On-street","NW3 7DU"
"5cae0d98cb1ef6119397b7dcfd8ae923",51.485168,0.032008,"London","London Borough of Greenwich","SE7 7PH","In service","2019-12-04 13:30:15","2019-12-04 13:30:15","","On-street","SE7 7PH"
"d092b8f3e3f91dc99774ecbf149e94a0",51.483795,0.030885,"London","London Borough of Greenwich","SE7 7PX","In service","2019-12-04 13:30:15","2019-12-04 13:30:15","","On-street","SE7 7PX"
"ac7fdbe9a67523f142088a40c860086d",51.453806,-0.396335,"Feltham","London Borough of Hounslow","TW14 0EJ","In service","2019-12-04 13:30:15","2019-12-04 13:30:15","","On-street","TW14 0EJ"
"fd3fa754b0ac1869050c5dd06ded3982",51.542148,-0.1065,"London","London Borough of Islington","N1 1LG","In service","2019-12-04 13:30:15","2019-12-04 13:30:15","","On-street","N1 1LG"
"3e6d5531c2e07abdddc4dceb7d85fde8",51.475989,-0.116467,"London","London Borough of Lambeth","SW9 0EF","In service","2019-12-04 13:30:15","2019-12-04 13:30:15","","On-street","SW9 0EF"
"4fadcbb166741cb5e0e1d874f2772fb6",51.457695,-0.135161,"London","London Borough of Lambeth","SW4 9JJ","In service","2019-12-04 13:30:16","2019-12-04 13:30:16","","On-street","SW4 9JJ"
"202d02c7ae1a7627830a66a20afb5544",51.44762,-0.336762,"Twickenham","London Borough of Richmond upon Thames","TW1 4HU","In service","2019-12-04 13:30:16","2019-12-04 13:30:16","","On-street","TW1 4HU"
"6666371f68d373799e9a861fdb69717e",51.435038,-0.331055,"Twickenham","London Borough of Richmond upon Thames","TW1 4SG","In service","2019-12-04 13:30:16","2019-12-04 13:30:16","","On-street","TW1 4SG"
"82ccad1ecc05dca4c46a39cbc9d5e590",51.480686,-0.240648,"London","London Borough of Richmond upon Thames","SW13 9PN","In service","2019-12-04 13:30:16","2019-12-04 13:30:16","","On-street","SW13 9PN"
"5ea53d94923dcb807976f2993f661dd9",51.472839,-0.289102,"Richmond","London Borough of Richmond upon Thames","TW9 2BT","In service","2019-12-04 13:30:16","2019-12-04 13:30:16","","On-street","TW9 2BT"
"b6fbeeec409422a2642792a2928de5b6",51.472492,-0.238585,"Richmond","London Borough of Richmond upon Thames","SW13 0BX","In service","2019-12-04 13:30:16","2019-12-04 13:30:16","","On-street","SW13 0BX"
"0a86051fcf22b777c2cc5e9956ec38b1",51.465001,-0.27241,"London","London Borough of Richmond upon Thames","SW14 7RH","In service","2019-12-04 13:30:16","2019-12-04 13:30:16","","On-street","SW14 7RH"
"7f66efb9b4ba86595ce552431671ab40",51.473066,-0.079128,"London","London Borough of Southwark","SE5 8QF","In service","2019-12-04 13:30:16","2019-12-04 13:30:16","","On-street","SE5 8QF"
"571c2a702724650148dcf7370757cda2",51.455715,-0.154016,"London","London Borough of Wandsworth","SW4 9AY","In service","2019-12-04 13:30:16","2019-12-04 13:30:16","","On-street","SW4 9AY"
"ad282ff242ac7fdd815eb8b49b4c8ed9",51.463247,-0.22039,"London","London Borough of Wandsworth","SW15 1RW","In service","2019-12-04 13:30:16","2019-12-04 13:30:16","","On-street","SW15 1RW"
"03c33f0a35cd8cee45eb9876f654f649",51.466291,-0.297018,"Richmond","London Borough of Richmond upon Thames","TW9 2HA","In service","2019-12-04 13:51:31","2019-12-04 13:51:31","","On-street","TW9 2HA"
"74d8f6fc6822b5638a4db5594dfb21f3",51.451293,-0.185386,"London","London Borough of Wandsworth","SW18 2SB","In service","2019-12-04 13:51:32","2019-12-04 13:51:32","","On-street","SW18 2SB"
"67f17eb92d6c0939b307a1f4598ff2f0",51.557154,-0.134788,"London","London Borough of Islington","N7 0PX","In service","2019-12-04 13:51:32","2019-12-04 13:51:32","","On-street","N7 0PX"
"1752b7441336fcba9c4975be091b9ca7",51.454248,-0.321522,"Twickenham","London Borough of Richmond upon Thames","TW1 3HY","In service","2019-12-04 13:51:32","2019-12-04 13:51:32","","On-street","TW1 3HY"
"41b88f496bddccec2f8fb8a7560bcdc7",51.529454,-0.141411,"London","London Borough of Camden","NW1 3RG","In service","2020-03-02 14:51:01","2020-03-02 14:51:01","","On-street","NW1 3RG"
"c2d10ce70bc6c8f53681ba384ccb840a",51.483352,-0.199258,"London","London Borough of Hammersmith and Fulham","SW6 1JH","In service","2020-03-02 14:51:01","2020-03-02 14:51:01","","On-street","SW6 1JH"
"7aee0f6d588ed9905ee37f16a7c610d4",51.554417,-0.199139,"London","London Borough of Camden","NW6 1EH","In service","2020-03-02 14:51:01","2020-03-02 14:51:01","","On-street","NW6 1EH"
"0d7423c834c3061f9b5b9906c51c5d9c",51.528204,-0.313253,"London","London Borough of Ealing","W5 1LR","In service","2020-03-02 14:51:01","2020-03-02 14:51:01","","On-street","W5 1LR"
"6ec5d89468a46327873df8d7b94fdaa3",51.42131,-0.09092,"London","London Borough of Lambeth","SE19 1DX","In service","2020-03-02 14:51:01","2020-03-02 14:51:01","","On-street","SE19 1DX"
"c0d62937c263d3328ed87a52bd3c84a6",51.428992,-0.341591,"Teddington","London Borough of Richmond upon Thames","TW11 8RT","In service","2020-03-02 14:51:02","2020-03-02 14:51:02","","On-street","TW11 8RT"
"14254f33a40a86ebadf1214cd09fb023",51.446144,-0.342251,"Twickenham","London Borough of Richmond upon Thames","TW2 6RX","In service","2020-03-02 14:51:02","2020-03-02 14:51:02","","On-street","TW2 6RX"
"4952780ffeb173ba65eef859b8b13c1b",51.480204,-0.240217,"London","London Borough of Richmond upon Thames","SW13 9PJ","In service","2020-03-02 14:51:02","2020-03-02 14:51:02","","On-street","SW13 9PJ"
"427485b4602cafa801fec16ef72fceb4",51.480574,-0.240188,"London","London Borough of Richmond upon Thames","SW13 9PN","In service","2020-03-02 14:51:02","2020-03-02 14:51:02","","On-street","SW13 9PN"
"d4493ea4e96a36cac56784cf549befd8",51.546033,-0.192893,"London","London Borough of Camden","NW6 2AS","In service","2020-03-02 14:51:02","2020-03-02 14:51:02","","On-street","NW6 2AS"
"ed3dde93487b4c652610cfda9f5e8b4c",51.543038,-0.191488,"London","London Borough of Camden","NW6 3PN","In service","2020-03-02 14:51:02","2020-03-02 14:51:02","","On-street","NW6 3PN"
"ff5cb6d5007c0a3f7e1af9336d1f523c",51.471445,-0.204736,"London","London Borough of Hammersmith and Fulham","SW6 3QF","In service","2020-03-02 14:51:02","2020-03-02 14:51:02","","On-street","SW6 3QF"
"b1b1ad3b658da1d3f0d2475b22322be0",51.479492,-0.188091,"London","London Borough of Hammersmith and Fulham","SW6 2JE","In service","2020-03-02 14:51:02","2020-03-02 14:51:02","","On-street","SW6 2JE"
"505909fe2bbcf3662e7f4773a69b7cea",51.468897,-0.222444,"London","London Borough of Wandsworth","SW15 1LP","In service","2020-03-02 14:51:02","2020-03-02 14:51:02","","On-street","SW15 1LP"
"971022bc7230674181610c8ea54c5b3a",51.544734,-0.091186,"London","London Borough of Islington","N1 2TW","In service","2020-03-02 14:51:02","2020-03-02 14:51:02","","On-street","N1 2TW"
"48466242c299b0f499ad0f722673a15e",51.463291,-0.26366,"London","London Borough of Richmond upon Thames","SW14 8JQ","In service","2020-03-02 14:51:02","2020-03-02 14:51:02","","On-street","SW14 8JQ"
"cf1f758ac1bfde514ece74a2bcd9c318",51.418451,-0.319797,"London","London Borough of Richmond upon Thames","TW11 9DL","In service","2020-03-02 14:51:02","2020-03-02 14:51:02","","On-street","TW11 9DL"
"091020183f9f9435695f24c1f9d422f8",51.419699,-0.3198,"London","London Borough of Richmond upon Thames","TW11 9DG","In service","2020-03-02 14:51:02","2020-03-02 14:51:02","","On-street","TW11 9DG"
"c14d4d530590d4649cad6ca7956fe5ed",51.46822,-0.29395,"Richmond","London Borough of Richmond upon Thames","TW9 2HQ","In service","2020-03-02 14:51:02","2020-03-02 14:51:02","","On-street","TW9 2HQ"
"15b9b78366f6d31a832370ca1016f33a",51.462452,-0.092587,"London","London Borough of Lambeth","SE5 8EG","In service","2020-03-02 14:51:02","2020-03-02 14:51:02","","On-street","SE5 8EG"
"c7abd1994de791b50300da80fba938dd",51.446689,-0.342432,"Twickenham","London Borough of Richmond upon Thames","TW2 6RX","In service","2020-03-02 14:51:02","2020-03-02 14:51:02","","On-street","TW2 6RX"
"e002cb174561754f3a4e1c289b307641",51.537594,-0.104592,"London","London Borough of Islington","N1 0QX","In service","2020-03-12 14:12:31","2020-03-12 14:12:31","","On-street","N1 0QX"
"5faf6b003ee3393304fc764342e1c9dc",51.53753,-0.106387,"London","London Borough of Islington","N1 0QY","In service","2020-03-12 14:12:31","2020-03-12 14:12:31","","On-street","N1 0QY"
"02d9ece9b8124af667964175280109d3",51.537571,-0.104188,"London","London Borough of Islington","N1 0QY","In service","2020-03-12 14:12:31","2020-03-12 14:12:31","","On-street","N1 0QY"
"cadd4f700963aa4730190b7679fa88f6",51.537539,-0.106034,"London","London Borough of Islington","N1 0QD","In service","2020-03-12 14:12:31","2020-03-12 14:12:31","","On-street","N1 0QD"
"4b0c2d9b3c32d6a08af16426593b2a1f",51.537556,-0.104247,"London","London Borough of Islington","N1 0QY","In service","2020-03-12 14:12:31","2020-03-12 14:12:31","","On-street","N1 0QY"
"c02ffbf92524766893492ff928c19176",51.530377,-0.110648,"London","London Borough of Islington","EC1R 1UU","In service","2020-03-12 14:12:31","2020-03-12 14:12:31","","On-street","EC1R 1UU"
"bc40641b0194aa707baed2a2d5116656",51.530341,-0.110616,"London","London Borough of Islington","EC1R 1UU","In service","2020-03-12 14:12:31","2020-03-12 14:12:31","","On-street","EC1R 1UU"
"9e0f960a78e6e6d6b2b8f92fbc8c1927",51.529425,-0.110377,"London","London Borough of Islington","EC1R 1XS","In service","2020-03-12 14:12:31","2020-03-12 14:12:31","","On-street","EC1R 1XS"
"26d5e0478dbf501cc100adffcba6acd9",51.542984,-0.114395,"London","London Borough of Islington","N1 1EA","In service","2020-03-12 14:12:31","2020-03-12 14:12:31","","On-street","N1 1EA"
"d6bf6e9d845d0d7241905a33317aebab",51.543556,-0.111415,"London","London Borough of Islington","N1 1PF","In service","2020-03-12 14:12:31","2020-03-12 14:12:31","","On-street","N1 1PF"
"c2d9d05399f4c872bd1b722fe1b9588b",51.542933,-0.114051,"London","London Borough of Islington","N1 1EB","In service","2020-03-12 14:12:31","2020-03-12 14:12:31","","On-street","N1 1EB"
"44f2378f4b0651daf2cb4fa277e4695e",51.543228,-0.112842,"London","London Borough of Islington","N1 1PF","In service","2020-03-12 14:12:31","2020-03-12 14:12:31","","On-street","N1 1PF"
"113c2058e052d550d054f82cdcab1f75",51.542772,-0.115197,"London","London Borough of Islington","N1 1EA","In service","2020-03-12 14:12:31","2020-03-12 14:12:31","","On-street","N1 1EA"
"cc8e05b9bde0f802f8af10273bb89d5c",51.542356,-0.116729,"London","London Borough of Islington","N1 1DJ","In service","2020-03-12 14:12:31","2020-03-12 14:12:31","","On-street","N1 1DJ"
"0b78ca7d696a4dff9aa4ae9d1b21e362",51.621952,0.007284,"London","London Borough of Waltham Forest","E4 6JJ","In service","2020-03-23 13:59:26","2020-03-23 13:59:26","","On-street","E4 6JJ"
"6e67391ca95519bb90288786fd1c9aa7",51.621813,0.003004,"London","London Borough of Waltham Forest","E4 6LA","In service","2020-03-23 13:59:27","2020-03-23 13:59:27","","On-street","E4 6LA"
"24d6b7e76d8912b468a44154055220df",-0.197836,51.553409,"London","London Borough of Camden","NW6 1DZ","In service","2020-10-07 10:19:36","2020-10-07 10:19:36","","On-street","NW6 1DZ"
"180303f320d0b3d14fb560f0a8a33f6a",-0.129843,51.544275,"London","London Borough of Camden","NW1 9RN","In service","2020-10-07 10:19:36","2020-10-07 10:19:36","","On-street","NW1 9RN"
"5cffc7404687e6f11a109ae3ca621104",-0.13278,51.54462,"London","London Borough of Camden","NW1 9UP","In service","2020-10-07 10:19:36","2020-10-07 10:19:36","","On-street","NW1 9UP"
"b6353e5e6a1b54f4012494c1a0390fc7",-0.16963,51.554823,"London","London Borough of Camden","NW3 2PH","In service","2020-10-07 10:19:36","2020-10-07 10:19:36","","On-street","NW3 2PH"
"834247ac1e070d548703ba8b9270f925",-0.143575,51.564233,"London","London Borough of Camden","N19 5TY","In service","2020-10-07 10:19:36","2020-10-07 10:19:36","","On-street","N19 5TY"
"0f81b047222c179c20bfeef2b050f038",-0.197796,51.557608,"London","London Borough of Camden","NW2 2BT","In service","2020-10-07 10:19:36","2020-10-07 10:19:36","","On-street","NW2 2BT"
"d3800f46d9dc82a081293889d1e0fe25",-0.17662,51.541273,"London","London Borough of Camden","NW8 0SE","In service","2020-10-07 10:19:36","2020-10-07 10:19:36","","On-street","NW8 0SE"
"881863d0a0f6fee7d97c6be6eadb905d",-0.184668,51.543266,"London","London Borough of Camden","NW6 3JQ","In service","2020-10-07 10:19:36","2020-10-07 10:19:36","","On-street","NW6 3JQ"
"0afcfa41d241974a3192ca54378f222f",-0.147119,51.559342,"London","London Borough of Camden","NW5 1RY","In service","2020-10-07 10:19:36","2020-10-07 10:19:36","","On-street","NW5 1RY"
"11d5e1fc949795fbe7a6950cf2f994e4",-0.145542,51.538518,"London","London Borough of Camden","NW1 7EE","In service","2020-10-07 10:19:36","2020-10-07 10:19:36","","On-street","NW1 7EE"
"52f78d94bdb6356222b9f2d2b9307142",-0.186328,51.553564,"London","London Borough of Camden","NW3 7DU","In service","2020-10-07 10:19:36","2020-10-07 10:19:36","","On-street","NW3 7DU"
"4e788a67dca5d15d8cbe26ff7ec1cc51",-0.146061,51.542474,"London","London Borough of Camden","NW1 8BY","In service","2020-10-07 10:19:36","2020-10-07 10:19:36","","On-street","NW1 8BY"
"a6601ba88cc504a765cd798618c3fdcf",-0.113537,51.522851,"London","London Borough of Camden","WC1X 0BJ","In service","2020-10-07 10:19:36","2020-10-07 10:19:36","","On-street","WC1X 0BJ"
"42bc4b96bb23d9a2d8dfc5edd8bc5ddc",-0.190836,51.556252,"London","London Borough of Camden","NW3 7SX","In service","2020-10-07 10:19:37","2020-10-07 10:19:37","","On-street","NW3 7SX"
"4fd690b550f99ccd42bb6ab57508ac06",-0.188965,51.554579,"London","London Borough of Camden","NW3 7EE","In service","2020-10-07 10:19:37","2020-10-07 10:19:37","","On-street","NW3 7EE"
"d6cb5ecc1c18c2f7709048252c6f0082",-0.154014,51.550217,"London","London Borough of Camden","NW5 4HS","In service","2020-10-07 10:19:37","2020-10-07 10:19:37","","On-street","NW5 4HS"
"eee38a15d0920f320c6791bbb7d3e1c3",-0.183325,51.541634,"London","London Borough of Camden","NW6 3HR","In service","2020-10-07 10:19:37","2020-10-07 10:19:37","","On-street","NW6 3HR"
"98c08101aa6bfb4ac64546af86a29594",-0.138459,51.523222,"London","London Borough of Camden","W1T 5DS","In service","2020-10-07 10:19:37","2020-10-07 10:19:37","","On-street","W1T 5DS"
"0c5bbcfff0edb0dee7693ee7f8f09369",-0.137267,51.546402,"London","London Borough of Camden","NW5 2LN","In service","2020-10-07 10:19:37","2020-10-07 10:19:37","","On-street","NW5 2LN"
"b082c8137e3c95d6c45daaa322f2a724",-0.199139,51.554417,"London","London Borough of Camden","NW6 1EH","In service","2020-10-07 10:19:37","2020-10-07 10:19:37","","On-street","NW6 1EH"
"653bbeb1b9d47fd0806675384bef5308",-0.195454,51.549597,"London","London Borough of Camden","NW6 1TS","In service","2020-10-07 10:19:37","2020-10-07 10:19:37","","On-street","NW6 1TS"
"c33078fd40166c45306e479b17780b4a",-0.156851,51.540397,"London","London Borough of Camden","NW1 8YH","In service","2020-10-07 10:19:37","2020-10-07 10:19:37","","On-street","NW1 8YH"
"df5ac9f24b85ab0b37d7650013516737",-0.143976,51.544398,"London","London Borough of Camden","NW1 8PU","In service","2020-10-07 10:19:37","2020-10-07 10:19:37","","On-street","NW1 8PU"
"a13192b953f3ddfa5e4716e5d09b4cfc",-0.193082,51.560587,"London","London Borough of Camden","NW3 7QL","In service","2020-10-07 10:19:37","2020-10-07 10:19:37","","On-street","NW3 7QL"
"8af7f78275b390819b3c3bf1be78bacf",-0.1958,51.551025,"London","London Borough of Camden","NW6 1TH","In service","2020-10-07 10:19:37","2020-10-07 10:19:37","","On-street","NW6 1TH"
"27666dd2f6b74fda2d86120b4a67bb25",-0.187522,51.537311,"London","London Borough of Camden","NW6 5NU","In service","2020-10-07 10:19:37","2020-10-07 10:19:37","","On-street","NW6 5NU"
"e3655d49bfa9e0c2c2ad52a1ad10ce07",-0.189124,51.559342,"London","London Borough of Camden","NW3 7RS","In service","2020-10-07 10:19:37","2020-10-07 10:19:37","","On-street","NW3 7RS"
"d17c764a4abb08b8f6b4840edf8859d0",-0.197445,51.550305,"London","London Borough of Camden","NW6 1PR","In service","2020-10-07 10:19:37","2020-10-07 10:19:37","","On-street","NW6 1PR"
"e7564f597efed8ce353c26bd1cd75111",-0.187059,51.557627,"London","London Borough of Camden","NW3 7RB","In service","2020-10-07 10:19:37","2020-10-07 10:19:37","","On-street","NW3 7RB"
"19ede134e9c0023b6f48eb0520ecc06f",-0.119138,51.521527,"London","London Borough of Camden","WC1N 3JW","In service","2020-10-07 10:19:37","2020-10-07 10:19:37","","On-street","WC1N 3JW"
"c350d83c48b3671e3df342eaa7b34bc5",-0.184722,51.553059,"London","London Borough of Camden","NW3 6QE","In service","2020-10-07 10:19:37","2020-10-07 10:19:37","","On-street","NW3 6QE"
"c4c36e598d4ed6a24e057248a0b68b1f",-0.188753,51.558862,"London","London Borough of Camden","NW3 7RP","In service","2020-10-07 10:19:37","2020-10-07 10:19:37","","On-street","NW3 7RP"
"0d52122a3e9203248089db60d0b87e61",-0.172528,51.544802,"London","London Borough of Camden","NW3 3HU","In service","2020-10-07 10:19:38","2020-10-07 10:19:38","","On-street","NW3 3HU"
"7af368a8a2dd49e39acd436c204c12e1",-0.13177,51.52082,"London","London Borough of Camden","WC1E 7AH","In service","2020-10-07 10:19:38","2020-10-07 10:19:38","","On-street","WC1E 7AH"
"7631691636f83d872f57a2e9e7fd56d2",-0.196241,51.549263,"London","London Borough of Camden","NW6 1PR","In service","2020-10-07 10:19:38","2020-10-07 10:19:38","","On-street","NW6 1PR"
"c6fe1d425ea836158b0f5b607555e1b7",-0.193608,51.539461,"London","London Borough of Camden","NW6 4LJ","In service","2020-10-07 10:19:38","2020-10-07 10:19:38","","On-street","NW6 4LJ"
"8d97ef9793dd742cb7247e0bfbebbf65",-0.192162,51.550809,"London","London Borough of Camden","NW6 1QT","In service","2020-10-07 10:19:38","2020-10-07 10:19:38","","On-street","NW6 1QT"
"c40759685fa03ee60de2c9620316542c",-0.144198,51.548284,"London","London Borough of Camden","NW5 3BP","In service","2020-10-07 10:19:38","2020-10-07 10:19:38","","On-street","NW5 3BP"
"dfd95dc6eeb1e36a6d79fd7fcf144a48",-0.13233,51.544943,"London","London Borough of Camden","NW1 9UY","In service","2020-10-07 10:19:38","2020-10-07 10:19:38","","On-street","NW1 9UY"
"b9313748c783bb01d2c3c4aba0b61d2d",-0.173857,51.550684,"London","London Borough of Camden","NW3 5QG","In service","2020-10-07 10:19:38","2020-10-07 10:19:38","","On-street","NW3 5QG"
"a029141d964493b98671f992808879f1",-0.195625,51.556031,"London","London Borough of Camden","NW6 1DL","In service","2020-10-07 10:19:38","2020-10-07 10:19:38","","On-street","NW6 1DL"
"fd6fcb91a1b50c3f508094e5a548d384",-0.180439,51.544147,"London","London Borough of Camden","NW6 3HB","In service","2020-10-07 10:19:38","2020-10-07 10:19:38","","On-street","NW6 3HB"
"85a415935680d484c8de26fa6eba23ff",-0.1473,51.543637,"London","London Borough of Camden","NW1 8DJ","In service","2020-10-07 10:19:38","2020-10-07 10:19:38","","On-street","NW1 8DJ"
"b24ba39b66b1201a1bd4ccca14555322",-0.194643,51.543565,"London","London Borough of Camden","NW6 2NN","In service","2020-10-07 10:19:38","2020-10-07 10:19:38","","On-street","NW6 2NN"
"95fb7c252162701880b013f2fceae943",-0.141419,51.52357,"London","London Borough of Camden","W1T 6BG","In service","2020-10-07 10:19:38","2020-10-07 10:19:38","","On-street","W1T 6BG"
"7928608b9e9836d0071cc77fcc0f91dd",-0.136251,51.546984,"London","London Borough of Camden","NW5 2LE","In service","2020-10-07 10:19:38","2020-10-07 10:19:38","","On-street","NW5 2LE"
"ae36512d18173db273731d66bc98044c",-0.141482,51.558289,"London","London Borough of Camden","NW5 1AP","In service","2020-10-07 10:19:38","2020-10-07 10:19:38","","On-street","NW5 1AP"
"8d1b6bd626121f91b2b12ac0c6ba0905",-0.140793,51.543054,"London","London Borough of Camden","NW1 9PR","In service","2020-10-07 10:19:38","2020-10-07 10:19:38","","On-street","NW1 9PR"
"ed7e63ca36ce9a89fb1f91511f38ae65",-0.136325,51.54569,"London","London Borough of Camden","NW5 2AH","In service","2020-10-07 10:19:38","2020-10-07 10:19:38","","On-street","NW5 2AH"
"2f67b7899a7b89cc4d66ee6946d74753",-0.158386,51.546487,"London","London Borough of Camden","NW3 4RE","In service","2020-10-07 10:19:38","2020-10-07 10:19:38","","On-street","NW3 4RE"
"2b8f0e08504757b5b4f3a562c822e84c",-0.178546,51.541922,"London","London Borough of Camden","NW6 4TN","In service","2020-10-07 10:19:38","2020-10-07 10:19:38","","On-street","NW6 4TN"
"1e0825eadb769c2160ec6d99548ff5d5",-0.13603,51.548549,"London","London Borough of Camden","NW5 2DS","In service","2020-10-07 10:19:39","2020-10-07 10:19:39","","On-street","NW5 2DS"
"f0ca0e4dd094003b31a91f5f9be5e151",-0.200259,51.550289,"London","London Borough of Camden","NW6 1NN","In service","2020-10-07 10:19:39","2020-10-07 10:19:39","","On-street","NW6 1NN"
"259cfa78aa348af6a1401465361492c0",-0.146804,51.559284,"London","London Borough of Camden","NW5 1SA","In service","2020-10-07 10:19:39","2020-10-07 10:19:39","","On-street","NW5 1SA"
"9ed9fe271e489d010373b3ddd3457ead",-0.173808,51.539489,"London","London Borough of Camden","NW8 6RD","In service","2020-10-07 10:19:39","2020-10-07 10:19:39","","On-street","NW8 6RD"
"260c314712edbfd93b01025ac74363d4",-0.1375,51.547826,"London","London Borough of Camden","NW5 2EH","In service","2020-10-07 10:19:39","2020-10-07 10:19:39","","On-street","NW5 2EH"
"8ee9c91c5b98cf9283fa7876022e0ba0",-0.146469,51.559611,"London","London Borough of Camden","NW5 1RZ","In service","2020-10-07 10:19:39","2020-10-07 10:19:39","","On-street","NW5 1RZ"
"3c23ee6415c3642476d5e9a514c66a54",-0.12398,51.518144,"London","London Borough of Camden","WC1A 2JU","In service","2020-10-07 10:19:39","2020-10-07 10:19:39","","On-street","WC1A 2JU"
"ed26ff7fbdee97af83445ff6098aa5e4",-0.141023,51.543797,"London","London Borough of Camden","NW1 8PJ","In service","2020-10-07 10:19:39","2020-10-07 10:19:39","","On-street","NW1 8PJ"
"60936ae758688100a9e76a93f7d6215a",-0.155952,51.542762,"London","London Borough of Camden","NW3 3QP","In service","2020-10-07 10:19:39","2020-10-07 10:19:39","","On-street","NW3 3QP"
"5988089586734f6480bd8cc5f367f99b",-0.207585,51.551649,"London","London Borough of Camden","NW2 3RA","In service","2020-10-07 10:19:39","2020-10-07 10:19:39","","On-street","NW2 3RA"
"2fd7901d81c7faa9c8636eb5d1ce0909",-0.160903,51.557491,"London","London Borough of Camden","NW3 2UB","In service","2020-10-07 10:19:39","2020-10-07 10:19:39","","On-street","NW3 2UB"
"86e1b797dc3cd603d6ae96f6812ca3bf",-0.143679,51.554435,"London","London Borough of Camden","NW5 1TY","In service","2020-10-07 10:19:39","2020-10-07 10:19:39","","On-street","NW5 1TY"
"566b971589b228d3b6e5af8123b3c1d4",-0.128484,51.545326,"London","London Borough of Camden","NW1 9RP","In service","2020-10-07 10:19:39","2020-10-07 10:19:39","","On-street","NW1 9RP"
"859866b249b5baa3ed3f83a86ec83a62",-0.115426,51.524426,"London","London Borough of Camden","WC1X 0JS","In service","2020-10-07 10:19:39","2020-10-07 10:19:39","","On-street","WC1X 0JS"
"019ebd17867972b004d6683fa4c64d50",-0.131178,51.544928,"London","London Borough of Camden","NW1 9XA","In service","2020-10-07 10:19:39","2020-10-07 10:19:39","","On-street","NW1 9XA"
"9319e8ccd187e2773282ec8d5a6edc8b",-0.203595,51.553486,"London","London Borough of Camden","NW2 3RN","In service","2020-10-07 10:19:39","2020-10-07 10:19:39","","On-street","NW2 3RN"
"f0aa4c8bffeb9b2654bb10578cce5a60",-0.127384,51.522762,"London","London Borough of Camden","WC1H 0DG","In service","2020-10-07 10:19:39","2020-10-07 10:19:39","","On-street","WC1H 0DG"
"5877589907765f24d5949e30ded7d21e",-0.139037,51.522974,"London","London Borough of Camden","W1T 5HF","In service","2020-10-07 10:19:39","2020-10-07 10:19:39","","On-street","W1T 5HF"
"bcbd3b183a93aa5976ff16c8df9d76db",-0.195466,51.549583,"London","London Borough of Camden","NW6 1PP","In service","2020-10-07 10:19:40","2020-10-07 10:19:40","","On-street","NW6 1PP"
"bbdac3ff655171855e614eef4eb97f77",-0.190546,51.542009,"London","London Borough of Camden","NW6 3AA","In service","2020-10-07 10:19:40","2020-10-07 10:19:40","","On-street","NW6 3AA"
"81d88d4f508d4f0d8acdf98c2b7ddbf3",-0.131312,51.529281,"London","London Borough of Camden","NW1 1LB","In service","2020-10-07 10:19:40","2020-10-07 10:19:40","","On-street","NW1 1LB"
"3dcdef04904bbd3c77a93e78274e7238",-0.191643,51.55676,"London","London Borough of Camden","NW3 7SP","In service","2020-10-07 10:19:40","2020-10-07 10:19:40","","On-street","NW3 7SP"
"b7881acca1ba3483c584243a36979233",-0.194627,51.55028,"London","London Borough of Camden","NW6 1TT","In service","2020-10-07 10:19:40","2020-10-07 10:19:40","","On-street","NW6 1TT"
"3affcbb957032e3cd1c0c3f8526e5de8",-0.143487,51.535056,"London","London Borough of Camden","NW1 7RS","In service","2020-10-07 10:19:40","2020-10-07 10:19:40","","On-street","NW1 7RS"
"f410602c9c86767a50e4aa907b565e45",-0.141407,51.533607,"London","London Borough of Camden","NW1 7RW","In service","2020-10-07 10:19:40","2020-10-07 10:19:40","","On-street","NW1 7RW"
"eb98a974c6bc005e6d8217434d983c99",-0.1341,51.543111,"London","London Borough of Camden","NW1 9SA","In service","2020-10-07 10:19:40","2020-10-07 10:19:40","","On-street","NW1 9SA"
"82f060a843c94c93e1e27c2a1efb89c8",-0.147201,51.540094,"London","London Borough of Camden","NW1 7DB","In service","2020-10-07 10:19:40","2020-10-07 10:19:40","","On-street","NW1 7DB"
"a30d5726c8973287be07619a601a3713",-0.178557,51.552627,"London","London Borough of Camden","NW3 6BB","In service","2020-10-07 10:19:40","2020-10-07 10:19:40","","On-street","NW3 6BB"
"837617c077d78cbdf4d27fe29f9af3ca",-0.174621,51.557079,"London","London Borough of Camden","NW3 1UB","In service","2020-10-07 10:19:40","2020-10-07 10:19:40","","On-street","NW3 1UB"
"cb0e59b8f769a8698b9f7154dd8809b5",-0.15869,51.548167,"London","London Borough of Camden","NW3 2YN","In service","2020-10-07 10:19:40","2020-10-07 10:19:40","","On-street","NW3 2YN"
"4297ec6a526a0cd1356e9d1e7acdc950",-0.128982,51.529944,"London","London Borough of Camden","NW1 1JJ","In service","2020-10-07 10:19:40","2020-10-07 10:19:40","","On-street","NW1 1JJ"
"d1247139f201f957c314d5c00cfe76ea",-0.138579,51.544626,"London","London Borough of Camden","NW1 9JN","In service","2020-10-07 10:19:40","2020-10-07 10:19:40","","On-street","NW1 9JN"
"e637c9c15d72fcbeecdcf3bddc224054",-0.147515,51.543438,"London","London Borough of Camden","NW1 8DN","In service","2020-10-07 10:19:40","2020-10-07 10:19:40","","On-street","NW1 8DN"
"328b7a68b2c415d6e3ea078ccd684076",-0.160717,51.556632,"London","London Borough of Camden","NW3 2UD","In service","2020-10-07 10:19:40","2020-10-07 10:19:40","","On-street","NW3 2UD"
"c4652623a9eccfedca508f44489d7c34",-0.156934,51.544674,"London","London Borough of Camden","NW3 4ST","In service","2020-10-07 10:19:40","2020-10-07 10:19:40","","On-street","NW3 4ST"
"c8b19ed0f5b5b7ac3e06ab514804c93f",-0.141935,51.554588,"London","London Borough of Camden","NW5 1UG","In service","2020-10-07 10:19:40","2020-10-07 10:19:40","","On-street","NW5 1UG"
"979a78536c56bfb5b2130655c1fdb31a",-0.155895,51.543931,"London","London Borough of Camden","NW3 3QB","In service","2020-10-07 10:19:41","2020-10-07 10:19:41","","On-street","NW3 3QB"
"f161106ed7ba23d15491b99478d721b7",-0.199519,51.550064,"London","London Borough of Camden","NW6 1NW","In service","2020-10-07 10:19:41","2020-10-07 10:19:41","","On-street","NW6 1NW"
"0c333af5fc95340c7cd3b6200a57b36d",-0.143461,51.559158,"London","London Borough of Camden","NW5 1SL","In service","2020-10-07 10:19:41","2020-10-07 10:19:41","","On-street","NW5 1SL"
"0af19bf33eb1ebf336f986ae3ca8f888",-0.153773,51.53749,"London","London Borough of Camden","NW1 7ST","In service","2020-10-07 10:19:41","2020-10-07 10:19:41","","On-street","NW1 7ST"
"a2b0b37517febefb5411c35df71f589c",-0.190111,51.552571,"London","London Borough of Camden","NW6 1LN","In service","2020-10-07 10:19:41","2020-10-07 10:19:41","","On-street","NW6 1LN"
"1bb3bb87bb980af0507e4e180ea285ee",-0.137615,51.55349,"London","London Borough of Camden","NW5 2NR","In service","2020-10-07 10:19:41","2020-10-07 10:19:41","","On-street","NW5 2NR"
"efb9833652b01e4834fd4226292f97b7",-0.137781,51.546512,"London","London Borough of Camden","NW5 2LN","In service","2020-10-07 10:19:41","2020-10-07 10:19:41","","On-street","NW5 2LN"
"f83bc2ec48a3fe867950df11f0f0e7df",-0.144601,51.561609,"London","London Borough of Camden","NW5 1EX","In service","2020-10-07 10:19:41","2020-10-07 10:19:41","","On-street","NW5 1EX"
"bc069d40134d13b7363a248cd19b2fa0",-0.159113,51.554182,"London","London Borough of Camden","NW3 2NU","In service","2020-10-07 10:19:41","2020-10-07 10:19:41","","On-street","NW3 2NU"
"8b0b26b6b391297deb6e9b56768404f5",-0.197705,51.552351,"London","London Borough of Camden","NW6 1QA","In service","2020-10-07 10:19:41","2020-10-07 10:19:41","","On-street","NW6 1QA"
"9fa0d696eae423fb3dd8c9b07890a31b",-0.164672,51.541295,"London","London Borough of Camden","NW3 3DL","In service","2020-10-07 10:19:41","2020-10-07 10:19:41","","On-street","NW3 3DL"
"e722740bb91c5694c21f2c3a5b05b131",-0.170245,51.546151,"London","London Borough of Camden","NW3 4EX","In service","2020-10-07 10:19:41","2020-10-07 10:19:41","","On-street","NW3 4EX"
"665a156b46e91f2bcc8f1ede20cfc036",-0.185071,51.544196,"London","London Borough of Camden","NW6 3EB","In service","2020-10-07 10:19:41","2020-10-07 10:19:41","","On-street","NW6 3EB"
"3e7aa254c2523bcadfad41b7e117f0a5",-0.19417,51.553801,"London","London Borough of Camden","NW6 1UG","In service","2020-10-07 10:19:41","2020-10-07 10:19:41","","On-street","NW6 1UG"
"58cea74fcce438569f008dbdd8b5ae84",-0.141875,51.535019,"London","London Borough of Camden","NW1 7QD","In service","2020-10-07 10:19:41","2020-10-07 10:19:41","","On-street","NW1 7QD"
"21efe0a8cece7f3d66b9bd9c1cf47e44",-0.169884,51.547008,"London","London Borough of Camden","NW3 4HU","In service","2020-10-07 10:19:41","2020-10-07 10:19:41","","On-street","NW3 4HU"
"f8aac844cd8c2808caee118b003bcc17",-0.147833,51.539739,"London","London Borough of Camden","NW1 7DJ","In service","2020-10-07 10:19:41","2020-10-07 10:19:41","","On-street","NW1 7DJ"
"a167a7fb11a219cab4406f83192b9180",-0.162995,51.556996,"London","London Borough of Camden","NW3 2TA","In service","2020-10-07 10:19:41","2020-10-07 10:19:41","","On-street","NW3 2TA"
"28eeb4998e282cee80f46cd5a67b7e30",-0.197834,51.558612,"London","London Borough of Camden","NW2 2BY","In service","2020-10-07 10:19:41","2020-10-07 10:19:41","","On-street","NW2 2BY"
"d74c87ebb12788fa033de26e3cb636b2",-0.186566,51.55711,"London","London Borough of Camden","NW3 7RA","In service","2020-10-07 10:19:42","2020-10-07 10:19:42","","On-street","NW3 7RA"
"b630d97460c4d5807197d28fe2d3b849",-0.160335,51.556778,"London","London Borough of Camden","NW3 2UA","In service","2020-10-07 10:19:42","2020-10-07 10:19:42","","On-street","NW3 2UA"
"2803163d27ac58633fb69d37bff948de",-0.133093,51.521479,"London","London Borough of Camden","W1T 7LQ","In service","2020-10-07 10:19:42","2020-10-07 10:19:42","","On-street","W1T 7LQ"
"99c398bec3aaf79c0cfa43455916a92d",-0.144077,51.557919,"London","London Borough of Camden","NW5 1BY","In service","2020-10-07 10:19:42","2020-10-07 10:19:42","","On-street","NW5 1BY"
"afbd5f8942054d76e2e7e76dafe30a38",-0.182136,51.544245,"London","London Borough of Camden","NW6 3LN","In service","2020-10-07 10:19:42","2020-10-07 10:19:42","","On-street","NW6 3LN"
"662580899bd43f0689c48ce711740d04",-0.141883,51.531195,"London","London Borough of Camden","NW1 3TB","In service","2020-10-07 10:19:42","2020-10-07 10:19:42","","On-street","NW1 3TB"
"877364d5dfccab34e248f361435753ce",-0.138982,51.544858,"London","London Borough of Camden","NW1 9JN","In service","2020-10-07 10:19:42","2020-10-07 10:19:42","","On-street","NW1 9JN"
"e4db82f0b118fd16cd2864f1c2a3c5c1",-0.160488,51.555526,"London","London Borough of Camden","NW3 2LX","In service","2020-10-07 10:19:42","2020-10-07 10:19:42","","On-street","NW3 2LX"
"ca1251a374641cabc28408702fd5253b",-0.163145,51.559108,"London","London Borough of Camden","NW3 2SP","In service","2020-10-07 10:19:42","2020-10-07 10:19:42","","On-street","NW3 2SP"
"0fdb0ec210f7d541fa6d0179b203ade2",-0.144498,51.562259,"London","London Borough of Camden","NW5 1EY","In service","2020-10-07 10:19:42","2020-10-07 10:19:42","","On-street","NW5 1EY"
"6c137d3baeb0f02943ced3d280ec4be1",-0.145844,51.543623,"London","London Borough of Camden","NW1 8DB","In service","2020-10-07 10:19:42","2020-10-07 10:19:42","","On-street","NW1 8DB"
"74ba4f25226a0cadf729e7ad0807538e",-0.159201,51.540901,"London","London Borough of Camden","NW3 3AT","In service","2020-10-07 10:19:42","2020-10-07 10:19:42","","On-street","NW3 3AT"
"8865522a87f300bac8a03a4ddcbc784b",-0.151236,51.543785,"London","London Borough of Camden","NW1 8HJ","In service","2020-10-07 10:19:42","2020-10-07 10:19:42","","On-street","NW1 8HJ"
"7cdfac3d267c3988a41f964df6f797f7",-0.147536,51.561548,"London","London Borough of Camden","NW5 1QU","In service","2020-10-07 10:19:42","2020-10-07 10:19:42","","On-street","NW5 1QU"
"d95ddfe8db8b9c7cc122c4a94e2d69ec",-0.12494,51.518054,"London","London Borough of Camden","WC1A 2HS","In service","2020-10-07 10:19:42","2020-10-07 10:19:42","","On-street","WC1A 2HS"
"446405c42efe4937e9817340cc5cd50e",-0.196095,51.542592,"London","London Borough of Camden","NW6 4NB","In service","2020-10-07 10:19:42","2020-10-07 10:19:42","","On-street","NW6 4NB"
"0c6c89f46586220eacd75d79618d602e",-0.139125,51.547211,"London","London Borough of Camden","NW5 2JX","In service","2020-10-07 10:19:42","2020-10-07 10:19:42","","On-street","NW5 2JX"
"05e870832c5a9210a4583bea3e016220",-0.144091,51.543734,"London","London Borough of Camden","NW1 8PU","In service","2020-10-07 10:19:43","2020-10-07 10:19:43","","On-street","NW1 8PU"
"948221b0f5dc6ac54d2eba23d84ddc3f",-0.192893,51.546033,"London","London Borough of Camden","NW6 2AS","In service","2020-10-07 10:19:43","2020-10-07 10:19:43","","On-street","NW6 2AS"
"5c7646b1d39fc0715f330479e4e5f254",-0.143491,51.55985,"London","London Borough of Camden","NW5 1SJ","In service","2020-10-07 10:19:43","2020-10-07 10:19:43","","On-street","NW5 1SJ"
"5adf289aab7000d699414f49693ee64b",-0.134145,51.551818,"London","London Borough of Camden","NW5 2QY","In service","2020-10-07 10:19:43","2020-10-07 10:19:43","","On-street","NW5 2QY"
"cd0bb2d6eb2b97f9f728bc06876aa2b7",-0.195535,51.544069,"London","London Borough of Camden","NW6 2NT","In service","2020-10-07 10:19:43","2020-10-07 10:19:43","","On-street","NW6 2NT"
"aa76fe96a68147ca11625236017dd3c8",-0.1854,51.541166,"London","London Borough of Camden","NW6 3EP","In service","2020-10-07 10:19:43","2020-10-07 10:19:43","","On-street","NW6 3EP"
"17a54841d7482dea9145a6f768773b97",-0.169722,51.54092,"London","London Borough of Camden","NW3 3BX","In service","2020-10-07 10:19:43","2020-10-07 10:19:43","","On-street","NW3 3BX"
"ce6e7951844841fc81d3f0773d59f5ee",-0.184749,51.552948,"London","London Borough of Camden","NW3 6QD","In service","2020-10-07 10:19:43","2020-10-07 10:19:43","","On-street","NW3 6QD"
"a127f9daab56dc2fe23c22f7fedcef42",-0.148875,51.548133,"London","London Borough of Camden","NW5 4LS","In service","2020-10-07 10:19:43","2020-10-07 10:19:43","","On-street","NW5 4LS"
"551139f5e18a4553c08e44cea059f37f",-0.190766,51.557662,"London","London Borough of Camden","NW3 7SS","In service","2020-10-07 10:19:43","2020-10-07 10:19:43","","On-street","NW3 7SS"
"a5211379cca689e20fdbff639927e61a",-0.191368,51.559601,"London","London Borough of Camden","NW3 7QN","In service","2020-10-07 10:19:43","2020-10-07 10:19:43","","On-street","NW3 7QN"
"42cbaece0f8e48e7b8c957679e2402c8",-0.205322,51.553684,"London","London Borough of Camden","NW2 3SS","In service","2020-10-07 10:19:43","2020-10-07 10:19:43","","On-street","NW2 3SS"
"0babfe8976f43f76e89b11e85ff528e7",-0.120802,51.515614,"London","London Borough of Camden","WC2B 5AZ","In service","2020-10-07 10:19:43","2020-10-07 10:19:43","","On-street","WC2B 5AZ"
"c86d37e80606d5defa2dc7376d6cd6a1",-0.135835,51.54563,"London","London Borough of Camden","NW5 2AH","In service","2020-10-07 10:19:43","2020-10-07 10:19:43","","On-street","NW5 2AH"
"84a30ec28eca0d492f6c53dcb57036ae",-0.121831,51.517947,"London","London Borough of Camden","WC1A 2DB","In service","2020-10-07 10:19:43","2020-10-07 10:19:43","","On-street","WC1A 2DB"
"cd492e1838aea0ecbab69d22aad2bc47",-0.142734,51.5585,"London","London Borough of Camden","NW5 1DH","In service","2020-10-07 10:19:43","2020-10-07 10:19:43","","On-street","NW5 1DH"
"27fc0c96dfa0146e6a14c67fe66bf500",-0.159085,51.542602,"London","London Borough of Camden","NW3 3RP","In service","2020-10-07 10:19:43","2020-10-07 10:19:43","","On-street","NW3 3RP"
"190fd024f404c303f20714b3c936b192",-0.138211,51.549425,"London","London Borough of Camden","NW5 2DL","In service","2020-10-07 10:19:43","2020-10-07 10:19:43","","On-street","NW5 2DL"
"0672911fa5ea6a6426dd874956e77bd6",-0.169323,51.542815,"London","London Borough of Camden","NW3 3JL","In service","2020-10-07 10:19:44","2020-10-07 10:19:44","","On-street","NW3 3JL"
"9aca5280b49e80db6fbbafc651080b09",-0.138717,51.523727,"London","London Borough of Camden","W1T 5EP","In service","2020-10-07 10:19:44","2020-10-07 10:19:44","","On-street","W1T 5EP"
"35edba6d5151bf9073ab488a80938117",-0.18773,51.545118,"London","London Borough of Camden","NW6 3DB","In service","2020-10-07 10:19:44","2020-10-07 10:19:44","","On-street","NW6 3DB"
"f61fe5a906ef21124bd81e064a543e44",-0.147122,51.559982,"London","London Borough of Camden","NW5 1EL","In service","2020-10-07 10:19:44","2020-10-07 10:19:44","","On-street","NW5 1EL"
"c44d6d3ec1bba4479b0a5d496519adbb",-0.13543,51.553371,"London","London Borough of Camden","NW5 2XD","In service","2020-10-07 10:19:44","2020-10-07 10:19:44","","On-street","NW5 2XD"
"8e40e4f493267328db7ee6769e6565c8",-0.144386,51.535871,"London","London Borough of Camden","NW1 7RT","In service","2020-10-07 10:19:44","2020-10-07 10:19:44","","On-street","NW1 7RT"
"0c3b9c2c66ac96cf11e0dc755136b872",-0.119192,51.522196,"London","London Borough of Camden","WC1N 3JB","In service","2020-10-07 10:19:44","2020-10-07 10:19:44","","On-street","WC1N 3JB"
"8d96c207e0243d56db7fd5d4363a96f6",-0.140151,51.523643,"London","London Borough of Camden","W1T 6BU","In service","2020-10-07 10:19:44","2020-10-07 10:19:44","","On-street","W1T 6BU"
"77fba4bf62f9daae673c84bb39ae93a4",-0.18879,51.558869,"London","London Borough of Camden","NW3 7RP","In service","2020-10-07 10:19:44","2020-10-07 10:19:44","","On-street","NW3 7RP"
"efcf3d2770d7690312829b91b9a8a12b",-0.134932,51.54353,"London","London Borough of Camden","NW1 9SA","In service","2020-10-07 10:19:44","2020-10-07 10:19:44","","On-street","NW1 9SA"
"589ed0f0b009f655512d52bece14827c",-0.146585,51.561956,"London","London Borough of Camden","NW5 1ER","In service","2020-10-07 10:19:44","2020-10-07 10:19:44","","On-street","NW5 1ER"
"c477f70d2885dff00cbb6c3680fd7710",-0.130188,51.525514,"London","London Borough of Camden","WC1H 0EF","In service","2020-10-07 10:19:44","2020-10-07 10:19:44","","On-street","WC1H 0EF"
"d4d1a463f18aed9d725ad14c0fabd637",-0.187254,51.561973,"London","London Borough of Camden","NW3 7UU","In service","2020-10-07 10:19:44","2020-10-07 10:19:44","","On-street","NW3 7UU"
"4047a3377c3b3415790d26aaf1fc520d",-0.195325,51.559478,"London","London Borough of Camden","NW3 7PR","In service","2020-10-07 10:19:44","2020-10-07 10:19:44","","On-street","NW3 7PR"
"1fa9024b5a795aa4eabc7abbd9bce7e9",-0.150861,51.569563,"London","London Borough of Camden","N6 6BB","In service","2020-10-07 10:19:44","2020-10-07 10:19:44","","On-street","N6 6BB"
"9687c2c48971563e5ef9d4094395085e",-0.197222,51.547095,"London","London Borough of Camden","NW6 2QY","In service","2020-10-07 10:19:44","2020-10-07 10:19:44","","On-street","NW6 2QY"
"5918a5a62e130beff95c430b8728a973",-0.153426,51.554263,"London","London Borough of Camden","NW3 2HX","In service","2020-10-07 10:19:44","2020-10-07 10:19:44","","On-street","NW3 2HX"
"682d409f010b6adafa853f2111b6d49a",-0.19516,51.545293,"London","London Borough of Camden","NW6 2PT","In service","2020-10-07 10:19:45","2020-10-07 10:19:45","","On-street","NW6 2PT"
"a241000aa7e57b9fe80ebecfddd317af",-0.195552,51.559779,"London","London Borough of Camden","NW3 7PR","In service","2020-10-07 10:19:45","2020-10-07 10:19:45","","On-street","NW3 7PR"
"cb38ebce12821806bc8df6d81e83e483",-0.171942,51.544364,"London","London Borough of Camden","NW3 3EY","In service","2020-10-07 10:19:45","2020-10-07 10:19:45","","On-street","NW3 3EY"
"3f894abe73d5746d41b5b50453e2d4fb",-0.174645,51.552529,"London","London Borough of Camden","NW3 5QA","In service","2020-10-07 10:19:45","2020-10-07 10:19:45","","On-street","NW3 5QA"
"11eb4565f36fd05c128b774f9515de2c",-0.182904,51.544349,"London","London Borough of Camden","NW6 3SL","In service","2020-10-07 10:19:45","2020-10-07 10:19:45","","On-street","NW6 3SL"
"2bad3b25b993455f9c56a2fc868ca9cb",-0.138674,51.544724,"London","London Borough of Camden","NW1 9JN","In service","2020-10-07 10:19:45","2020-10-07 10:19:45","","On-street","NW1 9JN"
"0b3a86a506dfa027c0ad603992a2be84",-0.194019,51.560016,"London","London Borough of Camden","NW3 7NS","In service","2020-10-07 10:19:45","2020-10-07 10:19:45","","On-street","NW3 7NS"
"6ac2722b65dd2f045f9f22f56e2b0df8",-0.196106,51.550937,"London","London Borough of Camden","NW6 1TJ","In service","2020-10-07 10:19:45","2020-10-07 10:19:45","","On-street","NW6 1TJ"
"be0f7bc1d8fda065e5f8b576af2fcdbc",-0.20424,51.552261,"London","London Borough of Camden","NW2 3SP","In service","2020-10-07 10:19:45","2020-10-07 10:19:45","","On-street","NW2 3SP"
"6a433f664db58ee955f6678d22979a00",-0.130376,51.546499,"London","London Borough of Camden","NW1 9BJ","In service","2020-10-07 10:19:45","2020-10-07 10:19:45","","On-street","NW1 9BJ"
"2f4e195b441580cf1d9cfc64d47e0ab2",-0.144122,51.543245,"London","London Borough of Camden","NW1 8PU","In service","2020-10-07 10:19:45","2020-10-07 10:19:45","","On-street","NW1 8PU"
"6b2faeab8a9ae46c57776a8359f489c4",-0.144782,51.558514,"London","London Borough of Camden","NW5 1SX","In service","2020-10-07 10:19:45","2020-10-07 10:19:45","","On-street","NW5 1SX"
"dfd9daa9afec8fc846becb997c324968",-0.134956,51.542861,"London","London Borough of Camden","NW1 9HS","In service","2020-10-07 10:19:45","2020-10-07 10:19:45","","On-street","NW1 9HS"
"620c94ced213766ab3cf11cd439f4582",-0.131042,51.543371,"London","London Borough of Camden","NW1 9RQ","In service","2020-10-07 10:19:45","2020-10-07 10:19:45","","On-street","NW1 9RQ"
"80b2c811978f647a5ee540691ae611c1",-0.183084,51.552234,"London","London Borough of Camden","NW3 6PX","In service","2020-10-07 10:19:46","2020-10-07 10:19:46","","On-street","NW3 6PX"
"cef48e566d987c2e91ace8d4912ca18c",-0.157201,51.545778,"London","London Borough of Camden","NW3 4SP","In service","2020-10-07 10:19:46","2020-10-07 10:19:46","","On-street","NW3 4SP"
"3c8f59e19237c94cc6a799e70eda8a38",-0.141268,51.557776,"London","London Borough of Camden","NW5 1AN","In service","2020-10-07 10:19:46","2020-10-07 10:19:46","","On-street","NW5 1AN"
"e9050b1c5694fb43c71e9dc49a01ff8d",51.506127,-0.347177,"Southall","London","UB1 3EU","In service","2020-11-06 13:26:31","2020-11-06 13:32:23","","NHS property","UB1 3EU"
"d85fab3cd7776ac0e175c591f9651352",51.506299,-0.347091,"Southall","London","UB1 3EU","In service","2020-11-06 13:26:31","2020-11-06 13:26:31","","NHS property","UB1 3EU"
"9e1d5522063f73edcc7a2b692bae6a2a",51.506345,-0.347088,"Southall","London","UB1 3EU","In service","2020-11-06 13:26:31","2020-11-06 13:26:31","","NHS property","UB1 3EU"
"bbd451c375fb5b293a9b1f082bf8d024",51.5064,-0.347086,"Southall","London","UB1 3EU","In service","2020-11-06 13:26:31","2020-11-06 13:26:31","","NHS property","UB1 3EU"
"6cc781cf2633337384a0a72f8c2b6359",51.506452,-0.347077,"Southall","London","UB1 3EU","In service","2020-11-06 13:26:31","2020-11-06 13:44:06","","NHS property","UB1 3EU"
"4bff1e6238b947fb93968cd4ac5fca6f",51.506494,-0.347069,"Southall","London","UB1 3EU","In service","2020-11-06 13:26:31","2020-11-06 13:26:31","","NHS property","UB1 3EU"
"dde010d1042a8081990d4e5a98d2f933",51.506552,-0.346863,"Southall","London","UB1 3EU","In service","2020-11-06 13:26:31","2020-11-06 13:26:31","","NHS property","UB1 3EU"
"050419664b38ac83933adfa7aca6681d",51.526054,-0.458714,"Uxbridge","London","UB8 3NJ","In service","2020-03-30 17:16:49","2020-03-30 17:16:49","","Other","UB8 3NJ"
"eb3ecc0748da0f58287794ef8a55aac4",51.526054,-0.458714,"Uxbridge","London","UB8 3NJ","In service","2020-03-30 17:16:49","2020-03-30 17:16:49","","Other","UB8 3NJ"
"2a8796b53a6d14d908486117feb04b66",51.526054,-0.458714,"Uxbridge","London","UB8 3NJ","In service","2020-03-30 17:16:49","2020-03-30 17:16:49","","Other","UB8 3NJ"
"b3377e183990b02e56a51ab3db814d2e",51.48021,-0.450892,"Longford","London","TW6 2EQ","In service","2020-03-30 17:16:49","2020-04-24 09:09:03","","Public car park","TW6 2EQ"
"72c2f0fc89591504280a49c7cb209024",51.480385,-0.451055,"Longford","London","TW6 2EQ","In service","2020-03-30 17:16:49","2020-04-24 09:09:30","","Public car park","TW6 2EQ"
"76094d1912798f344a1e8ef759ab555b",51.480191,-0.450977,"Longford","London","TW6 2EQ","In service","2020-03-30 17:16:49","2020-04-24 09:09:58","","Public car park","TW6 2EQ"
"e00b9ce945474bef013552b8e276dc52",51.480164,-0.450935,"Longford","London","TW6 2EQ","In service","2020-03-30 17:16:49","2020-04-24 09:10:25","","Public car park","TW6 2EQ"
"56f00a07eb31796f72bb4745fe2cbdbf",51.515974,-0.403098,"Hayes","London","UB3 3EX","In service","2020-03-30 17:16:49","2020-04-24 09:10:57","","Workplace car park","UB3 3EX"
"946dca6d0d2657cfc194c3d4fd39ccb3",51.516147,-0.403127,"Hayes","London","UB3 3EX","In service","2020-03-30 17:16:49","2020-04-24 09:11:25","","Workplace car park","UB3 3EX"
"e0c4ba8f6e02c02ed67cc30334e8c183",51.480804,-0.194908,"London","London","SW6 1BW","In service","2020-03-30 17:17:01","2020-03-30 17:17:01","","Public car park","SW6 1BW"
"1a9157dd91e51082d1d02b15dc1deb6a",51.480919,-0.195055,"London","London","SW6 1BW","In service","2020-03-30 17:17:03","2020-03-30 17:17:03","","Public car park","SW6 1BW"
"9adbfdde7f2caa32c6d714b51d16a3e4",51.480316,-0.194363,"London","London","SW6 1BW","In service","2020-03-30 17:17:08","2020-03-30 17:17:08","","Public car park","SW6 1BW"
"e0535f2571c9e8b32495934950f92d23",51.51622,-0.403373,"London","London","UB3 3EX","In service","2020-03-30 17:17:11","2020-03-30 17:17:11","","Workplace car park","UB3 3EX"
"ab1d0536239a300252ab93205d6f3897",51.494325,-0.279547,"London","London","W4 5PY","In service","2020-03-30 17:17:11","2020-03-30 17:17:11","","Workplace car park","W4 5PY"
"8abde6212f0d44c1ec9308228ec27be3",51.494327,-0.279518,"London","London","W4 5PY","In service","2020-03-30 17:17:11","2020-03-30 17:17:11","","Workplace car park","W4 5PY"
"3337a3c31ebcc50989297a8cf95c3720",51.516021,-0.403364,"Hayes","London","UB3 3EX","In service","2020-03-30 17:17:12","2020-03-30 17:17:12","","Other","UB3 3EX"
"1e73c6513b55e2467eecb12ebd02dc84",51.494329,-0.279547,"London","London","W4 5PY","In service","2020-03-30 17:17:27","2020-03-30 17:17:27","","Other","W4 5PY"
"62b74c5bd8bf9fec4e523c4173460160",51.550369,-0.108984,"London","London","N7 8JE","In service","2020-03-17 09:43:47","2020-03-17 09:43:47","","Service station","N7 8JE"
"bd6834b4625e4f9aadf71fb4a5813c94",51.550369,-0.108984,"London","London","N7 8JE","In service","2020-03-17 09:43:50","2020-03-17 09:43:50","","Service station","N7 8JE"
"0f76600a29157de328329d89f2e84d38",51.477121,-0.148161,"London","London","SW8 4LT","In service","2020-03-17 09:44:01","2020-03-17 09:44:01","","Service station","SW8 4LT"
"d8d0b8c0be8d8d7536658ddccd36f0e2",51.582274,-0.12804,"London","London","N8 8JN","In service","2020-03-17 09:44:02","2020-03-17 09:44:02","","Service station","N8 8JN"
"5b13783914c219f584f7c974777f6e4e",51.515633,-0.291388,"London","London","W5 3HJ","In service","2020-03-17 09:44:02","2020-03-17 09:44:02","","Service station","W5 3HJ"
"e129a878f7b0e5aa9ac09e0282f64ea6",51.475403,0.026891,"London","London","SE3 8UQ","In service","2020-03-17 09:44:02","2020-03-17 09:44:02","","Service station","SE3 8UQ"
"68a4bcd21c62f4467123473b6a398da9",51.539064,-0.101269,"Islington","London","N1 2TZ","In service","2020-03-17 09:44:02","2020-03-17 09:44:02","","Service station","N1 2TZ"
"a7764e28f003eb6dfb636dce8ff2c0bd",51.517808,-0.066025,"London","London","E1 1DT","In service","2020-03-17 09:44:02","2020-03-17 09:44:02","","Service station","E1 1DT"
"b49ebc5e771d216bfd346a5d434e6975",51.520063,-0.191002,"London","London","W2 5EH","In service","2020-03-17 09:44:02","2020-03-17 09:44:02","","Service station","W2 5EH"
"3f74bbc068d4b5346ab48884c949bd86",51.525169,-0.090466,"London","London","EC1V 9BP","In service","2020-03-17 09:44:02","2020-03-17 09:44:02","","Service station","EC1V 9BP"
"8662765691f07f66bde07ce0c11bc7be",51.435605,0.060725,"London","London","SE9 3AL","In service","2020-03-17 09:44:03","2020-03-17 09:44:03","","Service station","SE9 3AL"
"d2af33186475506f728833efcadc0cf1",51.415925,-0.1253,"Croydon","London","SW16 5DH","In service","2020-08-24 09:12:28","2020-08-24 09:12:28","","On-street","SW16 5DH"
"de9d400a46bec4ebd7e4f4e83c7d96fc",51.564615,-0.059948,"Hackney","London","E5 9BU","In service","2020-08-24 09:12:28","2020-08-24 09:12:28","","On-street","E5 9BU"
"8e6174e864adbb423d4ea4f3de745402",51.391335,-0.118992,"Croydon","London","CR7 6BB","In service","2020-08-24 09:12:28","2020-08-24 09:12:28","","On-street","CR7 6BB"
"7cca8eff93fd15cd46cfd1a0487a674b",51.332135,-0.12429,"Croydon","London","CR8 4DB","In service","2020-08-24 09:12:28","2020-08-24 09:12:28","","On-street","CR8 4DB"
"123bd1f8dc1d10d2acb4ac37f7dcd47d",51.445947,-0.144534,"London","London","SW12 0NA","In service","2020-08-24 09:12:28","2020-08-24 09:12:28","","On-street","SW12 0NA"
"461482584ef6a9ff066524e0ed90472b",51.472046,-0.03093,"Lewisham","London","SE14 6QP","In service","2020-08-24 09:12:28","2020-08-24 09:12:28","","On-street","SE14 6QP"
"4d89c2441591328e732fea57475ccf8c",51.454782,-0.113358,"London","London","SW2 2TH","In service","2020-08-24 09:12:28","2020-08-24 09:12:28","","On-street","SW2 2TH"
"e54868ae34f3e31c085d3f281668f9d2",51.426943,-0.131949,"Lambeth","London","SW16 6AB","In service","2020-08-24 09:12:28","2020-08-24 09:12:28","","On-street","SW16 6AB"
"089f41810321eefc3f4eef5d4a388e42",51.497106,-0.115396,"London","London","SE17LH","In service","2020-08-24 09:12:28","2020-08-24 09:12:28","","On-street","SE17LH"
"2fd5fa014e8b8ada3a0453c212bfa5e7",51.43039,-0.130183,"Lambeth","London","SW16 1XU","In service","2020-08-24 09:12:29","2020-08-24 09:12:29","","On-street","SW16 1XU"
"fc783d1e193be5e00940015a1d124b98",51.585724,-0.182869,"London","London","NW11 6JJ","In service","2020-08-24 09:12:29","2020-08-24 09:12:29","","On-street","NW11 6JJ"
"968ddc777f7c345ac2ce36917399875d",51.564362,-0.278134,"Brent","London","HA9 9AB","In service","2020-08-24 09:12:29","2020-08-24 09:12:29","","On-street","HA9 9AB"
"ebffabc401334868c7cc93170cf4b7ab",51.421076,-0.175194,"Merton","London","SW19 2JE","In service","2020-08-24 09:12:29","2020-08-24 09:12:29","","On-street","SW19 2JE"
"fd20632af3e5286f8382f9d70d3686d1",51.487297,-0.111949,"London","London","SE11 5DW","In service","2020-08-24 09:12:29","2020-08-24 09:12:29","","On-street","SE11 5DW"
"79061a0f9742cef62d1770da87651446",51.442172,-0.124887,"Lambeth","London","SW2 4XA","In service","2020-08-24 09:12:29","2020-08-24 09:12:29","","On-street","SW2 4XA"
"09476d7cfdb374bf90054805bef070d4",51.485944,-0.11905,"London","London","SE11 5JA","In service","2020-08-24 09:12:29","2020-08-24 09:12:29","","On-street","SE11 5JA"
"2bed1f116459e39a4b4a1ed8593133a8",51.533945,-0.247547,"Brent","London","NW10 4UP","In service","2020-08-24 09:12:29","2020-08-24 09:12:29","","On-street","NW10 4UP"
"da1d073d5e5217193ca065c27b349074",51.320621,-0.089501,"Croydon","London","CR8 5BG","In service","2020-08-24 09:12:29","2020-08-24 09:12:29","","On-street","CR8 5BG"
"bf9166d629a02d01b56a15cd78f1c4ff",51.370052,0.00062,"London","London","BR4 9HZ","In service","2020-08-24 09:12:29","2020-08-24 09:12:29","","On-street","BR4 9HZ"
"6568e6cf47b992896bb27bf4ab0ece7f",51.328179,-0.106276,"Croydon","London","CR8 5JE","In service","2020-08-24 09:12:30","2020-08-24 09:12:30","","On-street","CR8 5JE"
"02bc414d4d720d2779e9d6b65b58fac8",51.542079,-0.297659,"Brent","London","HA0 4PJ","In service","2020-08-24 09:12:30","2020-08-24 09:12:30","","On-street","HA0 4PJ"
"1914389940d7d8f73941e693adb7ca28",51.471732,-0.135851,"Lambeth","London","SW8 4NX","In service","2020-08-24 09:12:30","2020-08-24 09:12:30","","On-street","SW8 4NX"
"398097b2cf427da5c1ae4ddd25af2f10",51.585919,-0.181334,"Barnet","London","NW11 6JT","In service","2020-08-24 09:12:30","2020-08-24 09:12:30","","On-street","NW11 6JT"
"3fef72af60a157a86af72f47057e2784",51.325761,-0.100274,"Croydon","London","CR8 5AA","In service","2020-08-24 09:12:30","2020-08-24 09:12:30","","On-street","CR8 5AA"
"b513fc6894200175b0877abd1246505e",51.544215,-0.124378,"London","London","N7 9NT","In service","2020-08-24 09:12:30","2020-08-24 09:12:30","","On-street","N7 9NT"
"6160dcc7fc84f8111da6ee9f158450dc",51.532648,-0.313562,"London","London","UB6 8DQ","In service","2020-08-24 09:12:30","2020-08-24 09:12:30","","On-street","UB6 8DQ"
"d5af2e96ccc303ab13f1d50e45a94f82",51.59637,0.09102,"Redbridge","London","IG6 3HD","In service","2020-08-24 09:12:32","2020-08-24 09:12:32","","On-street","IG6 3HD"
"da155be9cb1f3858bd3cdf2f5c62bcda",51.458934,-0.195435,"London","London","SW18 1HF","In service","2020-08-24 09:12:32","2020-08-24 09:12:32","","On-street","SW18 1HF"
"6aa555da3294543414fc984733dec0fb",51.526212,-0.162415,"Westminster","London","NW1 4SJ","In service","2020-08-24 09:12:32","2020-08-24 09:12:32","","On-street","NW1 4SJ"
"05bb4b2d9ae7b698e9fbbc34c362d676",51.41137,-0.191949,"Merton","London","SW19 3XD","In service","2020-08-24 09:12:32","2020-08-24 09:12:32","","On-street","SW19 3XD"
"2b184cb4c493c06c5e4d2fbf41f67025",51.5017,-0.18363,"Westminster","London","SW7 5DP","In service","2020-08-24 09:12:32","2020-08-24 09:12:32","","On-street","SW7 5DP"
"8b5446358eab0a15cbfc3b1b8ae07d12",51.544101,-0.124548,"London","London","N7 9QH","In service","2020-08-24 09:12:32","2020-08-24 09:12:32","","Workplace car park","N7 9QH"
"b4d585f96e00b2f359a5b50d42dccbdd",51.567892,0.007567,"Waltham Forest","London","E11 1HE","In service","2020-08-24 09:12:32","2020-08-24 09:12:32","","Park & Ride site","E11 1HE"
"e68aba1a336dc5ca6c6821228c31a0aa",51.460982,-0.16626,"London","London","SW11 1EQ","In service","2020-08-24 09:12:32","2020-08-24 09:12:32","","On-street","SW11 1EQ"
"87200e5b167d3cc06ee14981d2003273",51.468443,-0.280397,"Richmond","London","TW9 4LN","In service","2020-08-24 09:12:33","2020-08-24 09:12:33","","On-street","TW9 4LN"
"3b327cf3a28fd496d9cb43ace4344d3d",51.467819,-0.283077,"Richmond","London","TW9 4LN","In service","2020-08-24 09:12:33","2020-08-24 09:12:33","","On-street","TW9 4LN"
"a765514f6174d63c8626630cc5232482",51.523421,0.068574,"Newham","London","E6 6JF","In service","2020-08-24 09:12:33","2020-08-24 09:12:33","","On-street","E6 6JF"
"43307358d8b48606ebe8ec3b650e638a",51.524895,-0.143177,"London","London","NW13UP","In service","2020-08-24 09:12:33","2020-08-24 09:12:33","","On-street","NW13UP"
"d8ec84f8169058706018dcf2617f32b3",51.339416,-0.117572,"Croydon","London","CR8 2LE","In service","2020-08-24 09:12:34","2020-08-24 09:12:34","","On-street","CR8 2LE"
"38d2577ac19a6d62d7bf82e9ef0c7958",51.522099,-0.127543,"London","London","WC1B 5EA","In service","2020-08-24 09:12:34","2020-08-24 09:12:34","","On-street","WC1B 5EA"
"6c39b3c5c0716cfb5175631b61e795f1",51.564444,-0.351416,"Harrow","London","HA2 8HN","In service","2020-08-24 09:12:34","2020-08-24 09:12:34","","Park & Ride site","HA2 8HN"
"c1f818ce8ab11d96f33c803348b2686e",51.524472,-0.144152,"Camden","London","NW1 1DF","In service","2020-11-02 11:39:27","2020-11-02 11:39:27","","On-street","NW1 1DF"
"95efe103a34641050e01f45a9a265a8c",51.494868,-0.132312,"Westminster","London","SW1P 2DZ","In service","2020-11-18 14:06:55","2020-11-18 14:06:55","","On-street","SW1P 2DZ"
"3b43ec40b373ce3468dccca34645a12f",51.494868,-0.132312,"Westminster","London","SW1P 2DZ","In service","2020-11-18 14:06:55","2020-11-18 14:06:55","","On-street","SW1P 2DZ"
"95a2ca0579acbb4ecf7d32731bd6ff13",51.494868,-0.132312,"Westminster","London","SW1P 2DZ","In service","2020-11-18 14:06:55","2020-11-18 14:06:55","","On-street","SW1P 2DZ"
"3b461e081065bb69adfc7089d6545c65",51.500074,-0.153404,"Westminster","London","SW1X 8PJ","In service","2020-11-18 14:06:55","2020-11-18 14:06:55","","On-street","SW1X 8PJ"
